{"type":"FeatureCollection","features":[{"type":"Feature","geometry":{"type":"Polygon","coordinates":[[[92.82665618066639,11.847348650035736],[92.90278635628746,11.854679699983803],[92.90278635628746,11.944455686285158],[92.83142926178573,11.944455686285158],[92.82665618066639,11.847348650035736]]]},"properties":{"ulpin":"35214462817468","parcel_id":"efdc6e2f-63da-4e53-8972-0201143b77d0","state":"Andaman & Nicobar Islands","state_code":"AN","state_type":"UT","state_lgd_code":"35","district_lgd_code":"600","district_name":"South Andaman","subdistrict_lgd_code":"5801","subdistrict_name":"Port Blair Tehsil","subdistrict_type":"Tehsil / Taluk","village_lgd_code":"640101","village_name":"Garacharma","khasra_plot_no":"Plot 112/Holding 45/D1","recorded_area":"0.12","recorded_area_unit":"Hectare","normalized_area_sqm":"1200.0","gis_area_sqm":"1200.0","land_use_category":"OTHER","land_use_raw":"Residential Plotted","status":"ARCHIVED","data_freshness_status":"UNKNOWN","scenario_index":"19457","use_case_description":"Pending sale mutation within statutory SLA","mutation_workflow_status":"APPROVED","revenue_record_id":"ROR-AN-2025-1029-0001","revenue_record_type":"Andaman Land Revenue Record","khata_khewat_no":"KHT-79","khatauni_no":"KHN-179","owner_name":"Dharmendra Singh","owner_name_local":"धर्मेन्द्र सिंह","co_owners":"","tenure_type":"Tribal Community Tenure","mutation_status":"NONE","active_mutation_id":"MUT-AN-00000001","tax_demand_status":"PAID","annual_tax_inr":"185.5","deed_number":"DEED-AN-2024-429-0001","deed_type":"Sale Deed / Conveyance","sro_office":"Sub-Registrar Office, Port Blair Tehsil","execution_date":"2024-05-10","registered_owner":"Dharmendra Singh","seller_name":"Previous Landholder","consideration_amount_inr":"3500000.0","stamp_duty_inr":"210000.0","survey_sketch_id":"FMB-AN-29-0001","cadastral_sheet_no":"SHT-AN-29","surveyed_area_sqm":"1200.0","survey_status":"PENDING","urban_authority":"Port Blair Tehsil Urban Development & Town Planning Authority","zone_name":"Residential Zone","permitted_land_use":"OTHER","building_permission_status":"PENDING","violations_reported":"False","is_encumbered":"False","encumbrance_certificate_number":"EC-AN-2024-129-0001","encumbrance_type":"NIL","financial_institution":"","mortgage_amount":"0.0","created_at":"2026-01-15T09:00:00Z","updated_at":"2026-09-24T11:30:00Z"}},{"type":"Feature","geometry":{"type":"Polygon","coordinates":[[[92.75160961049373,11.85808382445248],[92.82665618066639,11.847348650035736],[92.83142926178573,11.944455686285158],[92.76117365695859,11.944455686285158],[92.75160961049373,11.85808382445248]]]},"properties":{"ulpin":"35938717487415","parcel_id":"c64d3cb1-2219-47c5-9501-55cd256f5b55","state":"Andaman & Nicobar Islands","state_code":"AN","state_type":"UT","state_lgd_code":"35","district_lgd_code":"600","district_name":"South Andaman","subdistrict_lgd_code":"5801","subdistrict_name":"Port Blair Tehsil","subdistrict_type":"Tehsil / Taluk","village_lgd_code":"640101","village_name":"Garacharma","khasra_plot_no":"Plot 112/Holding 45/D2","recorded_area":"0.12","recorded_area_unit":"Hectare","normalized_area_sqm":"1200.0","gis_area_sqm":"1200.0","land_use_category":"RESIDENTIAL","land_use_raw":"Residential Plotted","status":"ACTIVE","data_freshness_status":"CURRENT","scenario_index":"19458","use_case_description":"Subdivision or amalgamation history review","mutation_workflow_status":"REJECTED","revenue_record_id":"ROR-AN-2025-1029-0002","revenue_record_type":"Andaman Land Revenue Record","khata_khewat_no":"KHT-79","khatauni_no":"KHN-179","owner_name":"Dharmendra Singh","owner_name_local":"धर्मेन्द्र सिंह","co_owners":"","tenure_type":"Bhumiswami / Raiyati with Transferable Rights","mutation_status":"MUTATED","active_mutation_id":"","tax_demand_status":"PAID","annual_tax_inr":"185.5","deed_number":"DEED-AN-2024-429-0002","deed_type":"Sale Deed / Conveyance","sro_office":"Sub-Registrar Office, Port Blair Tehsil","execution_date":"2024-05-10","registered_owner":"Dharmendra Singh","seller_name":"Previous Landholder","consideration_amount_inr":"3500000.0","stamp_duty_inr":"210000.0","survey_sketch_id":"FMB-AN-29-0002","cadastral_sheet_no":"SHT-AN-29","surveyed_area_sqm":"1200.0","survey_status":"DISPUTED","urban_authority":"Port Blair Tehsil Urban Development & Town Planning Authority","zone_name":"Residential Zone","permitted_land_use":"RESIDENTIAL","building_permission_status":"REJECTED","violations_reported":"False","is_encumbered":"True","encumbrance_certificate_number":"EC-AN-00000002-0002","encumbrance_type":"BANK_MORTGAGE","financial_institution":"","mortgage_amount":"0.0","created_at":"2026-01-15T09:00:00Z","updated_at":"2026-09-24T11:30:00Z"}},{"type":"Feature","geometry":{"type":"Polygon","coordinates":[[[92.67480160104833,11.740300137742084],[92.75763283420105,11.740300137742084],[92.75160961049373,11.85808382445248],[92.67480160104833,11.827222447757658],[92.67480160104833,11.740300137742084]]]},"properties":{"ulpin":"35205469121566","parcel_id":"d9c1db6d-27ce-46b5-b846-7747cad22f9a","state":"Andaman & Nicobar Islands","state_code":"AN","state_type":"UT","state_lgd_code":"35","district_lgd_code":"600","district_name":"South Andaman","subdistrict_lgd_code":"5801","subdistrict_name":"Port Blair Tehsil","subdistrict_type":"Tehsil / Taluk","village_lgd_code":"640101","village_name":"Garacharma","khasra_plot_no":"Plot 112/Holding 45/D3","recorded_area":"0.12","recorded_area_unit":"Hectare","normalized_area_sqm":"1200.0","gis_area_sqm":"1200.0","land_use_category":"COMMERCIAL","land_use_raw":"Residential Plotted","status":"PENDING_MUTATION","data_freshness_status":"STALE","scenario_index":"19459","use_case_description":"Archived historical record for audit retrieval","mutation_workflow_status":"SLA_BREACHED","revenue_record_id":"ROR-AN-2025-1029-0003","revenue_record_type":"Andaman Land Revenue Record","khata_khewat_no":"KHT-79","khatauni_no":"KHN-179","owner_name":"Dharmendra Singh","owner_name_local":"धर्मेन्द्र सिंह","co_owners":"","tenure_type":"Bhumiswami / Freehold","mutation_status":"PENDING","active_mutation_id":"MUT-AN-00000003","tax_demand_status":"PAID","annual_tax_inr":"185.5","deed_number":"DEED-AN-2024-429-0003","deed_type":"Sale Deed / Conveyance","sro_office":"Sub-Registrar Office, Port Blair Tehsil","execution_date":"2024-05-10","registered_owner":"Registry Variance Owner 3","seller_name":"Previous Landholder","consideration_amount_inr":"3500000.0","stamp_duty_inr":"210000.0","survey_sketch_id":"FMB-AN-29-0003","cadastral_sheet_no":"SHT-AN-29","surveyed_area_sqm":"1200.0","survey_status":"RESURVEY_REQUIRED","urban_authority":"Port Blair Tehsil Urban Development & Town Planning Authority","zone_name":"Residential Zone","permitted_land_use":"COMMERCIAL","building_permission_status":"NOT_APPLICABLE","violations_reported":"False","is_encumbered":"True","encumbrance_certificate_number":"EC-AN-00000003-0003","encumbrance_type":"GOVT_REVENUE_LIEN","financial_institution":"","mortgage_amount":"0.0","created_at":"2026-01-15T09:00:00Z","updated_at":"2026-09-24T11:30:00Z"}},{"type":"Feature","geometry":{"type":"Polygon","coordinates":[[[92.65733789685099,12.004649121354078],[92.85762449198147,12.004649121354078],[92.85762449198147,12.183569381919895],[92.65733789685099,12.183569381919895],[92.65733789685099,12.004649121354078]]]},"properties":{"ulpin":"35294180528276","parcel_id":"937c2da2-389f-4318-b3fa-deca240c6145","state":"Andaman & Nicobar Islands","state_code":"AN","state_type":"UT","state_lgd_code":"35","district_lgd_code":"600","district_name":"South Andaman","subdistrict_lgd_code":"5801","subdistrict_name":"Port Blair Tehsil","subdistrict_type":"Tehsil / Taluk","village_lgd_code":"640101","village_name":"Garacharma","khasra_plot_no":"Plot 112/Holding 45/D4","recorded_area":"0.12","recorded_area_unit":"Hectare","normalized_area_sqm":"1200.0","gis_area_sqm":"1200.0","land_use_category":"INDUSTRIAL","land_use_raw":"Residential Plotted","status":"SUBDIVIDED","data_freshness_status":"UNKNOWN","scenario_index":"19460","use_case_description":"Bank mortgage and active encumbrance","mutation_workflow_status":"SUBMITTED","revenue_record_id":"ROR-AN-2025-1029-0004","revenue_record_type":"Andaman Land Revenue Record","khata_khewat_no":"KHT-79","khatauni_no":"KHN-179","owner_name":"Dharmendra Singh","owner_name_local":"धर्मेन्द्र सिंह","co_owners":"","tenure_type":"Leasehold","mutation_status":"UNMUTATED_TRANSACTION","active_mutation_id":"MUT-AN-00000004","tax_demand_status":"PAID","annual_tax_inr":"185.5","deed_number":"DEED-AN-2024-429-0004","deed_type":"Sale Deed / Conveyance","sro_office":"Sub-Registrar Office, Port Blair Tehsil","execution_date":"2024-05-10","registered_owner":"Dharmendra Singh","seller_name":"Previous Landholder","consideration_amount_inr":"3500000.0","stamp_duty_inr":"210000.0","survey_sketch_id":"FMB-AN-29-0004","cadastral_sheet_no":"SHT-AN-29","surveyed_area_sqm":"1200.0","survey_status":"SURVEYED","urban_authority":"Port Blair Tehsil Urban Development & Town Planning Authority","zone_name":"Residential Zone","permitted_land_use":"INDUSTRIAL","building_permission_status":"SANCTIONED","violations_reported":"True","is_encumbered":"True","encumbrance_certificate_number":"EC-AN-00000004-0004","encumbrance_type":"COURT_ATTACHMENT","financial_institution":"","mortgage_amount":"0.0","created_at":"2026-01-15T09:00:00Z","updated_at":"2026-09-24T11:30:00Z"}},{"type":"Feature","geometry":{"type":"Polygon","coordinates":[[[92.67480160104833,11.827222447757658],[92.75160961049373,11.85808382445248],[92.76117365695859,11.944455686285158],[92.67480160104833,11.944455686285158],[92.67480160104833,11.827222447757658]]]},"properties":{"ulpin":"35302036875364","parcel_id":"b3d46190-e5f7-442d-9e98-d8065b5485d6","state":"Andaman & Nicobar Islands","state_code":"AN","state_type":"UT","state_lgd_code":"35","district_lgd_code":"600","district_name":"South Andaman","subdistrict_lgd_code":"5801","subdistrict_name":"Port Blair Tehsil","subdistrict_type":"Tehsil / Taluk","village_lgd_code":"640101","village_name":"Garacharma","khasra_plot_no":"Plot 112/Holding 45/D5","recorded_area":"0.12","recorded_area_unit":"Hectare","normalized_area_sqm":"1200.0","gis_area_sqm":"1200.0","land_use_category":"AGRICULTURAL","land_use_raw":"Residential Plotted","status":"AMALGAMATED","data_freshness_status":"CURRENT","scenario_index":"19461","use_case_description":"Government revenue lien and tax demand","mutation_workflow_status":"UNDER_VERIFICATION","revenue_record_id":"ROR-AN-2025-1029-0005","revenue_record_type":"Andaman Land Revenue Record","khata_khewat_no":"KHT-79","khatauni_no":"KHN-179","owner_name":"Dharmendra Singh","owner_name_local":"धर्मेन्द्र सिंह","co_owners":"","tenure_type":"Government Grant","mutation_status":"REJECTED","active_mutation_id":"MUT-AN-00000005","tax_demand_status":"PAID","annual_tax_inr":"185.5","deed_number":"DEED-AN-2024-429-0005","deed_type":"Sale Deed / Conveyance","sro_office":"Sub-Registrar Office, Port Blair Tehsil","execution_date":"2024-05-10","registered_owner":"Dharmendra Singh","seller_name":"Previous Landholder","consideration_amount_inr":"3500000.0","stamp_duty_inr":"210000.0","survey_sketch_id":"FMB-AN-29-0005","cadastral_sheet_no":"SHT-AN-29","surveyed_area_sqm":"1200.0","survey_status":"PENDING","urban_authority":"Port Blair Tehsil Urban Development & Town Planning Authority","zone_name":"Residential Zone","permitted_land_use":"AGRICULTURAL","building_permission_status":"PENDING","violations_reported":"False","is_encumbered":"True","encumbrance_certificate_number":"EC-AN-00000005-0005","encumbrance_type":"TRIBAL_NON_ALIENATION","financial_institution":"","mortgage_amount":"0.0","created_at":"2026-01-15T09:00:00Z","updated_at":"2026-09-24T11:30:00Z"}},{"type":"Feature","geometry":{"type":"Polygon","coordinates":[[[92.82088635532885,11.740300137742084],[92.90278635628746,11.740300137742084],[92.90278635628746,11.854679699983803],[92.82665618066639,11.847348650035736],[92.82088635532885,11.740300137742084]]]},"properties":{"ulpin":"35020156875057","parcel_id":"87ddb758-267d-44c8-9ba7-d22eb36e47c5","state":"Andaman & Nicobar Islands","state_code":"AN","state_type":"UT","state_lgd_code":"35","district_lgd_code":"600","district_name":"South Andaman","subdistrict_lgd_code":"5801","subdistrict_name":"Port Blair Tehsil","subdistrict_type":"Tehsil / Taluk","village_lgd_code":"640101","village_name":"Garacharma","khasra_plot_no":"Plot 112/Holding 45/D6","recorded_area":"0.12","recorded_area_unit":"Hectare","normalized_area_sqm":"1200.0","gis_area_sqm":"1200.0","land_use_category":"INSTITUTIONAL","land_use_raw":"Residential Plotted","status":"DISPUTED","data_freshness_status":"STALE","scenario_index":"19462","use_case_description":"Court attachment and disputed possession","mutation_workflow_status":"NOTICE_PERIOD","revenue_record_id":"ROR-AN-2025-1029-0006","revenue_record_type":"Andaman Land Revenue Record","khata_khewat_no":"KHT-79","khatauni_no":"KHN-179","owner_name":"Dharmendra Singh","owner_name_local":"धर्मेन्द्र सिंह","co_owners":"","tenure_type":"Waqf / Religious Trust","mutation_status":"DISPUTED","active_mutation_id":"MUT-AN-00000006","tax_demand_status":"PAID","annual_tax_inr":"185.5","deed_number":"DEED-AN-2024-429-0006","deed_type":"Sale Deed / Conveyance","sro_office":"Sub-Registrar Office, Port Blair Tehsil","execution_date":"2024-05-10","registered_owner":"Dharmendra Singh","seller_name":"Previous Landholder","consideration_amount_inr":"3500000.0","stamp_duty_inr":"210000.0","survey_sketch_id":"FMB-AN-29-0006","cadastral_sheet_no":"SHT-AN-29","surveyed_area_sqm":"1200.0","survey_status":"DISPUTED","urban_authority":"Port Blair Tehsil Urban Development & Town Planning Authority","zone_name":"Residential Zone","permitted_land_use":"INSTITUTIONAL","building_permission_status":"REJECTED","violations_reported":"False","is_encumbered":"True","encumbrance_certificate_number":"EC-AN-00000006-0006","encumbrance_type":"LEASE_CHARGE","financial_institution":"","mortgage_amount":"0.0","created_at":"2026-01-15T09:00:00Z","updated_at":"2026-09-24T11:30:00Z"}},{"type":"Feature","geometry":{"type":"Polygon","coordinates":[[[92.75763283420105,11.740300137742084],[92.82088635532885,11.740300137742084],[92.82665618066639,11.847348650035736],[92.75160961049373,11.85808382445248],[92.75763283420105,11.740300137742084]]]},"properties":{"ulpin":"35092298236697","parcel_id":"b5015b3f-8046-4acb-b501-3b565441a520","state":"Andaman & Nicobar Islands","state_code":"AN","state_type":"UT","state_lgd_code":"35","district_lgd_code":"600","district_name":"South Andaman","subdistrict_lgd_code":"5801","subdistrict_name":"Port Blair Tehsil","subdistrict_type":"Tehsil / Taluk","village_lgd_code":"640101","village_name":"Garacharma","khasra_plot_no":"Plot 112/Holding 45/D7","recorded_area":"0.12","recorded_area_unit":"Hectare","normalized_area_sqm":"1200.0","gis_area_sqm":"1200.0","land_use_category":"FOREST_GREEN_BELT","land_use_raw":"Residential Plotted","status":"ARCHIVED","data_freshness_status":"UNKNOWN","scenario_index":"19463","use_case_description":"Bank mortgage and active encumbrance","mutation_workflow_status":"HEARING_SCHEDULED","revenue_record_id":"ROR-AN-2025-1029-0007","revenue_record_type":"Andaman Land Revenue Record","khata_khewat_no":"KHT-79","khatauni_no":"KHN-179","owner_name":"Dharmendra Singh","owner_name_local":"धर्मेन्द्र सिंह","co_owners":"","tenure_type":"Tribal Community Tenure","mutation_status":"NONE","active_mutation_id":"MUT-AN-00000007","tax_demand_status":"PAID","annual_tax_inr":"185.5","deed_number":"DEED-AN-2024-429-0007","deed_type":"Sale Deed / Conveyance","sro_office":"Sub-Registrar Office, Port Blair Tehsil","execution_date":"2024-05-10","registered_owner":"Dharmendra Singh","seller_name":"Previous Landholder","consideration_amount_inr":"3500000.0","stamp_duty_inr":"210000.0","survey_sketch_id":"FMB-AN-29-0007","cadastral_sheet_no":"SHT-AN-29","surveyed_area_sqm":"1200.0","survey_status":"RESURVEY_REQUIRED","urban_authority":"Port Blair Tehsil Urban Development & Town Planning Authority","zone_name":"Residential Zone","permitted_land_use":"FOREST_GREEN_BELT","building_permission_status":"NOT_APPLICABLE","violations_reported":"False","is_encumbered":"False","encumbrance_certificate_number":"EC-AN-2024-129-0007","encumbrance_type":"NIL","financial_institution":"","mortgage_amount":"0.0","created_at":"2026-01-15T09:00:00Z","updated_at":"2026-09-24T11:30:00Z"}}]}