{"type":"FeatureCollection","features":[{"type":"Feature","geometry":{"type":"Polygon","coordinates":[[[93.31944014288865,25.92250302593313],[93.8373753057969,25.92250302593313],[93.8373753057969,26.478636778426683],[93.34477398603138,26.448647650486624],[93.31944014288865,25.92250302593313]]]},"properties":{"ulpin":"12485829291347","parcel_id":"51965b26-2c14-426c-9123-7cd1534b24de","state":"Arunachal Pradesh","state_code":"AR","state_type":"STATE","state_lgd_code":"12","district_lgd_code":"230","district_name":"Papum Pare","subdistrict_lgd_code":"2101","subdistrict_name":"Itanagar Circle","subdistrict_type":"Tehsil / Taluk","village_lgd_code":"260101","village_name":"Naharlagun","khasra_plot_no":"LPC-89/NHR/D1","recorded_area":"1200.0","recorded_area_unit":"Square Meter","normalized_area_sqm":"1200.0","gis_area_sqm":"1200.0","land_use_category":"FOREST_GREEN_BELT","land_use_raw":"Residential Plotted","status":"ARCHIVED","data_freshness_status":"UNKNOWN","scenario_index":"815","use_case_description":"Cadastral area discrepancy requiring resurvey","mutation_workflow_status":"HEARING_SCHEDULED","revenue_record_id":"ROR-AR-2025-1002-0001","revenue_record_type":"Land Possession Certificate (LPC)","khata_khewat_no":"KHT-52","khatauni_no":"KHN-152","owner_name":"Tage Tado","owner_name_local":"Tage Tado","co_owners":"","tenure_type":"Tribal Community Tenure","mutation_status":"NONE","active_mutation_id":"MUT-AR-00000001","tax_demand_status":"PAID","annual_tax_inr":"185.5","deed_number":"DEED-AR-2024-402-0001","deed_type":"Sale Deed / Conveyance","sro_office":"Sub-Registrar Office, Itanagar Circle","execution_date":"2024-05-10","registered_owner":"Tage Tado","seller_name":"Previous Landholder","consideration_amount_inr":"3500000.0","stamp_duty_inr":"210000.0","survey_sketch_id":"FMB-AR-02-0001","cadastral_sheet_no":"SHT-AR-02","surveyed_area_sqm":"1200.0","survey_status":"RESURVEY_REQUIRED","urban_authority":"Itanagar Circle Urban Development & Town Planning Authority","zone_name":"Residential Zone","permitted_land_use":"FOREST_GREEN_BELT","building_permission_status":"NOT_APPLICABLE","violations_reported":"False","is_encumbered":"False","encumbrance_certificate_number":"EC-AR-2024-102-0001","encumbrance_type":"NIL","financial_institution":"","mortgage_amount":"0.0","created_at":"2026-01-15T09:00:00Z","updated_at":"2026-09-24T11:30:00Z"}},{"type":"Feature","geometry":{"type":"Polygon","coordinates":[[[93.07683537329233,28.90427418853502],[93.47244955978135,28.87696153014433],[93.47244955978135,29.308800490206195],[93.0249530989279,29.427598311180226],[93.07683537329233,28.90427418853502]]]},"properties":{"ulpin":"12411827487835","parcel_id":"1a88a077-7ac4-4889-8d87-119ee2ad9a19","state":"Arunachal Pradesh","state_code":"AR","state_type":"STATE","state_lgd_code":"12","district_lgd_code":"230","district_name":"Papum Pare","subdistrict_lgd_code":"2101","subdistrict_name":"Itanagar Circle","subdistrict_type":"Tehsil / Taluk","village_lgd_code":"260101","village_name":"Naharlagun","khasra_plot_no":"LPC-89/NHR/D2","recorded_area":"1200.0","recorded_area_unit":"Square Meter","normalized_area_sqm":"1200.0","gis_area_sqm":"1200.0","land_use_category":"WATER_BODY","land_use_raw":"Residential Plotted","status":"ACTIVE","data_freshness_status":"CURRENT","scenario_index":"816","use_case_description":"Lease charge and institutional tenancy","mutation_workflow_status":"APPROVED","revenue_record_id":"ROR-AR-2025-1002-0002","revenue_record_type":"Land Possession Certificate (LPC)","khata_khewat_no":"KHT-52","khatauni_no":"KHN-152","owner_name":"Tage Tado","owner_name_local":"Tage Tado","co_owners":"","tenure_type":"Bhumiswami / Raiyati with Transferable Rights","mutation_status":"MUTATED","active_mutation_id":"","tax_demand_status":"PAID","annual_tax_inr":"185.5","deed_number":"DEED-AR-2024-402-0002","deed_type":"Sale Deed / Conveyance","sro_office":"Sub-Registrar Office, Itanagar Circle","execution_date":"2024-05-10","registered_owner":"Tage Tado","seller_name":"Previous Landholder","consideration_amount_inr":"3500000.0","stamp_duty_inr":"210000.0","survey_sketch_id":"FMB-AR-02-0002","cadastral_sheet_no":"SHT-AR-02","surveyed_area_sqm":"1200.0","survey_status":"SURVEYED","urban_authority":"Itanagar Circle Urban Development & Town Planning Authority","zone_name":"Residential Zone","permitted_land_use":"WATER_BODY","building_permission_status":"SANCTIONED","violations_reported":"False","is_encumbered":"True","encumbrance_certificate_number":"EC-AR-00000002-0002","encumbrance_type":"BANK_MORTGAGE","financial_institution":"","mortgage_amount":"0.0","created_at":"2026-01-15T09:00:00Z","updated_at":"2026-09-24T11:30:00Z"}},{"type":"Feature","geometry":{"type":"Polygon","coordinates":[[[94.44102559143313,28.791903674578627],[94.73195679157574,28.791903674578627],[94.80557253758253,29.154650142663986],[94.4425571808102,29.195006496375186],[94.44102559143313,28.791903674578627]]]},"properties":{"ulpin":"12482922778407","parcel_id":"adf68137-cf6e-4b0c-8a7a-9d6f262c8acf","state":"Arunachal Pradesh","state_code":"AR","state_type":"STATE","state_lgd_code":"12","district_lgd_code":"230","district_name":"Papum Pare","subdistrict_lgd_code":"2101","subdistrict_name":"Itanagar Circle","subdistrict_type":"Tehsil / Taluk","village_lgd_code":"260101","village_name":"Naharlagun","khasra_plot_no":"LPC-89/NHR/D3","recorded_area":"1200.0","recorded_area_unit":"Square Meter","normalized_area_sqm":"1200.0","gis_area_sqm":"1200.0","land_use_category":"MIXED_USE","land_use_raw":"Residential Plotted","status":"PENDING_MUTATION","data_freshness_status":"STALE","scenario_index":"817","use_case_description":"Subdivision or amalgamation history review","mutation_workflow_status":"REJECTED","revenue_record_id":"ROR-AR-2025-1002-0003","revenue_record_type":"Land Possession Certificate (LPC)","khata_khewat_no":"KHT-52","khatauni_no":"KHN-152","owner_name":"Tage Tado","owner_name_local":"Tage Tado","co_owners":"","tenure_type":"Bhumiswami / Freehold","mutation_status":"PENDING","active_mutation_id":"MUT-AR-00000003","tax_demand_status":"PAID","annual_tax_inr":"185.5","deed_number":"DEED-AR-2024-402-0003","deed_type":"Sale Deed / Conveyance","sro_office":"Sub-Registrar Office, Itanagar Circle","execution_date":"2024-05-10","registered_owner":"Tage Tado","seller_name":"Previous Landholder","consideration_amount_inr":"3500000.0","stamp_duty_inr":"210000.0","survey_sketch_id":"FMB-AR-02-0003","cadastral_sheet_no":"SHT-AR-02","surveyed_area_sqm":"1200.0","survey_status":"PENDING","urban_authority":"Itanagar Circle Urban Development & Town Planning Authority","zone_name":"Residential Zone","permitted_land_use":"MIXED_USE","building_permission_status":"PENDING","violations_reported":"False","is_encumbered":"True","encumbrance_certificate_number":"EC-AR-00000003-0003","encumbrance_type":"GOVT_REVENUE_LIEN","financial_institution":"","mortgage_amount":"0.0","created_at":"2026-01-15T09:00:00Z","updated_at":"2026-09-24T11:30:00Z"}},{"type":"Feature","geometry":{"type":"Polygon","coordinates":[[[94.48408873255185,26.731550866873317],[94.99222711981677,26.791776900096927],[94.99222711981677,27.241034187823974],[94.4467233016567,27.193266443825035],[94.48408873255185,26.731550866873317]]]},"properties":{"ulpin":"12778077173581","parcel_id":"c47338b3-8618-488e-b14b-7b4663e1a993","state":"Arunachal Pradesh","state_code":"AR","state_type":"STATE","state_lgd_code":"12","district_lgd_code":"230","district_name":"Papum Pare","subdistrict_lgd_code":"2101","subdistrict_name":"Itanagar Circle","subdistrict_type":"Tehsil / Taluk","village_lgd_code":"260101","village_name":"Naharlagun","khasra_plot_no":"LPC-89/NHR/D4","recorded_area":"1200.0","recorded_area_unit":"Square Meter","normalized_area_sqm":"1200.0","gis_area_sqm":"1200.0","land_use_category":"OTHER","land_use_raw":"Residential Plotted","status":"SUBDIVIDED","data_freshness_status":"UNKNOWN","scenario_index":"818","use_case_description":"Archived historical record for audit retrieval","mutation_workflow_status":"SLA_BREACHED","revenue_record_id":"ROR-AR-2025-1002-0004","revenue_record_type":"Land Possession Certificate (LPC)","khata_khewat_no":"KHT-52","khatauni_no":"KHN-152","owner_name":"Tage Tado","owner_name_local":"Tage Tado","co_owners":"","tenure_type":"Leasehold","mutation_status":"UNMUTATED_TRANSACTION","active_mutation_id":"MUT-AR-00000004","tax_demand_status":"PAID","annual_tax_inr":"185.5","deed_number":"DEED-AR-2024-402-0004","deed_type":"Sale Deed / Conveyance","sro_office":"Sub-Registrar Office, Itanagar Circle","execution_date":"2024-05-10","registered_owner":"Tage Tado","seller_name":"Previous Landholder","consideration_amount_inr":"3500000.0","stamp_duty_inr":"210000.0","survey_sketch_id":"FMB-AR-02-0004","cadastral_sheet_no":"SHT-AR-02","surveyed_area_sqm":"1200.0","survey_status":"DISPUTED","urban_authority":"Itanagar Circle Urban Development & Town Planning Authority","zone_name":"Residential Zone","permitted_land_use":"OTHER","building_permission_status":"REJECTED","violations_reported":"False","is_encumbered":"True","encumbrance_certificate_number":"EC-AR-00000004-0004","encumbrance_type":"COURT_ATTACHMENT","financial_institution":"","mortgage_amount":"0.0","created_at":"2026-01-15T09:00:00Z","updated_at":"2026-09-24T11:30:00Z"}},{"type":"Feature","geometry":{"type":"Polygon","coordinates":[[[94.11044607294588,28.791903674578627],[94.44102559143313,28.791903674578627],[94.4425571808102,29.195006496375186],[94.11044607294588,29.18917278953012],[94.11044607294588,28.791903674578627]]]},"properties":{"ulpin":"12834126939623","parcel_id":"e4380a11-1dab-42fa-8a60-fc50eaf906a9","state":"Arunachal Pradesh","state_code":"AR","state_type":"STATE","state_lgd_code":"12","district_lgd_code":"230","district_name":"Papum Pare","subdistrict_lgd_code":"2101","subdistrict_name":"Itanagar Circle","subdistrict_type":"Tehsil / Taluk","village_lgd_code":"260101","village_name":"Naharlagun","khasra_plot_no":"LPC-89/NHR/D5","recorded_area":"1200.0","recorded_area_unit":"Square Meter","normalized_area_sqm":"1200.0","gis_area_sqm":"1200.0","land_use_category":"RESIDENTIAL","land_use_raw":"Residential Plotted","status":"AMALGAMATED","data_freshness_status":"CURRENT","scenario_index":"819","use_case_description":"Bank mortgage and active encumbrance","mutation_workflow_status":"SUBMITTED","revenue_record_id":"ROR-AR-2025-1002-0005","revenue_record_type":"Land Possession Certificate (LPC)","khata_khewat_no":"KHT-52","khatauni_no":"KHN-152","owner_name":"Tage Tado","owner_name_local":"Tage Tado","co_owners":"","tenure_type":"Government Grant","mutation_status":"REJECTED","active_mutation_id":"MUT-AR-00000005","tax_demand_status":"PAID","annual_tax_inr":"185.5","deed_number":"DEED-AR-2024-402-0005","deed_type":"Sale Deed / Conveyance","sro_office":"Sub-Registrar Office, Itanagar Circle","execution_date":"2024-05-10","registered_owner":"Registry Variance Owner 5","seller_name":"Previous Landholder","consideration_amount_inr":"3500000.0","stamp_duty_inr":"210000.0","survey_sketch_id":"FMB-AR-02-0005","cadastral_sheet_no":"SHT-AR-02","surveyed_area_sqm":"1200.0","survey_status":"RESURVEY_REQUIRED","urban_authority":"Itanagar Circle Urban Development & Town Planning Authority","zone_name":"Residential Zone","permitted_land_use":"RESIDENTIAL","building_permission_status":"NOT_APPLICABLE","violations_reported":"True","is_encumbered":"True","encumbrance_certificate_number":"EC-AR-00000005-0005","encumbrance_type":"TRIBAL_NON_ALIENATION","financial_institution":"","mortgage_amount":"0.0","created_at":"2026-01-15T09:00:00Z","updated_at":"2026-09-24T11:30:00Z"}},{"type":"Feature","geometry":{"type":"Polygon","coordinates":[[[92.89716292603909,26.462016127735012],[93.34477398603138,26.448647650486624],[93.44170796050824,27.007835510982503],[92.89716292603909,26.97959704185331],[92.89716292603909,26.462016127735012]]]},"properties":{"ulpin":"12299601329843","parcel_id":"4cfbe383-810a-4356-9cb3-ccf194e774f5","state":"Arunachal Pradesh","state_code":"AR","state_type":"STATE","state_lgd_code":"12","district_lgd_code":"230","district_name":"Papum Pare","subdistrict_lgd_code":"2101","subdistrict_name":"Itanagar Circle","subdistrict_type":"Tehsil / Taluk","village_lgd_code":"260101","village_name":"Naharlagun","khasra_plot_no":"LPC-89/NHR/D6","recorded_area":"1200.0","recorded_area_unit":"Square Meter","normalized_area_sqm":"1200.0","gis_area_sqm":"1200.0","land_use_category":"COMMERCIAL","land_use_raw":"Residential Plotted","status":"DISPUTED","data_freshness_status":"STALE","scenario_index":"820","use_case_description":"Government revenue lien and tax demand","mutation_workflow_status":"UNDER_VERIFICATION","revenue_record_id":"ROR-AR-2025-1002-0006","revenue_record_type":"Land Possession Certificate (LPC)","khata_khewat_no":"KHT-52","khatauni_no":"KHN-152","owner_name":"Tage Tado","owner_name_local":"Tage Tado","co_owners":"","tenure_type":"Waqf / Religious Trust","mutation_status":"DISPUTED","active_mutation_id":"MUT-AR-00000006","tax_demand_status":"PAID","annual_tax_inr":"185.5","deed_number":"DEED-AR-2024-402-0006","deed_type":"Sale Deed / Conveyance","sro_office":"Sub-Registrar Office, Itanagar Circle","execution_date":"2024-05-10","registered_owner":"Tage Tado","seller_name":"Previous Landholder","consideration_amount_inr":"3500000.0","stamp_duty_inr":"210000.0","survey_sketch_id":"FMB-AR-02-0006","cadastral_sheet_no":"SHT-AR-02","surveyed_area_sqm":"1200.0","survey_status":"SURVEYED","urban_authority":"Itanagar Circle Urban Development & Town Planning Authority","zone_name":"Residential Zone","permitted_land_use":"COMMERCIAL","building_permission_status":"SANCTIONED","violations_reported":"False","is_encumbered":"True","encumbrance_certificate_number":"EC-AR-00000006-0006","encumbrance_type":"LEASE_CHARGE","financial_institution":"","mortgage_amount":"0.0","created_at":"2026-01-15T09:00:00Z","updated_at":"2026-09-24T11:30:00Z"}},{"type":"Feature","geometry":{"type":"Polygon","coordinates":[[[93.0249530989279,29.427598311180226],[93.47244955978135,29.308800490206195],[93.47244955978135,29.848017405218215],[93.05162053030713,29.848017405218215],[93.0249530989279,29.427598311180226]]]},"properties":{"ulpin":"12736412537341","parcel_id":"dc9532b6-1f36-413c-a76c-bf48078aa242","state":"Arunachal Pradesh","state_code":"AR","state_type":"STATE","state_lgd_code":"12","district_lgd_code":"230","district_name":"Papum Pare","subdistrict_lgd_code":"2101","subdistrict_name":"Itanagar Circle","subdistrict_type":"Tehsil / Taluk","village_lgd_code":"260101","village_name":"Naharlagun","khasra_plot_no":"LPC-89/NHR/D7","recorded_area":"1200.0","recorded_area_unit":"Square Meter","normalized_area_sqm":"1200.0","gis_area_sqm":"1200.0","land_use_category":"INDUSTRIAL","land_use_raw":"Residential Plotted","status":"ARCHIVED","data_freshness_status":"UNKNOWN","scenario_index":"821","use_case_description":"Tribal non-alienation protection review","mutation_workflow_status":"NOTICE_PERIOD","revenue_record_id":"ROR-AR-2025-1002-0007","revenue_record_type":"Land Possession Certificate (LPC)","khata_khewat_no":"KHT-52","khatauni_no":"KHN-152","owner_name":"Tage Tado","owner_name_local":"Tage Tado","co_owners":"","tenure_type":"Tribal Community Tenure","mutation_status":"NONE","active_mutation_id":"MUT-AR-00000007","tax_demand_status":"PAID","annual_tax_inr":"185.5","deed_number":"DEED-AR-2024-402-0007","deed_type":"Sale Deed / Conveyance","sro_office":"Sub-Registrar Office, Itanagar Circle","execution_date":"2024-05-10","registered_owner":"Tage Tado","seller_name":"Previous Landholder","consideration_amount_inr":"3500000.0","stamp_duty_inr":"210000.0","survey_sketch_id":"FMB-AR-02-0007","cadastral_sheet_no":"SHT-AR-02","surveyed_area_sqm":"1200.0","survey_status":"PENDING","urban_authority":"Itanagar Circle Urban Development & Town Planning Authority","zone_name":"Residential Zone","permitted_land_use":"INDUSTRIAL","building_permission_status":"PENDING","violations_reported":"False","is_encumbered":"False","encumbrance_certificate_number":"EC-AR-2024-102-0007","encumbrance_type":"NIL","financial_institution":"","mortgage_amount":"0.0","created_at":"2026-01-15T09:00:00Z","updated_at":"2026-09-24T11:30:00Z"}},{"type":"Feature","geometry":{"type":"Polygon","coordinates":[[[94.80557253758253,29.154650142663986],[95.10209225434633,29.150218818810966],[95.10209225434633,29.613489057601722],[94.78730087535611,29.677618794422884],[94.80557253758253,29.154650142663986]]]},"properties":{"ulpin":"12770524383309","parcel_id":"9e5328a2-e30e-46de-b5a1-13dcd9eda5f9","state":"Arunachal Pradesh","state_code":"AR","state_type":"STATE","state_lgd_code":"12","district_lgd_code":"230","district_name":"Papum Pare","subdistrict_lgd_code":"2101","subdistrict_name":"Itanagar Circle","subdistrict_type":"Tehsil / Taluk","village_lgd_code":"260101","village_name":"Naharlagun","khasra_plot_no":"LPC-89/NHR/D8","recorded_area":"1200.0","recorded_area_unit":"Square Meter","normalized_area_sqm":"1200.0","gis_area_sqm":"1200.0","land_use_category":"AGRICULTURAL","land_use_raw":"Residential Plotted","status":"ACTIVE","data_freshness_status":"CURRENT","scenario_index":"822","use_case_description":"Tribal non-alienation protection review","mutation_workflow_status":"HEARING_SCHEDULED","revenue_record_id":"ROR-AR-2025-1002-0008","revenue_record_type":"Land Possession Certificate (LPC)","khata_khewat_no":"KHT-52","khatauni_no":"KHN-152","owner_name":"Tage Tado","owner_name_local":"Tage Tado","co_owners":"","tenure_type":"Bhumiswami / Raiyati with Transferable Rights","mutation_status":"MUTATED","active_mutation_id":"","tax_demand_status":"PAID","annual_tax_inr":"185.5","deed_number":"DEED-AR-2024-402-0008","deed_type":"Sale Deed / Conveyance","sro_office":"Sub-Registrar Office, Itanagar Circle","execution_date":"2024-05-10","registered_owner":"Tage Tado","seller_name":"Previous Landholder","consideration_amount_inr":"3500000.0","stamp_duty_inr":"210000.0","survey_sketch_id":"FMB-AR-02-0008","cadastral_sheet_no":"SHT-AR-02","surveyed_area_sqm":"1200.0","survey_status":"DISPUTED","urban_authority":"Itanagar Circle Urban Development & Town Planning Authority","zone_name":"Residential Zone","permitted_land_use":"AGRICULTURAL","building_permission_status":"REJECTED","violations_reported":"False","is_encumbered":"True","encumbrance_certificate_number":"EC-AR-00000008-0008","encumbrance_type":"BANK_MORTGAGE","financial_institution":"","mortgage_amount":"0.0","created_at":"2026-01-15T09:00:00Z","updated_at":"2026-09-24T11:30:00Z"}},{"type":"Feature","geometry":{"type":"Polygon","coordinates":[[[93.44170796050824,27.007835510982503],[93.8373753057969,27.053582738658726],[93.8373753057969,27.608025121430718],[93.40803355075909,27.608025121430718],[93.44170796050824,27.007835510982503]]]},"properties":{"ulpin":"12386888811863","parcel_id":"3da2b706-9de4-4987-a7e3-f4d0c8013af7","state":"Arunachal Pradesh","state_code":"AR","state_type":"STATE","state_lgd_code":"12","district_lgd_code":"230","district_name":"Papum Pare","subdistrict_lgd_code":"2101","subdistrict_name":"Itanagar Circle","subdistrict_type":"Tehsil / Taluk","village_lgd_code":"260101","village_name":"Naharlagun","khasra_plot_no":"LPC-89/NHR/D9","recorded_area":"1200.0","recorded_area_unit":"Square Meter","normalized_area_sqm":"1200.0","gis_area_sqm":"1200.0","land_use_category":"INSTITUTIONAL","land_use_raw":"Residential Plotted","status":"PENDING_MUTATION","data_freshness_status":"STALE","scenario_index":"823","use_case_description":"Lease charge and institutional tenancy","mutation_workflow_status":"APPROVED","revenue_record_id":"ROR-AR-2025-1002-0009","revenue_record_type":"Land Possession Certificate (LPC)","khata_khewat_no":"KHT-52","khatauni_no":"KHN-152","owner_name":"Tage Tado","owner_name_local":"Tage Tado","co_owners":"","tenure_type":"Bhumiswami / Freehold","mutation_status":"PENDING","active_mutation_id":"MUT-AR-00000009","tax_demand_status":"PAID","annual_tax_inr":"185.5","deed_number":"DEED-AR-2024-402-0009","deed_type":"Sale Deed / Conveyance","sro_office":"Sub-Registrar Office, Itanagar Circle","execution_date":"2024-05-10","registered_owner":"Tage Tado","seller_name":"Previous Landholder","consideration_amount_inr":"3500000.0","stamp_duty_inr":"210000.0","survey_sketch_id":"FMB-AR-02-0009","cadastral_sheet_no":"SHT-AR-02","surveyed_area_sqm":"1200.0","survey_status":"RESURVEY_REQUIRED","urban_authority":"Itanagar Circle Urban Development & Town Planning Authority","zone_name":"Residential Zone","permitted_land_use":"INSTITUTIONAL","building_permission_status":"NOT_APPLICABLE","violations_reported":"False","is_encumbered":"True","encumbrance_certificate_number":"EC-AR-00000009-0009","encumbrance_type":"GOVT_REVENUE_LIEN","financial_institution":"","mortgage_amount":"0.0","created_at":"2026-01-15T09:00:00Z","updated_at":"2026-09-24T11:30:00Z"}},{"type":"Feature","geometry":{"type":"Polygon","coordinates":[[[94.11044607294588,29.18917278953012],[94.4425571808102,29.195006496375186],[94.47341954644725,29.672538612970683],[94.11044607294588,29.6469409795792],[94.11044607294588,29.18917278953012]]]},"properties":{"ulpin":"12952489508936","parcel_id":"c39052bd-a28b-4d62-8673-695f06f1c567","state":"Arunachal Pradesh","state_code":"AR","state_type":"STATE","state_lgd_code":"12","district_lgd_code":"230","district_name":"Papum Pare","subdistrict_lgd_code":"2101","subdistrict_name":"Itanagar Circle","subdistrict_type":"Tehsil / Taluk","village_lgd_code":"260101","village_name":"Naharlagun","khasra_plot_no":"LPC-89/NHR/D10","recorded_area":"1200.0","recorded_area_unit":"Square Meter","normalized_area_sqm":"1200.0","gis_area_sqm":"1200.0","land_use_category":"FOREST_GREEN_BELT","land_use_raw":"Residential Plotted","status":"SUBDIVIDED","data_freshness_status":"UNKNOWN","scenario_index":"824","use_case_description":"Subdivision or amalgamation history review","mutation_workflow_status":"REJECTED","revenue_record_id":"ROR-AR-2025-1002-0010","revenue_record_type":"Land Possession Certificate (LPC)","khata_khewat_no":"KHT-52","khatauni_no":"KHN-152","owner_name":"Tage Tado","owner_name_local":"Tage Tado","co_owners":"","tenure_type":"Leasehold","mutation_status":"UNMUTATED_TRANSACTION","active_mutation_id":"MUT-AR-00000010","tax_demand_status":"PAID","annual_tax_inr":"185.5","deed_number":"DEED-AR-2024-402-0010","deed_type":"Sale Deed / Conveyance","sro_office":"Sub-Registrar Office, Itanagar Circle","execution_date":"2024-05-10","registered_owner":"Registry Variance Owner 10","seller_name":"Previous Landholder","consideration_amount_inr":"3500000.0","stamp_duty_inr":"210000.0","survey_sketch_id":"FMB-AR-02-0010","cadastral_sheet_no":"SHT-AR-02","surveyed_area_sqm":"1200.0","survey_status":"SURVEYED","urban_authority":"Itanagar Circle Urban Development & Town Planning Authority","zone_name":"Residential Zone","permitted_land_use":"FOREST_GREEN_BELT","building_permission_status":"SANCTIONED","violations_reported":"False","is_encumbered":"True","encumbrance_certificate_number":"EC-AR-00000010-0010","encumbrance_type":"COURT_ATTACHMENT","financial_institution":"","mortgage_amount":"0.0","created_at":"2026-01-15T09:00:00Z","updated_at":"2026-09-24T11:30:00Z"}},{"type":"Feature","geometry":{"type":"Polygon","coordinates":[[[92.89716292603909,26.97959704185331],[93.44170796050824,27.007835510982503],[93.40803355075909,27.608025121430718],[92.89716292603909,27.608025121430718],[92.89716292603909,26.97959704185331]]]},"properties":{"ulpin":"12831496063713","parcel_id":"1433aae2-5a0f-4321-9d1e-76926f7ecb7f","state":"Arunachal Pradesh","state_code":"AR","state_type":"STATE","state_lgd_code":"12","district_lgd_code":"230","district_name":"Papum Pare","subdistrict_lgd_code":"2101","subdistrict_name":"Itanagar Circle","subdistrict_type":"Tehsil / Taluk","village_lgd_code":"260101","village_name":"Naharlagun","khasra_plot_no":"LPC-89/NHR/D11","recorded_area":"1200.0","recorded_area_unit":"Square Meter","normalized_area_sqm":"1200.0","gis_area_sqm":"1200.0","land_use_category":"WATER_BODY","land_use_raw":"Residential Plotted","status":"AMALGAMATED","data_freshness_status":"CURRENT","scenario_index":"825","use_case_description":"Archived historical record for audit retrieval","mutation_workflow_status":"SLA_BREACHED","revenue_record_id":"ROR-AR-2025-1002-0011","revenue_record_type":"Land Possession Certificate (LPC)","khata_khewat_no":"KHT-52","khatauni_no":"KHN-152","owner_name":"Tage Tado","owner_name_local":"Tage Tado","co_owners":"","tenure_type":"Government Grant","mutation_status":"REJECTED","active_mutation_id":"MUT-AR-00000011","tax_demand_status":"PAID","annual_tax_inr":"185.5","deed_number":"DEED-AR-2024-402-0011","deed_type":"Sale Deed / Conveyance","sro_office":"Sub-Registrar Office, Itanagar Circle","execution_date":"2024-05-10","registered_owner":"Tage Tado","seller_name":"Previous Landholder","consideration_amount_inr":"3500000.0","stamp_duty_inr":"210000.0","survey_sketch_id":"FMB-AR-02-0011","cadastral_sheet_no":"SHT-AR-02","surveyed_area_sqm":"1200.0","survey_status":"PENDING","urban_authority":"Itanagar Circle Urban Development & Town Planning Authority","zone_name":"Residential Zone","permitted_land_use":"WATER_BODY","building_permission_status":"PENDING","violations_reported":"False","is_encumbered":"True","encumbrance_certificate_number":"EC-AR-00000011-0011","encumbrance_type":"TRIBAL_NON_ALIENATION","financial_institution":"","mortgage_amount":"0.0","created_at":"2026-01-15T09:00:00Z","updated_at":"2026-09-24T11:30:00Z"}},{"type":"Feature","geometry":{"type":"Polygon","coordinates":[[[94.11044607294588,29.6469409795792],[94.47341954644725,29.672538612970683],[94.49330860147447,30.04647293413211],[94.11044607294588,30.04647293413211],[94.11044607294588,29.6469409795792]]]},"properties":{"ulpin":"12638664040396","parcel_id":"f5723c86-05d4-43dc-ab92-bcc1335ccf12","state":"Arunachal Pradesh","state_code":"AR","state_type":"STATE","state_lgd_code":"12","district_lgd_code":"230","district_name":"Papum Pare","subdistrict_lgd_code":"2101","subdistrict_name":"Itanagar Circle","subdistrict_type":"Tehsil / Taluk","village_lgd_code":"260101","village_name":"Naharlagun","khasra_plot_no":"LPC-89/NHR/D12","recorded_area":"1200.0","recorded_area_unit":"Square Meter","normalized_area_sqm":"1200.0","gis_area_sqm":"1200.0","land_use_category":"MIXED_USE","land_use_raw":"Residential Plotted","status":"DISPUTED","data_freshness_status":"STALE","scenario_index":"826","use_case_description":"Bank mortgage and active encumbrance","mutation_workflow_status":"SUBMITTED","revenue_record_id":"ROR-AR-2025-1002-0012","revenue_record_type":"Land Possession Certificate (LPC)","khata_khewat_no":"KHT-52","khatauni_no":"KHN-152","owner_name":"Tage Tado","owner_name_local":"Tage Tado","co_owners":"","tenure_type":"Waqf / Religious Trust","mutation_status":"DISPUTED","active_mutation_id":"MUT-AR-00000012","tax_demand_status":"PAID","annual_tax_inr":"185.5","deed_number":"DEED-AR-2024-402-0012","deed_type":"Sale Deed / Conveyance","sro_office":"Sub-Registrar Office, Itanagar Circle","execution_date":"2024-05-10","registered_owner":"Tage Tado","seller_name":"Previous Landholder","consideration_amount_inr":"3500000.0","stamp_duty_inr":"210000.0","survey_sketch_id":"FMB-AR-02-0012","cadastral_sheet_no":"SHT-AR-02","surveyed_area_sqm":"1200.0","survey_status":"DISPUTED","urban_authority":"Itanagar Circle Urban Development & Town Planning Authority","zone_name":"Residential Zone","permitted_land_use":"MIXED_USE","building_permission_status":"REJECTED","violations_reported":"True","is_encumbered":"True","encumbrance_certificate_number":"EC-AR-00000012-0012","encumbrance_type":"LEASE_CHARGE","financial_institution":"","mortgage_amount":"0.0","created_at":"2026-01-15T09:00:00Z","updated_at":"2026-09-24T11:30:00Z"}},{"type":"Feature","geometry":{"type":"Polygon","coordinates":[[[94.4467233016567,27.193266443825035],[94.99222711981677,27.241034187823974],[94.99222711981677,27.755553023542987],[94.54916347625182,27.755553023542987],[94.4467233016567,27.193266443825035]]]},"properties":{"ulpin":"12547766979288","parcel_id":"f81ccb58-9724-4938-b12b-b57a7cc88659","state":"Arunachal Pradesh","state_code":"AR","state_type":"STATE","state_lgd_code":"12","district_lgd_code":"230","district_name":"Papum Pare","subdistrict_lgd_code":"2101","subdistrict_name":"Itanagar Circle","subdistrict_type":"Tehsil / Taluk","village_lgd_code":"260101","village_name":"Naharlagun","khasra_plot_no":"LPC-89/NHR/D13","recorded_area":"1200.0","recorded_area_unit":"Square Meter","normalized_area_sqm":"1200.0","gis_area_sqm":"1200.0","land_use_category":"OTHER","land_use_raw":"Residential Plotted","status":"ARCHIVED","data_freshness_status":"UNKNOWN","scenario_index":"827","use_case_description":"Pending sale mutation within statutory SLA","mutation_workflow_status":"UNDER_VERIFICATION","revenue_record_id":"ROR-AR-2025-1002-0013","revenue_record_type":"Land Possession Certificate (LPC)","khata_khewat_no":"KHT-52","khatauni_no":"KHN-152","owner_name":"Tage Tado","owner_name_local":"Tage Tado","co_owners":"","tenure_type":"Tribal Community Tenure","mutation_status":"NONE","active_mutation_id":"MUT-AR-00000013","tax_demand_status":"PAID","annual_tax_inr":"185.5","deed_number":"DEED-AR-2024-402-0013","deed_type":"Sale Deed / Conveyance","sro_office":"Sub-Registrar Office, Itanagar Circle","execution_date":"2024-05-10","registered_owner":"Tage Tado","seller_name":"Previous Landholder","consideration_amount_inr":"3500000.0","stamp_duty_inr":"210000.0","survey_sketch_id":"FMB-AR-02-0013","cadastral_sheet_no":"SHT-AR-02","surveyed_area_sqm":"1200.0","survey_status":"RESURVEY_REQUIRED","urban_authority":"Itanagar Circle Urban Development & Town Planning Authority","zone_name":"Residential Zone","permitted_land_use":"OTHER","building_permission_status":"NOT_APPLICABLE","violations_reported":"False","is_encumbered":"False","encumbrance_certificate_number":"EC-AR-2024-102-0013","encumbrance_type":"NIL","financial_institution":"","mortgage_amount":"0.0","created_at":"2026-01-15T09:00:00Z","updated_at":"2026-09-24T11:30:00Z"}},{"type":"Feature","geometry":{"type":"Polygon","coordinates":[[[92.65001127823027,28.424947639586343],[93.0426462851636,28.424947639586343],[93.07683537329233,28.90427418853502],[92.65001127823027,28.915287681777404],[92.65001127823027,28.424947639586343]]]},"properties":{"ulpin":"12544502466813","parcel_id":"5f47d5bc-a7fc-4584-b7f7-68204321866b","state":"Arunachal Pradesh","state_code":"AR","state_type":"STATE","state_lgd_code":"12","district_lgd_code":"230","district_name":"Papum Pare","subdistrict_lgd_code":"2101","subdistrict_name":"Itanagar Circle","subdistrict_type":"Tehsil / Taluk","village_lgd_code":"260101","village_name":"Naharlagun","khasra_plot_no":"LPC-89/NHR/D14","recorded_area":"1200.0","recorded_area_unit":"Square Meter","normalized_area_sqm":"1200.0","gis_area_sqm":"1200.0","land_use_category":"RESIDENTIAL","land_use_raw":"Residential Plotted","status":"ACTIVE","data_freshness_status":"CURRENT","scenario_index":"828","use_case_description":"Court attachment and disputed possession","mutation_workflow_status":"NOTICE_PERIOD","revenue_record_id":"ROR-AR-2025-1002-0014","revenue_record_type":"Land Possession Certificate (LPC)","khata_khewat_no":"KHT-52","khatauni_no":"KHN-152","owner_name":"Tage Tado","owner_name_local":"Tage Tado","co_owners":"","tenure_type":"Bhumiswami / Raiyati with Transferable Rights","mutation_status":"MUTATED","active_mutation_id":"","tax_demand_status":"PAID","annual_tax_inr":"185.5","deed_number":"DEED-AR-2024-402-0014","deed_type":"Sale Deed / Conveyance","sro_office":"Sub-Registrar Office, Itanagar Circle","execution_date":"2024-05-10","registered_owner":"Tage Tado","seller_name":"Previous Landholder","consideration_amount_inr":"3500000.0","stamp_duty_inr":"210000.0","survey_sketch_id":"FMB-AR-02-0014","cadastral_sheet_no":"SHT-AR-02","surveyed_area_sqm":"1200.0","survey_status":"SURVEYED","urban_authority":"Itanagar Circle Urban Development & Town Planning Authority","zone_name":"Residential Zone","permitted_land_use":"RESIDENTIAL","building_permission_status":"SANCTIONED","violations_reported":"False","is_encumbered":"True","encumbrance_certificate_number":"EC-AR-00000014-0014","encumbrance_type":"BANK_MORTGAGE","financial_institution":"","mortgage_amount":"0.0","created_at":"2026-01-15T09:00:00Z","updated_at":"2026-09-24T11:30:00Z"}},{"type":"Feature","geometry":{"type":"Polygon","coordinates":[[[94.04511311512768,26.825142430369123],[94.48408873255185,26.731550866873317],[94.4467233016567,27.193266443825035],[94.04511311512768,27.239696499692926],[94.04511311512768,26.825142430369123]]]},"properties":{"ulpin":"12969848635813","parcel_id":"d525e92c-a691-4f09-bd76-da92cb752425","state":"Arunachal Pradesh","state_code":"AR","state_type":"STATE","state_lgd_code":"12","district_lgd_code":"230","district_name":"Papum Pare","subdistrict_lgd_code":"2101","subdistrict_name":"Itanagar Circle","subdistrict_type":"Tehsil / Taluk","village_lgd_code":"260101","village_name":"Naharlagun","khasra_plot_no":"LPC-89/NHR/D15","recorded_area":"1200.0","recorded_area_unit":"Square Meter","normalized_area_sqm":"1200.0","gis_area_sqm":"1200.0","land_use_category":"COMMERCIAL","land_use_raw":"Residential Plotted","status":"PENDING_MUTATION","data_freshness_status":"STALE","scenario_index":"829","use_case_description":"Tribal non-alienation protection review","mutation_workflow_status":"HEARING_SCHEDULED","revenue_record_id":"ROR-AR-2025-1002-0015","revenue_record_type":"Land Possession Certificate (LPC)","khata_khewat_no":"KHT-52","khatauni_no":"KHN-152","owner_name":"Tage Tado","owner_name_local":"Tage Tado","co_owners":"","tenure_type":"Bhumiswami / Freehold","mutation_status":"PENDING","active_mutation_id":"MUT-AR-00000015","tax_demand_status":"PAID","annual_tax_inr":"185.5","deed_number":"DEED-AR-2024-402-0015","deed_type":"Sale Deed / Conveyance","sro_office":"Sub-Registrar Office, Itanagar Circle","execution_date":"2024-05-10","registered_owner":"Registry Variance Owner 15","seller_name":"Previous Landholder","consideration_amount_inr":"3500000.0","stamp_duty_inr":"210000.0","survey_sketch_id":"FMB-AR-02-0015","cadastral_sheet_no":"SHT-AR-02","surveyed_area_sqm":"1200.0","survey_status":"PENDING","urban_authority":"Itanagar Circle Urban Development & Town Planning Authority","zone_name":"Residential Zone","permitted_land_use":"COMMERCIAL","building_permission_status":"PENDING","violations_reported":"False","is_encumbered":"True","encumbrance_certificate_number":"EC-AR-00000015-0015","encumbrance_type":"GOVT_REVENUE_LIEN","financial_institution":"","mortgage_amount":"0.0","created_at":"2026-01-15T09:00:00Z","updated_at":"2026-09-24T11:30:00Z"}},{"type":"Feature","geometry":{"type":"Polygon","coordinates":[[[94.78730087535611,29.677618794422884],[95.10209225434633,29.613489057601722],[95.10209225434633,30.04647293413211],[94.75761537075708,30.04647293413211],[94.78730087535611,29.677618794422884]]]},"properties":{"ulpin":"12632849800628","parcel_id":"06e9973c-c0a8-4a2c-9e4a-c7021e02d587","state":"Arunachal Pradesh","state_code":"AR","state_type":"STATE","state_lgd_code":"12","district_lgd_code":"230","district_name":"Papum Pare","subdistrict_lgd_code":"2101","subdistrict_name":"Itanagar Circle","subdistrict_type":"Tehsil / Taluk","village_lgd_code":"260101","village_name":"Naharlagun","khasra_plot_no":"LPC-89/NHR/D16","recorded_area":"1200.0","recorded_area_unit":"Square Meter","normalized_area_sqm":"1200.0","gis_area_sqm":"1200.0","land_use_category":"INDUSTRIAL","land_use_raw":"Residential Plotted","status":"SUBDIVIDED","data_freshness_status":"UNKNOWN","scenario_index":"830","use_case_description":"Lease charge and institutional tenancy","mutation_workflow_status":"APPROVED","revenue_record_id":"ROR-AR-2025-1002-0016","revenue_record_type":"Land Possession Certificate (LPC)","khata_khewat_no":"KHT-52","khatauni_no":"KHN-152","owner_name":"Tage Tado","owner_name_local":"Tage Tado","co_owners":"","tenure_type":"Leasehold","mutation_status":"UNMUTATED_TRANSACTION","active_mutation_id":"MUT-AR-00000016","tax_demand_status":"PAID","annual_tax_inr":"185.5","deed_number":"DEED-AR-2024-402-0016","deed_type":"Sale Deed / Conveyance","sro_office":"Sub-Registrar Office, Itanagar Circle","execution_date":"2024-05-10","registered_owner":"Tage Tado","seller_name":"Previous Landholder","consideration_amount_inr":"3500000.0","stamp_duty_inr":"210000.0","survey_sketch_id":"FMB-AR-02-0016","cadastral_sheet_no":"SHT-AR-02","surveyed_area_sqm":"1200.0","survey_status":"DISPUTED","urban_authority":"Itanagar Circle Urban Development & Town Planning Authority","zone_name":"Residential Zone","permitted_land_use":"INDUSTRIAL","building_permission_status":"REJECTED","violations_reported":"False","is_encumbered":"True","encumbrance_certificate_number":"EC-AR-00000016-0016","encumbrance_type":"COURT_ATTACHMENT","financial_institution":"","mortgage_amount":"0.0","created_at":"2026-01-15T09:00:00Z","updated_at":"2026-09-24T11:30:00Z"}},{"type":"Feature","geometry":{"type":"Polygon","coordinates":[[[92.65001127823027,28.915287681777404],[93.07683537329233,28.90427418853502],[93.0249530989279,29.427598311180226],[92.65001127823027,29.30709122569629],[92.65001127823027,28.915287681777404]]]},"properties":{"ulpin":"12709149069410","parcel_id":"fbf7f326-d9ab-49d8-a073-13eaa0fdb804","state":"Arunachal Pradesh","state_code":"AR","state_type":"STATE","state_lgd_code":"12","district_lgd_code":"230","district_name":"Papum Pare","subdistrict_lgd_code":"2101","subdistrict_name":"Itanagar Circle","subdistrict_type":"Tehsil / Taluk","village_lgd_code":"260101","village_name":"Naharlagun","khasra_plot_no":"LPC-89/NHR/D17","recorded_area":"1200.0","recorded_area_unit":"Square Meter","normalized_area_sqm":"1200.0","gis_area_sqm":"1200.0","land_use_category":"AGRICULTURAL","land_use_raw":"Residential Plotted","status":"AMALGAMATED","data_freshness_status":"CURRENT","scenario_index":"831","use_case_description":"Subdivision or amalgamation history review","mutation_workflow_status":"REJECTED","revenue_record_id":"ROR-AR-2025-1002-0017","revenue_record_type":"Land Possession Certificate (LPC)","khata_khewat_no":"KHT-52","khatauni_no":"KHN-152","owner_name":"Tage Tado","owner_name_local":"Tage Tado","co_owners":"","tenure_type":"Government Grant","mutation_status":"REJECTED","active_mutation_id":"MUT-AR-00000017","tax_demand_status":"PAID","annual_tax_inr":"185.5","deed_number":"DEED-AR-2024-402-0017","deed_type":"Sale Deed / Conveyance","sro_office":"Sub-Registrar Office, Itanagar Circle","execution_date":"2024-05-10","registered_owner":"Tage Tado","seller_name":"Previous Landholder","consideration_amount_inr":"3500000.0","stamp_duty_inr":"210000.0","survey_sketch_id":"FMB-AR-02-0017","cadastral_sheet_no":"SHT-AR-02","surveyed_area_sqm":"1200.0","survey_status":"RESURVEY_REQUIRED","urban_authority":"Itanagar Circle Urban Development & Town Planning Authority","zone_name":"Residential Zone","permitted_land_use":"AGRICULTURAL","building_permission_status":"NOT_APPLICABLE","violations_reported":"False","is_encumbered":"True","encumbrance_certificate_number":"EC-AR-00000017-0017","encumbrance_type":"TRIBAL_NON_ALIENATION","financial_institution":"","mortgage_amount":"0.0","created_at":"2026-01-15T09:00:00Z","updated_at":"2026-09-24T11:30:00Z"}},{"type":"Feature","geometry":{"type":"Polygon","coordinates":[[[92.89716292603909,25.92250302593313],[93.31944014288865,25.92250302593313],[93.34477398603138,26.448647650486624],[92.89716292603909,26.462016127735012],[92.89716292603909,25.92250302593313]]]},"properties":{"ulpin":"12366439664528","parcel_id":"8749bd28-c0d8-4b8e-9138-1141991eeb22","state":"Arunachal Pradesh","state_code":"AR","state_type":"STATE","state_lgd_code":"12","district_lgd_code":"230","district_name":"Papum Pare","subdistrict_lgd_code":"2101","subdistrict_name":"Itanagar Circle","subdistrict_type":"Tehsil / Taluk","village_lgd_code":"260101","village_name":"Naharlagun","khasra_plot_no":"LPC-89/NHR/D18","recorded_area":"1200.0","recorded_area_unit":"Square Meter","normalized_area_sqm":"1200.0","gis_area_sqm":"1200.0","land_use_category":"INSTITUTIONAL","land_use_raw":"Residential Plotted","status":"DISPUTED","data_freshness_status":"STALE","scenario_index":"832","use_case_description":"Archived historical record for audit retrieval","mutation_workflow_status":"SLA_BREACHED","revenue_record_id":"ROR-AR-2025-1002-0018","revenue_record_type":"Land Possession Certificate (LPC)","khata_khewat_no":"KHT-52","khatauni_no":"KHN-152","owner_name":"Tage Tado","owner_name_local":"Tage Tado","co_owners":"","tenure_type":"Waqf / Religious Trust","mutation_status":"DISPUTED","active_mutation_id":"MUT-AR-00000018","tax_demand_status":"PAID","annual_tax_inr":"185.5","deed_number":"DEED-AR-2024-402-0018","deed_type":"Sale Deed / Conveyance","sro_office":"Sub-Registrar Office, Itanagar Circle","execution_date":"2024-05-10","registered_owner":"Tage Tado","seller_name":"Previous Landholder","consideration_amount_inr":"3500000.0","stamp_duty_inr":"210000.0","survey_sketch_id":"FMB-AR-02-0018","cadastral_sheet_no":"SHT-AR-02","surveyed_area_sqm":"1200.0","survey_status":"SURVEYED","urban_authority":"Itanagar Circle Urban Development & Town Planning Authority","zone_name":"Residential Zone","permitted_land_use":"INSTITUTIONAL","building_permission_status":"SANCTIONED","violations_reported":"False","is_encumbered":"True","encumbrance_certificate_number":"EC-AR-00000018-0018","encumbrance_type":"LEASE_CHARGE","financial_institution":"","mortgage_amount":"0.0","created_at":"2026-01-15T09:00:00Z","updated_at":"2026-09-24T11:30:00Z"}},{"type":"Feature","geometry":{"type":"Polygon","coordinates":[[[94.47341954644725,29.672538612970683],[94.78730087535611,29.677618794422884],[94.75761537075708,30.04647293413211],[94.49330860147447,30.04647293413211],[94.47341954644725,29.672538612970683]]]},"properties":{"ulpin":"12315981014464","parcel_id":"97a15da3-8d87-47d2-a63b-4e892c203333","state":"Arunachal Pradesh","state_code":"AR","state_type":"STATE","state_lgd_code":"12","district_lgd_code":"230","district_name":"Papum Pare","subdistrict_lgd_code":"2101","subdistrict_name":"Itanagar Circle","subdistrict_type":"Tehsil / Taluk","village_lgd_code":"260101","village_name":"Naharlagun","khasra_plot_no":"LPC-89/NHR/D19","recorded_area":"1200.0","recorded_area_unit":"Square Meter","normalized_area_sqm":"1200.0","gis_area_sqm":"1200.0","land_use_category":"FOREST_GREEN_BELT","land_use_raw":"Residential Plotted","status":"ARCHIVED","data_freshness_status":"UNKNOWN","scenario_index":"833","use_case_description":"Bank mortgage and active encumbrance","mutation_workflow_status":"SUBMITTED","revenue_record_id":"ROR-AR-2025-1002-0019","revenue_record_type":"Land Possession Certificate (LPC)","khata_khewat_no":"KHT-52","khatauni_no":"KHN-152","owner_name":"Tage Tado","owner_name_local":"Tage Tado","co_owners":"","tenure_type":"Tribal Community Tenure","mutation_status":"NONE","active_mutation_id":"MUT-AR-00000019","tax_demand_status":"PAID","annual_tax_inr":"185.5","deed_number":"DEED-AR-2024-402-0019","deed_type":"Sale Deed / Conveyance","sro_office":"Sub-Registrar Office, Itanagar Circle","execution_date":"2024-05-10","registered_owner":"Tage Tado","seller_name":"Previous Landholder","consideration_amount_inr":"3500000.0","stamp_duty_inr":"210000.0","survey_sketch_id":"FMB-AR-02-0019","cadastral_sheet_no":"SHT-AR-02","surveyed_area_sqm":"1200.0","survey_status":"PENDING","urban_authority":"Itanagar Circle Urban Development & Town Planning Authority","zone_name":"Residential Zone","permitted_land_use":"FOREST_GREEN_BELT","building_permission_status":"PENDING","violations_reported":"True","is_encumbered":"False","encumbrance_certificate_number":"EC-AR-2024-102-0019","encumbrance_type":"NIL","financial_institution":"","mortgage_amount":"0.0","created_at":"2026-01-15T09:00:00Z","updated_at":"2026-09-24T11:30:00Z"}},{"type":"Feature","geometry":{"type":"Polygon","coordinates":[[[93.0426462851636,28.424947639586343],[93.47244955978135,28.424947639586343],[93.47244955978135,28.87696153014433],[93.07683537329233,28.90427418853502],[93.0426462851636,28.424947639586343]]]},"properties":{"ulpin":"12548740699214","parcel_id":"f461099d-115d-43a1-9e5d-24522b617c79","state":"Arunachal Pradesh","state_code":"AR","state_type":"STATE","state_lgd_code":"12","district_lgd_code":"230","district_name":"Papum Pare","subdistrict_lgd_code":"2101","subdistrict_name":"Itanagar Circle","subdistrict_type":"Tehsil / Taluk","village_lgd_code":"260101","village_name":"Naharlagun","khasra_plot_no":"LPC-89/NHR/D20","recorded_area":"1200.0","recorded_area_unit":"Square Meter","normalized_area_sqm":"1200.0","gis_area_sqm":"1200.0","land_use_category":"WATER_BODY","land_use_raw":"Residential Plotted","status":"ACTIVE","data_freshness_status":"CURRENT","scenario_index":"834","use_case_description":"Government revenue lien and tax demand","mutation_workflow_status":"UNDER_VERIFICATION","revenue_record_id":"ROR-AR-2025-1002-0020","revenue_record_type":"Land Possession Certificate (LPC)","khata_khewat_no":"KHT-52","khatauni_no":"KHN-152","owner_name":"Tage Tado","owner_name_local":"Tage Tado","co_owners":"","tenure_type":"Bhumiswami / Raiyati with Transferable Rights","mutation_status":"MUTATED","active_mutation_id":"","tax_demand_status":"PAID","annual_tax_inr":"185.5","deed_number":"DEED-AR-2024-402-0020","deed_type":"Sale Deed / Conveyance","sro_office":"Sub-Registrar Office, Itanagar Circle","execution_date":"2024-05-10","registered_owner":"Registry Variance Owner 20","seller_name":"Previous Landholder","consideration_amount_inr":"3500000.0","stamp_duty_inr":"210000.0","survey_sketch_id":"FMB-AR-02-0020","cadastral_sheet_no":"SHT-AR-02","surveyed_area_sqm":"1200.0","survey_status":"DISPUTED","urban_authority":"Itanagar Circle Urban Development & Town Planning Authority","zone_name":"Residential Zone","permitted_land_use":"WATER_BODY","building_permission_status":"REJECTED","violations_reported":"False","is_encumbered":"True","encumbrance_certificate_number":"EC-AR-00000020-0020","encumbrance_type":"BANK_MORTGAGE","financial_institution":"","mortgage_amount":"0.0","created_at":"2026-01-15T09:00:00Z","updated_at":"2026-09-24T11:30:00Z"}},{"type":"Feature","geometry":{"type":"Polygon","coordinates":[[[94.4425571808102,29.195006496375186],[94.80557253758253,29.154650142663986],[94.78730087535611,29.677618794422884],[94.47341954644725,29.672538612970683],[94.4425571808102,29.195006496375186]]]},"properties":{"ulpin":"12345114858264","parcel_id":"a1b03d6a-fbe8-4266-b331-64b1c7001019","state":"Arunachal Pradesh","state_code":"AR","state_type":"STATE","state_lgd_code":"12","district_lgd_code":"230","district_name":"Papum Pare","subdistrict_lgd_code":"2101","subdistrict_name":"Itanagar Circle","subdistrict_type":"Tehsil / Taluk","village_lgd_code":"260101","village_name":"Naharlagun","khasra_plot_no":"LPC-89/NHR/D21","recorded_area":"1200.0","recorded_area_unit":"Square Meter","normalized_area_sqm":"1200.0","gis_area_sqm":"1200.0","land_use_category":"MIXED_USE","land_use_raw":"Residential Plotted","status":"PENDING_MUTATION","data_freshness_status":"STALE","scenario_index":"835","use_case_description":"Court attachment and disputed possession","mutation_workflow_status":"NOTICE_PERIOD","revenue_record_id":"ROR-AR-2025-1002-0021","revenue_record_type":"Land Possession Certificate (LPC)","khata_khewat_no":"KHT-52","khatauni_no":"KHN-152","owner_name":"Tage Tado","owner_name_local":"Tage Tado","co_owners":"","tenure_type":"Bhumiswami / Freehold","mutation_status":"PENDING","active_mutation_id":"MUT-AR-00000021","tax_demand_status":"PAID","annual_tax_inr":"185.5","deed_number":"DEED-AR-2024-402-0021","deed_type":"Sale Deed / Conveyance","sro_office":"Sub-Registrar Office, Itanagar Circle","execution_date":"2024-05-10","registered_owner":"Tage Tado","seller_name":"Previous Landholder","consideration_amount_inr":"3500000.0","stamp_duty_inr":"210000.0","survey_sketch_id":"FMB-AR-02-0021","cadastral_sheet_no":"SHT-AR-02","surveyed_area_sqm":"1200.0","survey_status":"RESURVEY_REQUIRED","urban_authority":"Itanagar Circle Urban Development & Town Planning Authority","zone_name":"Residential Zone","permitted_land_use":"MIXED_USE","building_permission_status":"NOT_APPLICABLE","violations_reported":"False","is_encumbered":"True","encumbrance_certificate_number":"EC-AR-00000021-0021","encumbrance_type":"GOVT_REVENUE_LIEN","financial_institution":"","mortgage_amount":"0.0","created_at":"2026-01-15T09:00:00Z","updated_at":"2026-09-24T11:30:00Z"}},{"type":"Feature","geometry":{"type":"Polygon","coordinates":[[[93.34477398603138,26.448647650486624],[93.8373753057969,26.478636778426683],[93.8373753057969,27.053582738658726],[93.44170796050824,27.007835510982503],[93.34477398603138,26.448647650486624]]]},"properties":{"ulpin":"12213570763905","parcel_id":"10fdff4a-5539-4d4d-9670-b64fa43c0e59","state":"Arunachal Pradesh","state_code":"AR","state_type":"STATE","state_lgd_code":"12","district_lgd_code":"230","district_name":"Papum Pare","subdistrict_lgd_code":"2101","subdistrict_name":"Itanagar Circle","subdistrict_type":"Tehsil / Taluk","village_lgd_code":"260101","village_name":"Naharlagun","khasra_plot_no":"LPC-89/NHR/D22","recorded_area":"1200.0","recorded_area_unit":"Square Meter","normalized_area_sqm":"1200.0","gis_area_sqm":"1200.0","land_use_category":"OTHER","land_use_raw":"Residential Plotted","status":"SUBDIVIDED","data_freshness_status":"UNKNOWN","scenario_index":"836","use_case_description":"Tribal non-alienation protection review","mutation_workflow_status":"HEARING_SCHEDULED","revenue_record_id":"ROR-AR-2025-1002-0022","revenue_record_type":"Land Possession Certificate (LPC)","khata_khewat_no":"KHT-52","khatauni_no":"KHN-152","owner_name":"Tage Tado","owner_name_local":"Tage Tado","co_owners":"","tenure_type":"Leasehold","mutation_status":"UNMUTATED_TRANSACTION","active_mutation_id":"MUT-AR-00000022","tax_demand_status":"PAID","annual_tax_inr":"185.5","deed_number":"DEED-AR-2024-402-0022","deed_type":"Sale Deed / Conveyance","sro_office":"Sub-Registrar Office, Itanagar Circle","execution_date":"2024-05-10","registered_owner":"Tage Tado","seller_name":"Previous Landholder","consideration_amount_inr":"3500000.0","stamp_duty_inr":"210000.0","survey_sketch_id":"FMB-AR-02-0022","cadastral_sheet_no":"SHT-AR-02","surveyed_area_sqm":"1200.0","survey_status":"SURVEYED","urban_authority":"Itanagar Circle Urban Development & Town Planning Authority","zone_name":"Residential Zone","permitted_land_use":"OTHER","building_permission_status":"SANCTIONED","violations_reported":"False","is_encumbered":"True","encumbrance_certificate_number":"EC-AR-00000022-0022","encumbrance_type":"COURT_ATTACHMENT","financial_institution":"","mortgage_amount":"0.0","created_at":"2026-01-15T09:00:00Z","updated_at":"2026-09-24T11:30:00Z"}},{"type":"Feature","geometry":{"type":"Polygon","coordinates":[[[94.04511311512768,27.239696499692926],[94.4467233016567,27.193266443825035],[94.54916347625182,27.755553023542987],[94.04511311512768,27.755553023542987],[94.04511311512768,27.239696499692926]]]},"properties":{"ulpin":"12408450192147","parcel_id":"9bbb8523-a291-4f70-a169-738d5f5fe78d","state":"Arunachal Pradesh","state_code":"AR","state_type":"STATE","state_lgd_code":"12","district_lgd_code":"230","district_name":"Papum Pare","subdistrict_lgd_code":"2101","subdistrict_name":"Itanagar Circle","subdistrict_type":"Tehsil / Taluk","village_lgd_code":"260101","village_name":"Naharlagun","khasra_plot_no":"LPC-89/NHR/D23","recorded_area":"1200.0","recorded_area_unit":"Square Meter","normalized_area_sqm":"1200.0","gis_area_sqm":"1200.0","land_use_category":"RESIDENTIAL","land_use_raw":"Residential Plotted","status":"AMALGAMATED","data_freshness_status":"CURRENT","scenario_index":"837","use_case_description":"Lease charge and institutional tenancy","mutation_workflow_status":"APPROVED","revenue_record_id":"ROR-AR-2025-1002-0023","revenue_record_type":"Land Possession Certificate (LPC)","khata_khewat_no":"KHT-52","khatauni_no":"KHN-152","owner_name":"Tage Tado","owner_name_local":"Tage Tado","co_owners":"","tenure_type":"Government Grant","mutation_status":"REJECTED","active_mutation_id":"MUT-AR-00000023","tax_demand_status":"PAID","annual_tax_inr":"185.5","deed_number":"DEED-AR-2024-402-0023","deed_type":"Sale Deed / Conveyance","sro_office":"Sub-Registrar Office, Itanagar Circle","execution_date":"2024-05-10","registered_owner":"Tage Tado","seller_name":"Previous Landholder","consideration_amount_inr":"3500000.0","stamp_duty_inr":"210000.0","survey_sketch_id":"FMB-AR-02-0023","cadastral_sheet_no":"SHT-AR-02","surveyed_area_sqm":"1200.0","survey_status":"PENDING","urban_authority":"Itanagar Circle Urban Development & Town Planning Authority","zone_name":"Residential Zone","permitted_land_use":"RESIDENTIAL","building_permission_status":"PENDING","violations_reported":"False","is_encumbered":"True","encumbrance_certificate_number":"EC-AR-00000023-0023","encumbrance_type":"TRIBAL_NON_ALIENATION","financial_institution":"","mortgage_amount":"0.0","created_at":"2026-01-15T09:00:00Z","updated_at":"2026-09-24T11:30:00Z"}},{"type":"Feature","geometry":{"type":"Polygon","coordinates":[[[94.50861567475204,26.284594451333227],[94.99222711981677,26.284594451333227],[94.99222711981677,26.791776900096927],[94.48408873255185,26.731550866873317],[94.50861567475204,26.284594451333227]]]},"properties":{"ulpin":"12404267146976","parcel_id":"df0ee0b4-3e0c-4349-9f3b-d8c31e879e47","state":"Arunachal Pradesh","state_code":"AR","state_type":"STATE","state_lgd_code":"12","district_lgd_code":"230","district_name":"Papum Pare","subdistrict_lgd_code":"2101","subdistrict_name":"Itanagar Circle","subdistrict_type":"Tehsil / Taluk","village_lgd_code":"260101","village_name":"Naharlagun","khasra_plot_no":"LPC-89/NHR/D24","recorded_area":"1200.0","recorded_area_unit":"Square Meter","normalized_area_sqm":"1200.0","gis_area_sqm":"1200.0","land_use_category":"COMMERCIAL","land_use_raw":"Residential Plotted","status":"DISPUTED","data_freshness_status":"STALE","scenario_index":"838","use_case_description":"Subdivision or amalgamation history review","mutation_workflow_status":"REJECTED","revenue_record_id":"ROR-AR-2025-1002-0024","revenue_record_type":"Land Possession Certificate (LPC)","khata_khewat_no":"KHT-52","khatauni_no":"KHN-152","owner_name":"Tage Tado","owner_name_local":"Tage Tado","co_owners":"","tenure_type":"Waqf / Religious Trust","mutation_status":"DISPUTED","active_mutation_id":"MUT-AR-00000024","tax_demand_status":"PAID","annual_tax_inr":"185.5","deed_number":"DEED-AR-2024-402-0024","deed_type":"Sale Deed / Conveyance","sro_office":"Sub-Registrar Office, Itanagar Circle","execution_date":"2024-05-10","registered_owner":"Tage Tado","seller_name":"Previous Landholder","consideration_amount_inr":"3500000.0","stamp_duty_inr":"210000.0","survey_sketch_id":"FMB-AR-02-0024","cadastral_sheet_no":"SHT-AR-02","surveyed_area_sqm":"1200.0","survey_status":"DISPUTED","urban_authority":"Itanagar Circle Urban Development & Town Planning Authority","zone_name":"Residential Zone","permitted_land_use":"COMMERCIAL","building_permission_status":"REJECTED","violations_reported":"False","is_encumbered":"True","encumbrance_certificate_number":"EC-AR-00000024-0024","encumbrance_type":"LEASE_CHARGE","financial_institution":"","mortgage_amount":"0.0","created_at":"2026-01-15T09:00:00Z","updated_at":"2026-09-24T11:30:00Z"}}]}