{"type":"FeatureCollection","features":[{"type":"Feature","geometry":{"type":"Polygon","coordinates":[[[76.6326219331471,30.681787497887466],[76.65586425460484,30.679608623043812],[76.65586425460484,30.709988786624944],[76.63055218229223,30.709988786624944],[76.6326219331471,30.681787497887466]]]},"properties":{"ulpin":"04253186803755","parcel_id":"330d4dc9-c9cf-4375-84b6-b07e63ce8535","state":"Chandigarh","state_code":"CH","state_type":"UT","state_lgd_code":"4","district_lgd_code":"24","district_name":"Chandigarh (UT)","subdistrict_lgd_code":"201","subdistrict_name":"Chandigarh Central","subdistrict_type":"Tehsil / Taluk","village_lgd_code":"20101","village_name":"Sector 17 Commercial Core","khasra_plot_no":"Plot 402/Sector 17-C/D1","recorded_area":"4.25","recorded_area_unit":"Kanal-Marla","normalized_area_sqm":"2149.89","gis_area_sqm":"2149.89","land_use_category":"WATER_BODY","land_use_raw":"Commercial Plot","status":"ACTIVE","data_freshness_status":"CURRENT","scenario_index":"19464","use_case_description":"Lease charge and institutional tenancy","mutation_workflow_status":"APPROVED","revenue_record_id":"ROR-CH-2025-1030-0001","revenue_record_type":"Record of Rights (Jamabandi)","khata_khewat_no":"KHT-80","khatauni_no":"KHN-180","owner_name":"Sanjay Singla & Sons Enterprise","owner_name_local":"संजय सिंगला","co_owners":"","tenure_type":"Bhumiswami / Raiyati with Transferable Rights","mutation_status":"MUTATED","active_mutation_id":"","tax_demand_status":"PAID","annual_tax_inr":"185.5","deed_number":"DEED-CH-2024-430-0001","deed_type":"Sale Deed / Conveyance","sro_office":"Sub-Registrar Office, Chandigarh Central","execution_date":"2024-05-10","registered_owner":"Registry Variance Owner 1","seller_name":"Previous Landholder","consideration_amount_inr":"3500000.0","stamp_duty_inr":"210000.0","survey_sketch_id":"FMB-CH-30-0001","cadastral_sheet_no":"SHT-CH-30","surveyed_area_sqm":"2149.89","survey_status":"SURVEYED","urban_authority":"Chandigarh Central Urban Development & Town Planning Authority","zone_name":"Commercial Core","permitted_land_use":"WATER_BODY","building_permission_status":"SANCTIONED","violations_reported":"False","is_encumbered":"True","encumbrance_certificate_number":"EC-CH-00000001-0001","encumbrance_type":"BANK_MORTGAGE","financial_institution":"","mortgage_amount":"0.0","created_at":"2026-01-15T09:00:00Z","updated_at":"2026-09-24T11:30:00Z"}},{"type":"Feature","geometry":{"type":"Polygon","coordinates":[[[76.57331214793308,30.683594772137564],[76.6013797169116,30.686359778103977],[76.59697333181283,30.709988786624944],[76.57331214793308,30.709988786624944],[76.57331214793308,30.683594772137564]]]},"properties":{"ulpin":"04813440176028","parcel_id":"d0d17cd0-07f2-4918-9820-152006cae28d","state":"Chandigarh","state_code":"CH","state_type":"UT","state_lgd_code":"4","district_lgd_code":"24","district_name":"Chandigarh (UT)","subdistrict_lgd_code":"201","subdistrict_name":"Chandigarh Central","subdistrict_type":"Tehsil / Taluk","village_lgd_code":"20101","village_name":"Sector 17 Commercial Core","khasra_plot_no":"Plot 402/Sector 17-C/D2","recorded_area":"4.25","recorded_area_unit":"Kanal-Marla","normalized_area_sqm":"2149.89","gis_area_sqm":"2149.89","land_use_category":"MIXED_USE","land_use_raw":"Commercial Plot","status":"PENDING_MUTATION","data_freshness_status":"STALE","scenario_index":"19465","use_case_description":"Subdivision or amalgamation history review","mutation_workflow_status":"REJECTED","revenue_record_id":"ROR-CH-2025-1030-0002","revenue_record_type":"Record of Rights (Jamabandi)","khata_khewat_no":"KHT-80","khatauni_no":"KHN-180","owner_name":"Sanjay Singla & Sons Enterprise","owner_name_local":"संजय सिंगला","co_owners":"","tenure_type":"Bhumiswami / Freehold","mutation_status":"PENDING","active_mutation_id":"MUT-CH-00000002","tax_demand_status":"PAID","annual_tax_inr":"185.5","deed_number":"DEED-CH-2024-430-0002","deed_type":"Sale Deed / Conveyance","sro_office":"Sub-Registrar Office, Chandigarh Central","execution_date":"2024-05-10","registered_owner":"Sunita Sharma / Aditi Verma","seller_name":"Previous Landholder","consideration_amount_inr":"3500000.0","stamp_duty_inr":"210000.0","survey_sketch_id":"FMB-CH-30-0002","cadastral_sheet_no":"SHT-CH-30","surveyed_area_sqm":"2149.89","survey_status":"PENDING","urban_authority":"Chandigarh Central Urban Development & Town Planning Authority","zone_name":"Commercial Core","permitted_land_use":"MIXED_USE","building_permission_status":"PENDING","violations_reported":"False","is_encumbered":"True","encumbrance_certificate_number":"EC-CH-00000002-0002","encumbrance_type":"GOVT_REVENUE_LIEN","financial_institution":"","mortgage_amount":"0.0","created_at":"2026-01-15T09:00:00Z","updated_at":"2026-09-24T11:30:00Z"}},{"type":"Feature","geometry":{"type":"Polygon","coordinates":[[[76.62657001886916,30.659709796251985],[76.65586425460484,30.658479586531524],[76.65586425460484,30.679608623043812],[76.6326219331471,30.681787497887466],[76.62657001886916,30.659709796251985]]]},"properties":{"ulpin":"04915917243423","parcel_id":"67d21912-400b-4c83-bead-f352b7c41192","state":"Chandigarh","state_code":"CH","state_type":"UT","state_lgd_code":"4","district_lgd_code":"24","district_name":"Chandigarh (UT)","subdistrict_lgd_code":"201","subdistrict_name":"Chandigarh Central","subdistrict_type":"Tehsil / Taluk","village_lgd_code":"20101","village_name":"Sector 17 Commercial Core","khasra_plot_no":"Plot 402/Sector 17-C/D3","recorded_area":"4.25","recorded_area_unit":"Kanal-Marla","normalized_area_sqm":"2149.89","gis_area_sqm":"2149.89","land_use_category":"OTHER","land_use_raw":"Commercial Plot","status":"SUBDIVIDED","data_freshness_status":"UNKNOWN","scenario_index":"19466","use_case_description":"Archived historical record for audit retrieval","mutation_workflow_status":"SLA_BREACHED","revenue_record_id":"ROR-CH-2025-1030-0003","revenue_record_type":"Record of Rights (Jamabandi)","khata_khewat_no":"KHT-80","khatauni_no":"KHN-180","owner_name":"Sanjay Singla & Sons Enterprise","owner_name_local":"संजय सिंगला","co_owners":"","tenure_type":"Leasehold","mutation_status":"UNMUTATED_TRANSACTION","active_mutation_id":"MUT-CH-00000003","tax_demand_status":"PAID","annual_tax_inr":"185.5","deed_number":"DEED-CH-2024-430-0003","deed_type":"Sale Deed / Conveyance","sro_office":"Sub-Registrar Office, Chandigarh Central","execution_date":"2024-05-10","registered_owner":"Sunita Sharma / Aditi Verma","seller_name":"Previous Landholder","consideration_amount_inr":"3500000.0","stamp_duty_inr":"210000.0","survey_sketch_id":"FMB-CH-30-0003","cadastral_sheet_no":"SHT-CH-30","surveyed_area_sqm":"2149.89","survey_status":"DISPUTED","urban_authority":"Chandigarh Central Urban Development & Town Planning Authority","zone_name":"Commercial Core","permitted_land_use":"OTHER","building_permission_status":"REJECTED","violations_reported":"False","is_encumbered":"True","encumbrance_certificate_number":"EC-CH-00000003-0003","encumbrance_type":"COURT_ATTACHMENT","financial_institution":"","mortgage_amount":"0.0","created_at":"2026-01-15T09:00:00Z","updated_at":"2026-09-24T11:30:00Z"}},{"type":"Feature","geometry":{"type":"Polygon","coordinates":[[[76.60323687512386,30.65315585135442],[76.62657001886916,30.659709796251985],[76.6326219331471,30.681787497887466],[76.6013797169116,30.686359778103977],[76.60323687512386,30.65315585135442]]]},"properties":{"ulpin":"04865240429123","parcel_id":"dd490c2f-e4bf-48c2-bd87-5eac6d486da8","state":"Chandigarh","state_code":"CH","state_type":"UT","state_lgd_code":"4","district_lgd_code":"24","district_name":"Chandigarh (UT)","subdistrict_lgd_code":"201","subdistrict_name":"Chandigarh Central","subdistrict_type":"Tehsil / Taluk","village_lgd_code":"20101","village_name":"Sector 17 Commercial Core","khasra_plot_no":"Plot 402/Sector 17-C/D4","recorded_area":"4.25","recorded_area_unit":"Kanal-Marla","normalized_area_sqm":"2149.89","gis_area_sqm":"2149.89","land_use_category":"RESIDENTIAL","land_use_raw":"Commercial Plot","status":"AMALGAMATED","data_freshness_status":"CURRENT","scenario_index":"19467","use_case_description":"Bank mortgage and active encumbrance","mutation_workflow_status":"SUBMITTED","revenue_record_id":"ROR-CH-2025-1030-0004","revenue_record_type":"Record of Rights (Jamabandi)","khata_khewat_no":"KHT-80","khatauni_no":"KHN-180","owner_name":"Sanjay Singla & Sons Enterprise","owner_name_local":"संजय सिंगला","co_owners":"","tenure_type":"Government Grant","mutation_status":"REJECTED","active_mutation_id":"MUT-CH-00000004","tax_demand_status":"PAID","annual_tax_inr":"185.5","deed_number":"DEED-CH-2024-430-0004","deed_type":"Sale Deed / Conveyance","sro_office":"Sub-Registrar Office, Chandigarh Central","execution_date":"2024-05-10","registered_owner":"Sunita Sharma / Aditi Verma","seller_name":"Previous Landholder","consideration_amount_inr":"3500000.0","stamp_duty_inr":"210000.0","survey_sketch_id":"FMB-CH-30-0004","cadastral_sheet_no":"SHT-CH-30","surveyed_area_sqm":"2149.89","survey_status":"RESURVEY_REQUIRED","urban_authority":"Chandigarh Central Urban Development & Town Planning Authority","zone_name":"Commercial Core","permitted_land_use":"RESIDENTIAL","building_permission_status":"NOT_APPLICABLE","violations_reported":"True","is_encumbered":"True","encumbrance_certificate_number":"EC-CH-00000004-0004","encumbrance_type":"TRIBAL_NON_ALIENATION","financial_institution":"","mortgage_amount":"0.0","created_at":"2026-01-15T09:00:00Z","updated_at":"2026-09-24T11:30:00Z"}},{"type":"Feature","geometry":{"type":"Polygon","coordinates":[[[76.57331214793308,30.62925505873167],[76.6040157814461,30.62925505873167],[76.60323687512386,30.65315585135442],[76.57331214793308,30.65620490303732],[76.57331214793308,30.62925505873167]]]},"properties":{"ulpin":"04413631198076","parcel_id":"6a14241e-a987-4aff-80f1-3e246117e202","state":"Chandigarh","state_code":"CH","state_type":"UT","state_lgd_code":"4","district_lgd_code":"24","district_name":"Chandigarh (UT)","subdistrict_lgd_code":"201","subdistrict_name":"Chandigarh Central","subdistrict_type":"Tehsil / Taluk","village_lgd_code":"20101","village_name":"Sector 17 Commercial Core","khasra_plot_no":"Plot 402/Sector 17-C/D5","recorded_area":"4.25","recorded_area_unit":"Kanal-Marla","normalized_area_sqm":"2149.89","gis_area_sqm":"2149.89","land_use_category":"COMMERCIAL","land_use_raw":"Commercial Plot","status":"DISPUTED","data_freshness_status":"STALE","scenario_index":"19468","use_case_description":"Government revenue lien and tax demand","mutation_workflow_status":"UNDER_VERIFICATION","revenue_record_id":"ROR-CH-2025-1030-0005","revenue_record_type":"Record of Rights (Jamabandi)","khata_khewat_no":"KHT-80","khatauni_no":"KHN-180","owner_name":"Sanjay Singla & Sons Enterprise","owner_name_local":"संजय सिंगला","co_owners":"","tenure_type":"Waqf / Religious Trust","mutation_status":"DISPUTED","active_mutation_id":"MUT-CH-00000005","tax_demand_status":"PAID","annual_tax_inr":"185.5","deed_number":"DEED-CH-2024-430-0005","deed_type":"Sale Deed / Conveyance","sro_office":"Sub-Registrar Office, Chandigarh Central","execution_date":"2024-05-10","registered_owner":"Sunita Sharma / Aditi Verma","seller_name":"Previous Landholder","consideration_amount_inr":"3500000.0","stamp_duty_inr":"210000.0","survey_sketch_id":"FMB-CH-30-0005","cadastral_sheet_no":"SHT-CH-30","surveyed_area_sqm":"2149.89","survey_status":"SURVEYED","urban_authority":"Chandigarh Central Urban Development & Town Planning Authority","zone_name":"Commercial Core","permitted_land_use":"COMMERCIAL","building_permission_status":"SANCTIONED","violations_reported":"False","is_encumbered":"True","encumbrance_certificate_number":"EC-CH-00000005-0005","encumbrance_type":"LEASE_CHARGE","financial_institution":"","mortgage_amount":"0.0","created_at":"2026-01-15T09:00:00Z","updated_at":"2026-09-24T11:30:00Z"}},{"type":"Feature","geometry":{"type":"Polygon","coordinates":[[[76.60213512182345,30.745363991019435],[76.6330235343969,30.745363991019435],[76.62555639896033,30.77944298208948],[76.60261276979783,30.77509449281453],[76.60213512182345,30.745363991019435]]]},"properties":{"ulpin":"04072000537823","parcel_id":"6def5f3c-8b57-4bc3-9960-abb0e3a10ef0","state":"Chandigarh","state_code":"CH","state_type":"UT","state_lgd_code":"4","district_lgd_code":"24","district_name":"Chandigarh (UT)","subdistrict_lgd_code":"201","subdistrict_name":"Chandigarh Central","subdistrict_type":"Tehsil / Taluk","village_lgd_code":"20101","village_name":"Sector 17 Commercial Core","khasra_plot_no":"Plot 402/Sector 17-C/D6","recorded_area":"4.25","recorded_area_unit":"Kanal-Marla","normalized_area_sqm":"2149.89","gis_area_sqm":"2149.89","land_use_category":"INDUSTRIAL","land_use_raw":"Commercial Plot","status":"ARCHIVED","data_freshness_status":"UNKNOWN","scenario_index":"19469","use_case_description":"Archived historical record for audit retrieval","mutation_workflow_status":"NOTICE_PERIOD","revenue_record_id":"ROR-CH-2025-1030-0006","revenue_record_type":"Record of Rights (Jamabandi)","khata_khewat_no":"KHT-80","khatauni_no":"KHN-180","owner_name":"Sanjay Singla & Sons Enterprise","owner_name_local":"संजय सिंगला","co_owners":"","tenure_type":"Tribal Community Tenure","mutation_status":"NONE","active_mutation_id":"MUT-CH-00000006","tax_demand_status":"PAID","annual_tax_inr":"185.5","deed_number":"DEED-CH-2024-430-0006","deed_type":"Sale Deed / Conveyance","sro_office":"Sub-Registrar Office, Chandigarh Central","execution_date":"2024-05-10","registered_owner":"Registry Variance Owner 6","seller_name":"Previous Landholder","consideration_amount_inr":"3500000.0","stamp_duty_inr":"210000.0","survey_sketch_id":"FMB-CH-30-0006","cadastral_sheet_no":"SHT-CH-30","surveyed_area_sqm":"2149.89","survey_status":"PENDING","urban_authority":"Chandigarh Central Urban Development & Town Planning Authority","zone_name":"Commercial Core","permitted_land_use":"INDUSTRIAL","building_permission_status":"PENDING","violations_reported":"False","is_encumbered":"False","encumbrance_certificate_number":"EC-CH-2024-130-0006","encumbrance_type":"NIL","financial_institution":"","mortgage_amount":"0.0","created_at":"2026-01-15T09:00:00Z","updated_at":"2026-09-24T11:30:00Z"}},{"type":"Feature","geometry":{"type":"Polygon","coordinates":[[[76.60261276979783,30.77509449281453],[76.62555639896033,30.77944298208948],[76.62458940660608,30.80598765156942],[76.59810895173968,30.80598765156942],[76.60261276979783,30.77509449281453]]]},"properties":{"ulpin":"04722129194001","parcel_id":"c8905655-78e6-45d3-956e-f2647d278d0f","state":"Chandigarh","state_code":"CH","state_type":"UT","state_lgd_code":"4","district_lgd_code":"24","district_name":"Chandigarh (UT)","subdistrict_lgd_code":"201","subdistrict_name":"Chandigarh Central","subdistrict_type":"Tehsil / Taluk","village_lgd_code":"20101","village_name":"Sector 17 Commercial Core","khasra_plot_no":"Plot 402/Sector 17-C/D7","recorded_area":"4.25","recorded_area_unit":"Kanal-Marla","normalized_area_sqm":"2149.89","gis_area_sqm":"2149.89","land_use_category":"AGRICULTURAL","land_use_raw":"Commercial Plot","status":"ACTIVE","data_freshness_status":"CURRENT","scenario_index":"19470","use_case_description":"Tribal non-alienation protection review","mutation_workflow_status":"HEARING_SCHEDULED","revenue_record_id":"ROR-CH-2025-1030-0007","revenue_record_type":"Record of Rights (Jamabandi)","khata_khewat_no":"KHT-80","khatauni_no":"KHN-180","owner_name":"Sanjay Singla & Sons Enterprise","owner_name_local":"संजय सिंगला","co_owners":"","tenure_type":"Bhumiswami / Raiyati with Transferable Rights","mutation_status":"MUTATED","active_mutation_id":"","tax_demand_status":"PAID","annual_tax_inr":"185.5","deed_number":"DEED-CH-2024-430-0007","deed_type":"Sale Deed / Conveyance","sro_office":"Sub-Registrar Office, Chandigarh Central","execution_date":"2024-05-10","registered_owner":"Sunita Sharma / Aditi Verma","seller_name":"Previous Landholder","consideration_amount_inr":"3500000.0","stamp_duty_inr":"210000.0","survey_sketch_id":"FMB-CH-30-0007","cadastral_sheet_no":"SHT-CH-30","surveyed_area_sqm":"2149.89","survey_status":"DISPUTED","urban_authority":"Chandigarh Central Urban Development & Town Planning Authority","zone_name":"Commercial Core","permitted_land_use":"AGRICULTURAL","building_permission_status":"REJECTED","violations_reported":"False","is_encumbered":"True","encumbrance_certificate_number":"EC-CH-00000007-0007","encumbrance_type":"BANK_MORTGAGE","financial_institution":"","mortgage_amount":"0.0","created_at":"2026-01-15T09:00:00Z","updated_at":"2026-09-24T11:30:00Z"}},{"type":"Feature","geometry":{"type":"Polygon","coordinates":[[[76.6242898701737,30.62925505873167],[76.65586425460484,30.62925505873167],[76.65586425460484,30.658479586531524],[76.62657001886916,30.659709796251985],[76.6242898701737,30.62925505873167]]]},"properties":{"ulpin":"04694494683937","parcel_id":"407bf01c-2647-42dc-b29e-f70cb0d2328f","state":"Chandigarh","state_code":"CH","state_type":"UT","state_lgd_code":"4","district_lgd_code":"24","district_name":"Chandigarh (UT)","subdistrict_lgd_code":"201","subdistrict_name":"Chandigarh Central","subdistrict_type":"Tehsil / Taluk","village_lgd_code":"20101","village_name":"Sector 17 Commercial Core","khasra_plot_no":"Plot 402/Sector 17-C/D8","recorded_area":"4.25","recorded_area_unit":"Kanal-Marla","normalized_area_sqm":"2149.89","gis_area_sqm":"2149.89","land_use_category":"INSTITUTIONAL","land_use_raw":"Commercial Plot","status":"PENDING_MUTATION","data_freshness_status":"STALE","scenario_index":"19471","use_case_description":"Lease charge and institutional tenancy","mutation_workflow_status":"APPROVED","revenue_record_id":"ROR-CH-2025-1030-0008","revenue_record_type":"Record of Rights (Jamabandi)","khata_khewat_no":"KHT-80","khatauni_no":"KHN-180","owner_name":"Sanjay Singla & Sons Enterprise","owner_name_local":"संजय सिंगला","co_owners":"","tenure_type":"Bhumiswami / Freehold","mutation_status":"PENDING","active_mutation_id":"MUT-CH-00000008","tax_demand_status":"PAID","annual_tax_inr":"185.5","deed_number":"DEED-CH-2024-430-0008","deed_type":"Sale Deed / Conveyance","sro_office":"Sub-Registrar Office, Chandigarh Central","execution_date":"2024-05-10","registered_owner":"Sunita Sharma / Aditi Verma","seller_name":"Previous Landholder","consideration_amount_inr":"3500000.0","stamp_duty_inr":"210000.0","survey_sketch_id":"FMB-CH-30-0008","cadastral_sheet_no":"SHT-CH-30","surveyed_area_sqm":"2149.89","survey_status":"RESURVEY_REQUIRED","urban_authority":"Chandigarh Central Urban Development & Town Planning Authority","zone_name":"Commercial Core","permitted_land_use":"INSTITUTIONAL","building_permission_status":"NOT_APPLICABLE","violations_reported":"False","is_encumbered":"True","encumbrance_certificate_number":"EC-CH-00000008-0008","encumbrance_type":"GOVT_REVENUE_LIEN","financial_institution":"","mortgage_amount":"0.0","created_at":"2026-01-15T09:00:00Z","updated_at":"2026-09-24T11:30:00Z"}},{"type":"Feature","geometry":{"type":"Polygon","coordinates":[[[76.74072508750578,30.793774369813043],[76.77708501308447,30.794888462919083],[76.77708501308447,30.82932295065038],[76.74126512909258,30.82932295065038],[76.74072508750578,30.793774369813043]]]},"properties":{"ulpin":"04541508248670","parcel_id":"08d7991d-6a6b-41a8-af3d-2b8e5be677f9","state":"Chandigarh","state_code":"CH","state_type":"UT","state_lgd_code":"4","district_lgd_code":"24","district_name":"Chandigarh (UT)","subdistrict_lgd_code":"201","subdistrict_name":"Chandigarh Central","subdistrict_type":"Tehsil / Taluk","village_lgd_code":"20101","village_name":"Sector 17 Commercial Core","khasra_plot_no":"Plot 402/Sector 17-C/D9","recorded_area":"4.25","recorded_area_unit":"Kanal-Marla","normalized_area_sqm":"2149.89","gis_area_sqm":"2149.89","land_use_category":"FOREST_GREEN_BELT","land_use_raw":"Commercial Plot","status":"SUBDIVIDED","data_freshness_status":"UNKNOWN","scenario_index":"19472","use_case_description":"Subdivision or amalgamation history review","mutation_workflow_status":"REJECTED","revenue_record_id":"ROR-CH-2025-1030-0009","revenue_record_type":"Record of Rights (Jamabandi)","khata_khewat_no":"KHT-80","khatauni_no":"KHN-180","owner_name":"Sanjay Singla & Sons Enterprise","owner_name_local":"संजय सिंगला","co_owners":"","tenure_type":"Leasehold","mutation_status":"UNMUTATED_TRANSACTION","active_mutation_id":"MUT-CH-00000009","tax_demand_status":"PAID","annual_tax_inr":"185.5","deed_number":"DEED-CH-2024-430-0009","deed_type":"Sale Deed / Conveyance","sro_office":"Sub-Registrar Office, Chandigarh Central","execution_date":"2024-05-10","registered_owner":"Sunita Sharma / Aditi Verma","seller_name":"Previous Landholder","consideration_amount_inr":"3500000.0","stamp_duty_inr":"210000.0","survey_sketch_id":"FMB-CH-30-0009","cadastral_sheet_no":"SHT-CH-30","surveyed_area_sqm":"2149.89","survey_status":"SURVEYED","urban_authority":"Chandigarh Central Urban Development & Town Planning Authority","zone_name":"Commercial Core","permitted_land_use":"FOREST_GREEN_BELT","building_permission_status":"SANCTIONED","violations_reported":"False","is_encumbered":"True","encumbrance_certificate_number":"EC-CH-00000009-0009","encumbrance_type":"COURT_ATTACHMENT","financial_institution":"","mortgage_amount":"0.0","created_at":"2026-01-15T09:00:00Z","updated_at":"2026-09-24T11:30:00Z"}},{"type":"Feature","geometry":{"type":"Polygon","coordinates":[[[76.57331214793308,30.745363991019435],[76.60213512182345,30.745363991019435],[76.60261276979783,30.77509449281453],[76.57331214793308,30.7754827677083],[76.57331214793308,30.745363991019435]]]},"properties":{"ulpin":"04293511623453","parcel_id":"ad3e5723-2f11-4289-9ef2-45d9f10d492e","state":"Chandigarh","state_code":"CH","state_type":"UT","state_lgd_code":"4","district_lgd_code":"24","district_name":"Chandigarh (UT)","subdistrict_lgd_code":"201","subdistrict_name":"Chandigarh Central","subdistrict_type":"Tehsil / Taluk","village_lgd_code":"20101","village_name":"Sector 17 Commercial Core","khasra_plot_no":"Plot 402/Sector 17-C/D10","recorded_area":"4.25","recorded_area_unit":"Kanal-Marla","normalized_area_sqm":"2149.89","gis_area_sqm":"2149.89","land_use_category":"WATER_BODY","land_use_raw":"Commercial Plot","status":"AMALGAMATED","data_freshness_status":"CURRENT","scenario_index":"19473","use_case_description":"Archived historical record for audit retrieval","mutation_workflow_status":"SLA_BREACHED","revenue_record_id":"ROR-CH-2025-1030-0010","revenue_record_type":"Record of Rights (Jamabandi)","khata_khewat_no":"KHT-80","khatauni_no":"KHN-180","owner_name":"Sanjay Singla & Sons Enterprise","owner_name_local":"संजय सिंगला","co_owners":"","tenure_type":"Government Grant","mutation_status":"REJECTED","active_mutation_id":"MUT-CH-00000010","tax_demand_status":"PAID","annual_tax_inr":"185.5","deed_number":"DEED-CH-2024-430-0010","deed_type":"Sale Deed / Conveyance","sro_office":"Sub-Registrar Office, Chandigarh Central","execution_date":"2024-05-10","registered_owner":"Sunita Sharma / Aditi Verma","seller_name":"Previous Landholder","consideration_amount_inr":"3500000.0","stamp_duty_inr":"210000.0","survey_sketch_id":"FMB-CH-30-0010","cadastral_sheet_no":"SHT-CH-30","surveyed_area_sqm":"2149.89","survey_status":"PENDING","urban_authority":"Chandigarh Central Urban Development & Town Planning Authority","zone_name":"Commercial Core","permitted_land_use":"WATER_BODY","building_permission_status":"PENDING","violations_reported":"False","is_encumbered":"True","encumbrance_certificate_number":"EC-CH-00000010-0010","encumbrance_type":"TRIBAL_NON_ALIENATION","financial_institution":"","mortgage_amount":"0.0","created_at":"2026-01-15T09:00:00Z","updated_at":"2026-09-24T11:30:00Z"}},{"type":"Feature","geometry":{"type":"Polygon","coordinates":[[[76.6330235343969,30.745363991019435],[76.65663904543929,30.745363991019435],[76.65663904543929,30.778969740170222],[76.62555639896033,30.77944298208948],[76.6330235343969,30.745363991019435]]]},"properties":{"ulpin":"04476387446341","parcel_id":"afb9e8b7-e973-4d3a-9b20-fcf70373c56d","state":"Chandigarh","state_code":"CH","state_type":"UT","state_lgd_code":"4","district_lgd_code":"24","district_name":"Chandigarh (UT)","subdistrict_lgd_code":"201","subdistrict_name":"Chandigarh Central","subdistrict_type":"Tehsil / Taluk","village_lgd_code":"20101","village_name":"Sector 17 Commercial Core","khasra_plot_no":"Plot 402/Sector 17-C/D11","recorded_area":"4.25","recorded_area_unit":"Kanal-Marla","normalized_area_sqm":"2149.89","gis_area_sqm":"2149.89","land_use_category":"MIXED_USE","land_use_raw":"Commercial Plot","status":"DISPUTED","data_freshness_status":"STALE","scenario_index":"19474","use_case_description":"Bank mortgage and active encumbrance","mutation_workflow_status":"SUBMITTED","revenue_record_id":"ROR-CH-2025-1030-0011","revenue_record_type":"Record of Rights (Jamabandi)","khata_khewat_no":"KHT-80","khatauni_no":"KHN-180","owner_name":"Sanjay Singla & Sons Enterprise","owner_name_local":"संजय सिंगला","co_owners":"","tenure_type":"Waqf / Religious Trust","mutation_status":"DISPUTED","active_mutation_id":"MUT-CH-00000011","tax_demand_status":"PAID","annual_tax_inr":"185.5","deed_number":"DEED-CH-2024-430-0011","deed_type":"Sale Deed / Conveyance","sro_office":"Sub-Registrar Office, Chandigarh Central","execution_date":"2024-05-10","registered_owner":"Registry Variance Owner 11","seller_name":"Previous Landholder","consideration_amount_inr":"3500000.0","stamp_duty_inr":"210000.0","survey_sketch_id":"FMB-CH-30-0011","cadastral_sheet_no":"SHT-CH-30","surveyed_area_sqm":"2149.89","survey_status":"DISPUTED","urban_authority":"Chandigarh Central Urban Development & Town Planning Authority","zone_name":"Commercial Core","permitted_land_use":"MIXED_USE","building_permission_status":"REJECTED","violations_reported":"True","is_encumbered":"True","encumbrance_certificate_number":"EC-CH-00000011-0011","encumbrance_type":"LEASE_CHARGE","financial_institution":"","mortgage_amount":"0.0","created_at":"2026-01-15T09:00:00Z","updated_at":"2026-09-24T11:30:00Z"}},{"type":"Feature","geometry":{"type":"Polygon","coordinates":[[[76.70567755216547,30.763420816655426],[76.74511139134091,30.763420816655426],[76.74072508750578,30.793774369813043],[76.70567755216547,30.79495594291584],[76.70567755216547,30.763420816655426]]]},"properties":{"ulpin":"04262032860775","parcel_id":"95140e6c-39eb-4453-a979-9259320c9f5e","state":"Chandigarh","state_code":"CH","state_type":"UT","state_lgd_code":"4","district_lgd_code":"24","district_name":"Chandigarh (UT)","subdistrict_lgd_code":"201","subdistrict_name":"Chandigarh Central","subdistrict_type":"Tehsil / Taluk","village_lgd_code":"20101","village_name":"Sector 17 Commercial Core","khasra_plot_no":"Plot 402/Sector 17-C/D12","recorded_area":"4.25","recorded_area_unit":"Kanal-Marla","normalized_area_sqm":"2149.89","gis_area_sqm":"2149.89","land_use_category":"OTHER","land_use_raw":"Commercial Plot","status":"ARCHIVED","data_freshness_status":"UNKNOWN","scenario_index":"19475","use_case_description":"Cadastral area discrepancy requiring resurvey","mutation_workflow_status":"UNDER_VERIFICATION","revenue_record_id":"ROR-CH-2025-1030-0012","revenue_record_type":"Record of Rights (Jamabandi)","khata_khewat_no":"KHT-80","khatauni_no":"KHN-180","owner_name":"Sanjay Singla & Sons Enterprise","owner_name_local":"संजय सिंगला","co_owners":"","tenure_type":"Tribal Community Tenure","mutation_status":"NONE","active_mutation_id":"MUT-CH-00000012","tax_demand_status":"PAID","annual_tax_inr":"185.5","deed_number":"DEED-CH-2024-430-0012","deed_type":"Sale Deed / Conveyance","sro_office":"Sub-Registrar Office, Chandigarh Central","execution_date":"2024-05-10","registered_owner":"Sunita Sharma / Aditi Verma","seller_name":"Previous Landholder","consideration_amount_inr":"3500000.0","stamp_duty_inr":"210000.0","survey_sketch_id":"FMB-CH-30-0012","cadastral_sheet_no":"SHT-CH-30","surveyed_area_sqm":"2149.89","survey_status":"RESURVEY_REQUIRED","urban_authority":"Chandigarh Central Urban Development & Town Planning Authority","zone_name":"Commercial Core","permitted_land_use":"OTHER","building_permission_status":"NOT_APPLICABLE","violations_reported":"False","is_encumbered":"False","encumbrance_certificate_number":"EC-CH-2024-130-0012","encumbrance_type":"NIL","financial_institution":"","mortgage_amount":"0.0","created_at":"2026-01-15T09:00:00Z","updated_at":"2026-09-24T11:30:00Z"}},{"type":"Feature","geometry":{"type":"Polygon","coordinates":[[[76.57331214793308,30.65620490303732],[76.60323687512386,30.65315585135442],[76.6013797169116,30.686359778103977],[76.57331214793308,30.683594772137564],[76.57331214793308,30.65620490303732]]]},"properties":{"ulpin":"04951904536459","parcel_id":"5670ef6b-68c7-428c-a55d-ba0072a21477","state":"Chandigarh","state_code":"CH","state_type":"UT","state_lgd_code":"4","district_lgd_code":"24","district_name":"Chandigarh (UT)","subdistrict_lgd_code":"201","subdistrict_name":"Chandigarh Central","subdistrict_type":"Tehsil / Taluk","village_lgd_code":"20101","village_name":"Sector 17 Commercial Core","khasra_plot_no":"Plot 402/Sector 17-C/D13","recorded_area":"4.25","recorded_area_unit":"Kanal-Marla","normalized_area_sqm":"2149.89","gis_area_sqm":"2149.89","land_use_category":"RESIDENTIAL","land_use_raw":"Commercial Plot","status":"ACTIVE","data_freshness_status":"CURRENT","scenario_index":"19476","use_case_description":"Court attachment and disputed possession","mutation_workflow_status":"NOTICE_PERIOD","revenue_record_id":"ROR-CH-2025-1030-0013","revenue_record_type":"Record of Rights (Jamabandi)","khata_khewat_no":"KHT-80","khatauni_no":"KHN-180","owner_name":"Sanjay Singla & Sons Enterprise","owner_name_local":"संजय सिंगला","co_owners":"","tenure_type":"Bhumiswami / Raiyati with Transferable Rights","mutation_status":"MUTATED","active_mutation_id":"","tax_demand_status":"PAID","annual_tax_inr":"185.5","deed_number":"DEED-CH-2024-430-0013","deed_type":"Sale Deed / Conveyance","sro_office":"Sub-Registrar Office, Chandigarh Central","execution_date":"2024-05-10","registered_owner":"Sunita Sharma / Aditi Verma","seller_name":"Previous Landholder","consideration_amount_inr":"3500000.0","stamp_duty_inr":"210000.0","survey_sketch_id":"FMB-CH-30-0013","cadastral_sheet_no":"SHT-CH-30","surveyed_area_sqm":"2149.89","survey_status":"SURVEYED","urban_authority":"Chandigarh Central Urban Development & Town Planning Authority","zone_name":"Commercial Core","permitted_land_use":"RESIDENTIAL","building_permission_status":"SANCTIONED","violations_reported":"False","is_encumbered":"True","encumbrance_certificate_number":"EC-CH-00000013-0013","encumbrance_type":"BANK_MORTGAGE","financial_institution":"","mortgage_amount":"0.0","created_at":"2026-01-15T09:00:00Z","updated_at":"2026-09-24T11:30:00Z"}},{"type":"Feature","geometry":{"type":"Polygon","coordinates":[[[76.74511139134091,30.763420816655426],[76.77708501308447,30.763420816655426],[76.77708501308447,30.794888462919083],[76.74072508750578,30.793774369813043],[76.74511139134091,30.763420816655426]]]},"properties":{"ulpin":"04016340176992","parcel_id":"64fd4d63-761d-4a74-b6b0-7b47c17f0646","state":"Chandigarh","state_code":"CH","state_type":"UT","state_lgd_code":"4","district_lgd_code":"24","district_name":"Chandigarh (UT)","subdistrict_lgd_code":"201","subdistrict_name":"Chandigarh Central","subdistrict_type":"Tehsil / Taluk","village_lgd_code":"20101","village_name":"Sector 17 Commercial Core","khasra_plot_no":"Plot 402/Sector 17-C/D14","recorded_area":"4.25","recorded_area_unit":"Kanal-Marla","normalized_area_sqm":"2149.89","gis_area_sqm":"2149.89","land_use_category":"COMMERCIAL","land_use_raw":"Commercial Plot","status":"PENDING_MUTATION","data_freshness_status":"STALE","scenario_index":"19477","use_case_description":"Tribal non-alienation protection review","mutation_workflow_status":"HEARING_SCHEDULED","revenue_record_id":"ROR-CH-2025-1030-0014","revenue_record_type":"Record of Rights (Jamabandi)","khata_khewat_no":"KHT-80","khatauni_no":"KHN-180","owner_name":"Sanjay Singla & Sons Enterprise","owner_name_local":"संजय सिंगला","co_owners":"","tenure_type":"Bhumiswami / Freehold","mutation_status":"PENDING","active_mutation_id":"MUT-CH-00000014","tax_demand_status":"PAID","annual_tax_inr":"185.5","deed_number":"DEED-CH-2024-430-0014","deed_type":"Sale Deed / Conveyance","sro_office":"Sub-Registrar Office, Chandigarh Central","execution_date":"2024-05-10","registered_owner":"Sunita Sharma / Aditi Verma","seller_name":"Previous Landholder","consideration_amount_inr":"3500000.0","stamp_duty_inr":"210000.0","survey_sketch_id":"FMB-CH-30-0014","cadastral_sheet_no":"SHT-CH-30","surveyed_area_sqm":"2149.89","survey_status":"PENDING","urban_authority":"Chandigarh Central Urban Development & Town Planning Authority","zone_name":"Commercial Core","permitted_land_use":"COMMERCIAL","building_permission_status":"PENDING","violations_reported":"False","is_encumbered":"True","encumbrance_certificate_number":"EC-CH-00000014-0014","encumbrance_type":"GOVT_REVENUE_LIEN","financial_institution":"","mortgage_amount":"0.0","created_at":"2026-01-15T09:00:00Z","updated_at":"2026-09-24T11:30:00Z"}},{"type":"Feature","geometry":{"type":"Polygon","coordinates":[[[76.6013797169116,30.686359778103977],[76.6326219331471,30.681787497887466],[76.63055218229223,30.709988786624944],[76.59697333181283,30.709988786624944],[76.6013797169116,30.686359778103977]]]},"properties":{"ulpin":"04153913240221","parcel_id":"dcdbc037-1aaf-4d10-96f2-5e41fd7cb78b","state":"Chandigarh","state_code":"CH","state_type":"UT","state_lgd_code":"4","district_lgd_code":"24","district_name":"Chandigarh (UT)","subdistrict_lgd_code":"201","subdistrict_name":"Chandigarh Central","subdistrict_type":"Tehsil / Taluk","village_lgd_code":"20101","village_name":"Sector 17 Commercial Core","khasra_plot_no":"Plot 402/Sector 17-C/D15","recorded_area":"4.25","recorded_area_unit":"Kanal-Marla","normalized_area_sqm":"2149.89","gis_area_sqm":"2149.89","land_use_category":"INDUSTRIAL","land_use_raw":"Commercial Plot","status":"SUBDIVIDED","data_freshness_status":"UNKNOWN","scenario_index":"19478","use_case_description":"Lease charge and institutional tenancy","mutation_workflow_status":"APPROVED","revenue_record_id":"ROR-CH-2025-1030-0015","revenue_record_type":"Record of Rights (Jamabandi)","khata_khewat_no":"KHT-80","khatauni_no":"KHN-180","owner_name":"Sanjay Singla & Sons Enterprise","owner_name_local":"संजय सिंगला","co_owners":"","tenure_type":"Leasehold","mutation_status":"UNMUTATED_TRANSACTION","active_mutation_id":"MUT-CH-00000015","tax_demand_status":"PAID","annual_tax_inr":"185.5","deed_number":"DEED-CH-2024-430-0015","deed_type":"Sale Deed / Conveyance","sro_office":"Sub-Registrar Office, Chandigarh Central","execution_date":"2024-05-10","registered_owner":"Sunita Sharma / Aditi Verma","seller_name":"Previous Landholder","consideration_amount_inr":"3500000.0","stamp_duty_inr":"210000.0","survey_sketch_id":"FMB-CH-30-0015","cadastral_sheet_no":"SHT-CH-30","surveyed_area_sqm":"2149.89","survey_status":"DISPUTED","urban_authority":"Chandigarh Central Urban Development & Town Planning Authority","zone_name":"Commercial Core","permitted_land_use":"INDUSTRIAL","building_permission_status":"REJECTED","violations_reported":"False","is_encumbered":"True","encumbrance_certificate_number":"EC-CH-00000015-0015","encumbrance_type":"COURT_ATTACHMENT","financial_institution":"","mortgage_amount":"0.0","created_at":"2026-01-15T09:00:00Z","updated_at":"2026-09-24T11:30:00Z"}},{"type":"Feature","geometry":{"type":"Polygon","coordinates":[[[76.62555639896033,30.77944298208948],[76.65663904543929,30.778969740170222],[76.65663904543929,30.80598765156942],[76.62458940660608,30.80598765156942],[76.62555639896033,30.77944298208948]]]},"properties":{"ulpin":"04359517015682","parcel_id":"c1915ae5-9348-4d90-827e-ec8768ac08d1","state":"Chandigarh","state_code":"CH","state_type":"UT","state_lgd_code":"4","district_lgd_code":"24","district_name":"Chandigarh (UT)","subdistrict_lgd_code":"201","subdistrict_name":"Chandigarh Central","subdistrict_type":"Tehsil / Taluk","village_lgd_code":"20101","village_name":"Sector 17 Commercial Core","khasra_plot_no":"Plot 402/Sector 17-C/D16","recorded_area":"4.25","recorded_area_unit":"Kanal-Marla","normalized_area_sqm":"2149.89","gis_area_sqm":"2149.89","land_use_category":"AGRICULTURAL","land_use_raw":"Commercial Plot","status":"AMALGAMATED","data_freshness_status":"CURRENT","scenario_index":"19479","use_case_description":"Subdivision or amalgamation history review","mutation_workflow_status":"REJECTED","revenue_record_id":"ROR-CH-2025-1030-0016","revenue_record_type":"Record of Rights (Jamabandi)","khata_khewat_no":"KHT-80","khatauni_no":"KHN-180","owner_name":"Sanjay Singla & Sons Enterprise","owner_name_local":"संजय सिंगला","co_owners":"","tenure_type":"Government Grant","mutation_status":"REJECTED","active_mutation_id":"MUT-CH-00000016","tax_demand_status":"PAID","annual_tax_inr":"185.5","deed_number":"DEED-CH-2024-430-0016","deed_type":"Sale Deed / Conveyance","sro_office":"Sub-Registrar Office, Chandigarh Central","execution_date":"2024-05-10","registered_owner":"Registry Variance Owner 16","seller_name":"Previous Landholder","consideration_amount_inr":"3500000.0","stamp_duty_inr":"210000.0","survey_sketch_id":"FMB-CH-30-0016","cadastral_sheet_no":"SHT-CH-30","surveyed_area_sqm":"2149.89","survey_status":"RESURVEY_REQUIRED","urban_authority":"Chandigarh Central Urban Development & Town Planning Authority","zone_name":"Commercial Core","permitted_land_use":"AGRICULTURAL","building_permission_status":"NOT_APPLICABLE","violations_reported":"False","is_encumbered":"True","encumbrance_certificate_number":"EC-CH-00000016-0016","encumbrance_type":"TRIBAL_NON_ALIENATION","financial_institution":"","mortgage_amount":"0.0","created_at":"2026-01-15T09:00:00Z","updated_at":"2026-09-24T11:30:00Z"}},{"type":"Feature","geometry":{"type":"Polygon","coordinates":[[[76.70567755216547,30.79495594291584],[76.74072508750578,30.793774369813043],[76.74126512909258,30.82932295065038],[76.70567755216547,30.82932295065038],[76.70567755216547,30.79495594291584]]]},"properties":{"ulpin":"04981050391884","parcel_id":"eaa60b00-0971-4303-9502-47430c11dbd3","state":"Chandigarh","state_code":"CH","state_type":"UT","state_lgd_code":"4","district_lgd_code":"24","district_name":"Chandigarh (UT)","subdistrict_lgd_code":"201","subdistrict_name":"Chandigarh Central","subdistrict_type":"Tehsil / Taluk","village_lgd_code":"20101","village_name":"Sector 17 Commercial Core","khasra_plot_no":"Plot 402/Sector 17-C/D17","recorded_area":"4.25","recorded_area_unit":"Kanal-Marla","normalized_area_sqm":"2149.89","gis_area_sqm":"2149.89","land_use_category":"INSTITUTIONAL","land_use_raw":"Commercial Plot","status":"DISPUTED","data_freshness_status":"STALE","scenario_index":"19480","use_case_description":"Archived historical record for audit retrieval","mutation_workflow_status":"SLA_BREACHED","revenue_record_id":"ROR-CH-2025-1030-0017","revenue_record_type":"Record of Rights (Jamabandi)","khata_khewat_no":"KHT-80","khatauni_no":"KHN-180","owner_name":"Sanjay Singla & Sons Enterprise","owner_name_local":"संजय सिंगला","co_owners":"","tenure_type":"Waqf / Religious Trust","mutation_status":"DISPUTED","active_mutation_id":"MUT-CH-00000017","tax_demand_status":"PAID","annual_tax_inr":"185.5","deed_number":"DEED-CH-2024-430-0017","deed_type":"Sale Deed / Conveyance","sro_office":"Sub-Registrar Office, Chandigarh Central","execution_date":"2024-05-10","registered_owner":"Sunita Sharma / Aditi Verma","seller_name":"Previous Landholder","consideration_amount_inr":"3500000.0","stamp_duty_inr":"210000.0","survey_sketch_id":"FMB-CH-30-0017","cadastral_sheet_no":"SHT-CH-30","surveyed_area_sqm":"2149.89","survey_status":"SURVEYED","urban_authority":"Chandigarh Central Urban Development & Town Planning Authority","zone_name":"Commercial Core","permitted_land_use":"INSTITUTIONAL","building_permission_status":"SANCTIONED","violations_reported":"False","is_encumbered":"True","encumbrance_certificate_number":"EC-CH-00000017-0017","encumbrance_type":"LEASE_CHARGE","financial_institution":"","mortgage_amount":"0.0","created_at":"2026-01-15T09:00:00Z","updated_at":"2026-09-24T11:30:00Z"}},{"type":"Feature","geometry":{"type":"Polygon","coordinates":[[[76.6040157814461,30.62925505873167],[76.6242898701737,30.62925505873167],[76.62657001886916,30.659709796251985],[76.60323687512386,30.65315585135442],[76.6040157814461,30.62925505873167]]]},"properties":{"ulpin":"04113029340013","parcel_id":"f03dcaaf-80e5-4fb9-8a7e-d80a2ebd8224","state":"Chandigarh","state_code":"CH","state_type":"UT","state_lgd_code":"4","district_lgd_code":"24","district_name":"Chandigarh (UT)","subdistrict_lgd_code":"201","subdistrict_name":"Chandigarh Central","subdistrict_type":"Tehsil / Taluk","village_lgd_code":"20101","village_name":"Sector 17 Commercial Core","khasra_plot_no":"Plot 402/Sector 17-C/D18","recorded_area":"4.25","recorded_area_unit":"Kanal-Marla","normalized_area_sqm":"2149.89","gis_area_sqm":"2149.89","land_use_category":"FOREST_GREEN_BELT","land_use_raw":"Commercial Plot","status":"ARCHIVED","data_freshness_status":"UNKNOWN","scenario_index":"19481","use_case_description":"Tribal non-alienation protection review","mutation_workflow_status":"SUBMITTED","revenue_record_id":"ROR-CH-2025-1030-0018","revenue_record_type":"Record of Rights (Jamabandi)","khata_khewat_no":"KHT-80","khatauni_no":"KHN-180","owner_name":"Sanjay Singla & Sons Enterprise","owner_name_local":"संजय सिंगला","co_owners":"","tenure_type":"Tribal Community Tenure","mutation_status":"NONE","active_mutation_id":"MUT-CH-00000018","tax_demand_status":"PAID","annual_tax_inr":"185.5","deed_number":"DEED-CH-2024-430-0018","deed_type":"Sale Deed / Conveyance","sro_office":"Sub-Registrar Office, Chandigarh Central","execution_date":"2024-05-10","registered_owner":"Sunita Sharma / Aditi Verma","seller_name":"Previous Landholder","consideration_amount_inr":"3500000.0","stamp_duty_inr":"210000.0","survey_sketch_id":"FMB-CH-30-0018","cadastral_sheet_no":"SHT-CH-30","surveyed_area_sqm":"2149.89","survey_status":"PENDING","urban_authority":"Chandigarh Central Urban Development & Town Planning Authority","zone_name":"Commercial Core","permitted_land_use":"FOREST_GREEN_BELT","building_permission_status":"PENDING","violations_reported":"True","is_encumbered":"False","encumbrance_certificate_number":"EC-CH-2024-130-0018","encumbrance_type":"NIL","financial_institution":"","mortgage_amount":"0.0","created_at":"2026-01-15T09:00:00Z","updated_at":"2026-09-24T11:30:00Z"}}]}