{"type":"FeatureCollection","features":[{"type":"Feature","geometry":{"type":"Polygon","coordinates":[[[72.78525281957936,20.13528774075945],[72.83378689995773,20.1281758699595],[72.83378689995773,20.18795301377674],[72.78474589607025,20.18795301377674],[72.78525281957936,20.13528774075945]]]},"properties":{"ulpin":"26148402437027","parcel_id":"fd539bb1-bc6b-4383-b95d-ea1166d3dbf0","state":"Dadra & Nagar Haveli and Daman & Diu","state_code":"DN","state_type":"UT","state_lgd_code":"26","district_lgd_code":"470","district_name":"Daman","subdistrict_lgd_code":"4501","subdistrict_name":"Daman Sub-District","subdistrict_type":"Tehsil / Taluk","village_lgd_code":"510101","village_name":"Nani Daman","khasra_plot_no":"Survey 89/1-B/D1","recorded_area":"4.5","recorded_area_unit":"Hectare-Are","normalized_area_sqm":"450.0","gis_area_sqm":"450.0","land_use_category":"WATER_BODY","land_use_raw":"Industrial Estate Plot","status":"ACTIVE","data_freshness_status":"CURRENT","scenario_index":"19482","use_case_description":"Government revenue lien and tax demand","mutation_workflow_status":"UNDER_VERIFICATION","revenue_record_id":"ROR-DN-2025-1031-0001","revenue_record_type":"Form I & XIV Land Record","khata_khewat_no":"KHT-81","khatauni_no":"KHN-181","owner_name":"Coastal Petro-Chem Pvt Ltd","owner_name_local":"કોસ્ટલ પેટ્રો-કેમ પ્રાઇવેટ લિમિટેડ","co_owners":"","tenure_type":"Bhumiswami / Raiyati with Transferable Rights","mutation_status":"MUTATED","active_mutation_id":"","tax_demand_status":"PAID","annual_tax_inr":"185.5","deed_number":"DEED-DN-2024-431-0001","deed_type":"Sale Deed / Conveyance","sro_office":"Sub-Registrar Office, Daman Sub-District","execution_date":"2024-05-10","registered_owner":"Coastal Petro-Chem Pvt Ltd","seller_name":"Previous Landholder","consideration_amount_inr":"3500000.0","stamp_duty_inr":"210000.0","survey_sketch_id":"FMB-DN-31-0001","cadastral_sheet_no":"SHT-DN-31","surveyed_area_sqm":"450.0","survey_status":"DISPUTED","urban_authority":"Daman Sub-District Urban Development & Town Planning Authority","zone_name":"Agricultural / Green Buffer","permitted_land_use":"WATER_BODY","building_permission_status":"REJECTED","violations_reported":"False","is_encumbered":"True","encumbrance_certificate_number":"EC-DN-00000001-0001","encumbrance_type":"BANK_MORTGAGE","financial_institution":"","mortgage_amount":"0.0","created_at":"2026-01-15T09:00:00Z","updated_at":"2026-09-24T11:30:00Z"}},{"type":"Feature","geometry":{"type":"Polygon","coordinates":[[[72.71906257654456,20.23760218553894],[72.78709380144754,20.23760218553894],[72.77925511482523,20.281610952801003],[72.71906257654456,20.278347732697927],[72.71906257654456,20.23760218553894]]]},"properties":{"ulpin":"26049251002343","parcel_id":"f233cf16-459c-4f0c-aff9-4533824934f2","state":"Dadra & Nagar Haveli and Daman & Diu","state_code":"DN","state_type":"UT","state_lgd_code":"26","district_lgd_code":"470","district_name":"Daman","subdistrict_lgd_code":"4501","subdistrict_name":"Daman Sub-District","subdistrict_type":"Tehsil / Taluk","village_lgd_code":"510101","village_name":"Nani Daman","khasra_plot_no":"Survey 89/1-B/D2","recorded_area":"4.5","recorded_area_unit":"Hectare-Are","normalized_area_sqm":"450.0","gis_area_sqm":"450.0","land_use_category":"MIXED_USE","land_use_raw":"Industrial Estate Plot","status":"PENDING_MUTATION","data_freshness_status":"STALE","scenario_index":"19483","use_case_description":"Court attachment and disputed possession","mutation_workflow_status":"NOTICE_PERIOD","revenue_record_id":"ROR-DN-2025-1031-0002","revenue_record_type":"Form I & XIV Land Record","khata_khewat_no":"KHT-81","khatauni_no":"KHN-181","owner_name":"Coastal Petro-Chem Pvt Ltd","owner_name_local":"કોસ્ટલ પેટ્રો-કેમ પ્રાઇવેટ લિમિટેડ","co_owners":"","tenure_type":"Bhumiswami / Freehold","mutation_status":"PENDING","active_mutation_id":"MUT-DN-00000002","tax_demand_status":"PAID","annual_tax_inr":"185.5","deed_number":"DEED-DN-2024-431-0002","deed_type":"Sale Deed / Conveyance","sro_office":"Sub-Registrar Office, Daman Sub-District","execution_date":"2024-05-10","registered_owner":"Coastal Petro-Chem Pvt Ltd","seller_name":"Previous Landholder","consideration_amount_inr":"3500000.0","stamp_duty_inr":"210000.0","survey_sketch_id":"FMB-DN-31-0002","cadastral_sheet_no":"SHT-DN-31","surveyed_area_sqm":"450.0","survey_status":"RESURVEY_REQUIRED","urban_authority":"Daman Sub-District Urban Development & Town Planning Authority","zone_name":"Agricultural / Green Buffer","permitted_land_use":"MIXED_USE","building_permission_status":"NOT_APPLICABLE","violations_reported":"False","is_encumbered":"True","encumbrance_certificate_number":"EC-DN-00000002-0002","encumbrance_type":"GOVT_REVENUE_LIEN","financial_institution":"","mortgage_amount":"0.0","created_at":"2026-01-15T09:00:00Z","updated_at":"2026-09-24T11:30:00Z"}},{"type":"Feature","geometry":{"type":"Polygon","coordinates":[[[72.79126548608855,20.084143101133662],[72.83378689995773,20.084143101133662],[72.83378689995773,20.1281758699595],[72.78525281957936,20.13528774075945],[72.79126548608855,20.084143101133662]]]},"properties":{"ulpin":"26237090068616","parcel_id":"fc53ad1c-6dde-4cb8-911b-095082443564","state":"Dadra & Nagar Haveli and Daman & Diu","state_code":"DN","state_type":"UT","state_lgd_code":"26","district_lgd_code":"470","district_name":"Daman","subdistrict_lgd_code":"4501","subdistrict_name":"Daman Sub-District","subdistrict_type":"Tehsil / Taluk","village_lgd_code":"510101","village_name":"Nani Daman","khasra_plot_no":"Survey 89/1-B/D3","recorded_area":"4.5","recorded_area_unit":"Hectare-Are","normalized_area_sqm":"450.0","gis_area_sqm":"450.0","land_use_category":"OTHER","land_use_raw":"Industrial Estate Plot","status":"SUBDIVIDED","data_freshness_status":"UNKNOWN","scenario_index":"19484","use_case_description":"Tribal non-alienation protection review","mutation_workflow_status":"HEARING_SCHEDULED","revenue_record_id":"ROR-DN-2025-1031-0003","revenue_record_type":"Form I & XIV Land Record","khata_khewat_no":"KHT-81","khatauni_no":"KHN-181","owner_name":"Coastal Petro-Chem Pvt Ltd","owner_name_local":"કોસ્ટલ પેટ્રો-કેમ પ્રાઇવેટ લિમિટેડ","co_owners":"","tenure_type":"Leasehold","mutation_status":"UNMUTATED_TRANSACTION","active_mutation_id":"MUT-DN-00000003","tax_demand_status":"PAID","annual_tax_inr":"185.5","deed_number":"DEED-DN-2024-431-0003","deed_type":"Sale Deed / Conveyance","sro_office":"Sub-Registrar Office, Daman Sub-District","execution_date":"2024-05-10","registered_owner":"Registry Variance Owner 3","seller_name":"Previous Landholder","consideration_amount_inr":"3500000.0","stamp_duty_inr":"210000.0","survey_sketch_id":"FMB-DN-31-0003","cadastral_sheet_no":"SHT-DN-31","surveyed_area_sqm":"450.0","survey_status":"SURVEYED","urban_authority":"Daman Sub-District Urban Development & Town Planning Authority","zone_name":"Agricultural / Green Buffer","permitted_land_use":"OTHER","building_permission_status":"SANCTIONED","violations_reported":"False","is_encumbered":"True","encumbrance_certificate_number":"EC-DN-00000003-0003","encumbrance_type":"COURT_ATTACHMENT","financial_institution":"","mortgage_amount":"0.0","created_at":"2026-01-15T09:00:00Z","updated_at":"2026-09-24T11:30:00Z"}},{"type":"Feature","geometry":{"type":"Polygon","coordinates":[[[72.74345727029898,20.14052728365828],[72.78525281957936,20.13528774075945],[72.78474589607025,20.18795301377674],[72.74114031606827,20.18795301377674],[72.74345727029898,20.14052728365828]]]},"properties":{"ulpin":"26576808811463","parcel_id":"f8abae66-d7d2-4b5f-8612-ee62d34b8be9","state":"Dadra & Nagar Haveli and Daman & Diu","state_code":"DN","state_type":"UT","state_lgd_code":"26","district_lgd_code":"470","district_name":"Daman","subdistrict_lgd_code":"4501","subdistrict_name":"Daman Sub-District","subdistrict_type":"Tehsil / Taluk","village_lgd_code":"510101","village_name":"Nani Daman","khasra_plot_no":"Survey 89/1-B/D4","recorded_area":"4.5","recorded_area_unit":"Hectare-Are","normalized_area_sqm":"450.0","gis_area_sqm":"450.0","land_use_category":"RESIDENTIAL","land_use_raw":"Industrial Estate Plot","status":"AMALGAMATED","data_freshness_status":"CURRENT","scenario_index":"19485","use_case_description":"Lease charge and institutional tenancy","mutation_workflow_status":"APPROVED","revenue_record_id":"ROR-DN-2025-1031-0004","revenue_record_type":"Form I & XIV Land Record","khata_khewat_no":"KHT-81","khatauni_no":"KHN-181","owner_name":"Coastal Petro-Chem Pvt Ltd","owner_name_local":"કોસ્ટલ પેટ્રો-કેમ પ્રાઇવેટ લિમિટેડ","co_owners":"","tenure_type":"Government Grant","mutation_status":"REJECTED","active_mutation_id":"MUT-DN-00000004","tax_demand_status":"PAID","annual_tax_inr":"185.5","deed_number":"DEED-DN-2024-431-0004","deed_type":"Sale Deed / Conveyance","sro_office":"Sub-Registrar Office, Daman Sub-District","execution_date":"2024-05-10","registered_owner":"Coastal Petro-Chem Pvt Ltd","seller_name":"Previous Landholder","consideration_amount_inr":"3500000.0","stamp_duty_inr":"210000.0","survey_sketch_id":"FMB-DN-31-0004","cadastral_sheet_no":"SHT-DN-31","surveyed_area_sqm":"450.0","survey_status":"PENDING","urban_authority":"Daman Sub-District Urban Development & Town Planning Authority","zone_name":"Agricultural / Green Buffer","permitted_land_use":"RESIDENTIAL","building_permission_status":"PENDING","violations_reported":"False","is_encumbered":"True","encumbrance_certificate_number":"EC-DN-00000004-0004","encumbrance_type":"TRIBAL_NON_ALIENATION","financial_institution":"","mortgage_amount":"0.0","created_at":"2026-01-15T09:00:00Z","updated_at":"2026-09-24T11:30:00Z"}},{"type":"Feature","geometry":{"type":"Polygon","coordinates":[[[72.69944547225889,20.084143101133662],[72.74563843774791,20.084143101133662],[72.74345727029898,20.14052728365828],[72.69944547225889,20.13037504221546],[72.69944547225889,20.084143101133662]]]},"properties":{"ulpin":"26571172246865","parcel_id":"66d545f0-fb34-4e72-ac67-cc169d8f82fc","state":"Dadra & Nagar Haveli and Daman & Diu","state_code":"DN","state_type":"UT","state_lgd_code":"26","district_lgd_code":"470","district_name":"Daman","subdistrict_lgd_code":"4501","subdistrict_name":"Daman Sub-District","subdistrict_type":"Tehsil / Taluk","village_lgd_code":"510101","village_name":"Nani Daman","khasra_plot_no":"Survey 89/1-B/D5","recorded_area":"4.5","recorded_area_unit":"Hectare-Are","normalized_area_sqm":"450.0","gis_area_sqm":"450.0","land_use_category":"COMMERCIAL","land_use_raw":"Industrial Estate Plot","status":"DISPUTED","data_freshness_status":"STALE","scenario_index":"19486","use_case_description":"Subdivision or amalgamation history review","mutation_workflow_status":"REJECTED","revenue_record_id":"ROR-DN-2025-1031-0005","revenue_record_type":"Form I & XIV Land Record","khata_khewat_no":"KHT-81","khatauni_no":"KHN-181","owner_name":"Coastal Petro-Chem Pvt Ltd","owner_name_local":"કોસ્ટલ પેટ્રો-કેમ પ્રાઇવેટ લિમિટેડ","co_owners":"","tenure_type":"Waqf / Religious Trust","mutation_status":"DISPUTED","active_mutation_id":"MUT-DN-00000005","tax_demand_status":"PAID","annual_tax_inr":"185.5","deed_number":"DEED-DN-2024-431-0005","deed_type":"Sale Deed / Conveyance","sro_office":"Sub-Registrar Office, Daman Sub-District","execution_date":"2024-05-10","registered_owner":"Coastal Petro-Chem Pvt Ltd","seller_name":"Previous Landholder","consideration_amount_inr":"3500000.0","stamp_duty_inr":"210000.0","survey_sketch_id":"FMB-DN-31-0005","cadastral_sheet_no":"SHT-DN-31","surveyed_area_sqm":"450.0","survey_status":"DISPUTED","urban_authority":"Daman Sub-District Urban Development & Town Planning Authority","zone_name":"Agricultural / Green Buffer","permitted_land_use":"COMMERCIAL","building_permission_status":"REJECTED","violations_reported":"False","is_encumbered":"True","encumbrance_certificate_number":"EC-DN-00000005-0005","encumbrance_type":"LEASE_CHARGE","financial_institution":"","mortgage_amount":"0.0","created_at":"2026-01-15T09:00:00Z","updated_at":"2026-09-24T11:30:00Z"}},{"type":"Feature","geometry":{"type":"Polygon","coordinates":[[[72.78709380144754,20.23760218553894],[72.84952759933009,20.23760218553894],[72.84952759933009,20.287555206717755],[72.77925511482523,20.281610952801003],[72.78709380144754,20.23760218553894]]]},"properties":{"ulpin":"26455787551580","parcel_id":"efd0a4ff-6552-4fcd-be24-8eb565cf7aa9","state":"Dadra & Nagar Haveli and Daman & Diu","state_code":"DN","state_type":"UT","state_lgd_code":"26","district_lgd_code":"470","district_name":"Daman","subdistrict_lgd_code":"4501","subdistrict_name":"Daman Sub-District","subdistrict_type":"Tehsil / Taluk","village_lgd_code":"510101","village_name":"Nani Daman","khasra_plot_no":"Survey 89/1-B/D6","recorded_area":"4.5","recorded_area_unit":"Hectare-Are","normalized_area_sqm":"450.0","gis_area_sqm":"450.0","land_use_category":"INDUSTRIAL","land_use_raw":"Industrial Estate Plot","status":"ARCHIVED","data_freshness_status":"UNKNOWN","scenario_index":"19487","use_case_description":"Pending sale mutation within statutory SLA","mutation_workflow_status":"SLA_BREACHED","revenue_record_id":"ROR-DN-2025-1031-0006","revenue_record_type":"Form I & XIV Land Record","khata_khewat_no":"KHT-81","khatauni_no":"KHN-181","owner_name":"Coastal Petro-Chem Pvt Ltd","owner_name_local":"કોસ્ટલ પેટ્રો-કેમ પ્રાઇવેટ લિમિટેડ","co_owners":"","tenure_type":"Tribal Community Tenure","mutation_status":"NONE","active_mutation_id":"MUT-DN-00000006","tax_demand_status":"PAID","annual_tax_inr":"185.5","deed_number":"DEED-DN-2024-431-0006","deed_type":"Sale Deed / Conveyance","sro_office":"Sub-Registrar Office, Daman Sub-District","execution_date":"2024-05-10","registered_owner":"Coastal Petro-Chem Pvt Ltd","seller_name":"Previous Landholder","consideration_amount_inr":"3500000.0","stamp_duty_inr":"210000.0","survey_sketch_id":"FMB-DN-31-0006","cadastral_sheet_no":"SHT-DN-31","surveyed_area_sqm":"450.0","survey_status":"RESURVEY_REQUIRED","urban_authority":"Daman Sub-District Urban Development & Town Planning Authority","zone_name":"Agricultural / Green Buffer","permitted_land_use":"INDUSTRIAL","building_permission_status":"NOT_APPLICABLE","violations_reported":"False","is_encumbered":"False","encumbrance_certificate_number":"EC-DN-2024-131-0006","encumbrance_type":"NIL","financial_institution":"","mortgage_amount":"0.0","created_at":"2026-01-15T09:00:00Z","updated_at":"2026-09-24T11:30:00Z"}},{"type":"Feature","geometry":{"type":"Polygon","coordinates":[[[72.71906257654456,20.278347732697927],[72.77925511482523,20.281610952801003],[72.78043599235319,20.324543964384944],[72.71906257654456,20.324543964384944],[72.71906257654456,20.278347732697927]]]},"properties":{"ulpin":"26486725748750","parcel_id":"8fbb964c-bfca-413c-b5cc-d89ca83a67f7","state":"Dadra & Nagar Haveli and Daman & Diu","state_code":"DN","state_type":"UT","state_lgd_code":"26","district_lgd_code":"470","district_name":"Daman","subdistrict_lgd_code":"4501","subdistrict_name":"Daman Sub-District","subdistrict_type":"Tehsil / Taluk","village_lgd_code":"510101","village_name":"Nani Daman","khasra_plot_no":"Survey 89/1-B/D7","recorded_area":"4.5","recorded_area_unit":"Hectare-Are","normalized_area_sqm":"450.0","gis_area_sqm":"450.0","land_use_category":"AGRICULTURAL","land_use_raw":"Industrial Estate Plot","status":"ACTIVE","data_freshness_status":"CURRENT","scenario_index":"19488","use_case_description":"Bank mortgage and active encumbrance","mutation_workflow_status":"SUBMITTED","revenue_record_id":"ROR-DN-2025-1031-0007","revenue_record_type":"Form I & XIV Land Record","khata_khewat_no":"KHT-81","khatauni_no":"KHN-181","owner_name":"Coastal Petro-Chem Pvt Ltd","owner_name_local":"કોસ્ટલ પેટ્રો-કેમ પ્રાઇવેટ લિમિટેડ","co_owners":"","tenure_type":"Bhumiswami / Raiyati with Transferable Rights","mutation_status":"MUTATED","active_mutation_id":"","tax_demand_status":"PAID","annual_tax_inr":"185.5","deed_number":"DEED-DN-2024-431-0007","deed_type":"Sale Deed / Conveyance","sro_office":"Sub-Registrar Office, Daman Sub-District","execution_date":"2024-05-10","registered_owner":"Coastal Petro-Chem Pvt Ltd","seller_name":"Previous Landholder","consideration_amount_inr":"3500000.0","stamp_duty_inr":"210000.0","survey_sketch_id":"FMB-DN-31-0007","cadastral_sheet_no":"SHT-DN-31","surveyed_area_sqm":"450.0","survey_status":"SURVEYED","urban_authority":"Daman Sub-District Urban Development & Town Planning Authority","zone_name":"Agricultural / Green Buffer","permitted_land_use":"AGRICULTURAL","building_permission_status":"SANCTIONED","violations_reported":"True","is_encumbered":"True","encumbrance_certificate_number":"EC-DN-00000007-0007","encumbrance_type":"BANK_MORTGAGE","financial_institution":"","mortgage_amount":"0.0","created_at":"2026-01-15T09:00:00Z","updated_at":"2026-09-24T11:30:00Z"}},{"type":"Feature","geometry":{"type":"Polygon","coordinates":[[[72.69944547225889,20.13037504221546],[72.74345727029898,20.14052728365828],[72.74114031606827,20.18795301377674],[72.69944547225889,20.18795301377674],[72.69944547225889,20.13037504221546]]]},"properties":{"ulpin":"26815480521073","parcel_id":"cde61851-7907-4a84-93da-052df553bae0","state":"Dadra & Nagar Haveli and Daman & Diu","state_code":"DN","state_type":"UT","state_lgd_code":"26","district_lgd_code":"470","district_name":"Daman","subdistrict_lgd_code":"4501","subdistrict_name":"Daman Sub-District","subdistrict_type":"Tehsil / Taluk","village_lgd_code":"510101","village_name":"Nani Daman","khasra_plot_no":"Survey 89/1-B/D8","recorded_area":"4.5","recorded_area_unit":"Hectare-Are","normalized_area_sqm":"450.0","gis_area_sqm":"450.0","land_use_category":"INSTITUTIONAL","land_use_raw":"Industrial Estate Plot","status":"PENDING_MUTATION","data_freshness_status":"STALE","scenario_index":"19489","use_case_description":"Government revenue lien and tax demand","mutation_workflow_status":"UNDER_VERIFICATION","revenue_record_id":"ROR-DN-2025-1031-0008","revenue_record_type":"Form I & XIV Land Record","khata_khewat_no":"KHT-81","khatauni_no":"KHN-181","owner_name":"Coastal Petro-Chem Pvt Ltd","owner_name_local":"કોસ્ટલ પેટ્રો-કેમ પ્રાઇવેટ લિમિટેડ","co_owners":"","tenure_type":"Bhumiswami / Freehold","mutation_status":"PENDING","active_mutation_id":"MUT-DN-00000008","tax_demand_status":"PAID","annual_tax_inr":"185.5","deed_number":"DEED-DN-2024-431-0008","deed_type":"Sale Deed / Conveyance","sro_office":"Sub-Registrar Office, Daman Sub-District","execution_date":"2024-05-10","registered_owner":"Registry Variance Owner 8","seller_name":"Previous Landholder","consideration_amount_inr":"3500000.0","stamp_duty_inr":"210000.0","survey_sketch_id":"FMB-DN-31-0008","cadastral_sheet_no":"SHT-DN-31","surveyed_area_sqm":"450.0","survey_status":"PENDING","urban_authority":"Daman Sub-District Urban Development & Town Planning Authority","zone_name":"Agricultural / Green Buffer","permitted_land_use":"INSTITUTIONAL","building_permission_status":"PENDING","violations_reported":"False","is_encumbered":"True","encumbrance_certificate_number":"EC-DN-00000008-0008","encumbrance_type":"GOVT_REVENUE_LIEN","financial_institution":"","mortgage_amount":"0.0","created_at":"2026-01-15T09:00:00Z","updated_at":"2026-09-24T11:30:00Z"}},{"type":"Feature","geometry":{"type":"Polygon","coordinates":[[[72.74563843774791,20.084143101133662],[72.79126548608855,20.084143101133662],[72.78525281957936,20.13528774075945],[72.74345727029898,20.14052728365828],[72.74563843774791,20.084143101133662]]]},"properties":{"ulpin":"26230164009941","parcel_id":"c3c08669-d531-4aeb-8536-e3f1c1c51a56","state":"Dadra & Nagar Haveli and Daman & Diu","state_code":"DN","state_type":"UT","state_lgd_code":"26","district_lgd_code":"470","district_name":"Daman","subdistrict_lgd_code":"4501","subdistrict_name":"Daman Sub-District","subdistrict_type":"Tehsil / Taluk","village_lgd_code":"510101","village_name":"Nani Daman","khasra_plot_no":"Survey 89/1-B/D9","recorded_area":"4.5","recorded_area_unit":"Hectare-Are","normalized_area_sqm":"450.0","gis_area_sqm":"450.0","land_use_category":"FOREST_GREEN_BELT","land_use_raw":"Industrial Estate Plot","status":"SUBDIVIDED","data_freshness_status":"UNKNOWN","scenario_index":"19490","use_case_description":"Court attachment and disputed possession","mutation_workflow_status":"NOTICE_PERIOD","revenue_record_id":"ROR-DN-2025-1031-0009","revenue_record_type":"Form I & XIV Land Record","khata_khewat_no":"KHT-81","khatauni_no":"KHN-181","owner_name":"Coastal Petro-Chem Pvt Ltd","owner_name_local":"કોસ્ટલ પેટ્રો-કેમ પ્રાઇવેટ લિમિટેડ","co_owners":"","tenure_type":"Leasehold","mutation_status":"UNMUTATED_TRANSACTION","active_mutation_id":"MUT-DN-00000009","tax_demand_status":"PAID","annual_tax_inr":"185.5","deed_number":"DEED-DN-2024-431-0009","deed_type":"Sale Deed / Conveyance","sro_office":"Sub-Registrar Office, Daman Sub-District","execution_date":"2024-05-10","registered_owner":"Coastal Petro-Chem Pvt Ltd","seller_name":"Previous Landholder","consideration_amount_inr":"3500000.0","stamp_duty_inr":"210000.0","survey_sketch_id":"FMB-DN-31-0009","cadastral_sheet_no":"SHT-DN-31","surveyed_area_sqm":"450.0","survey_status":"DISPUTED","urban_authority":"Daman Sub-District Urban Development & Town Planning Authority","zone_name":"Agricultural / Green Buffer","permitted_land_use":"FOREST_GREEN_BELT","building_permission_status":"REJECTED","violations_reported":"False","is_encumbered":"True","encumbrance_certificate_number":"EC-DN-00000009-0009","encumbrance_type":"COURT_ATTACHMENT","financial_institution":"","mortgage_amount":"0.0","created_at":"2026-01-15T09:00:00Z","updated_at":"2026-09-24T11:30:00Z"}},{"type":"Feature","geometry":{"type":"Polygon","coordinates":[[[72.77925511482523,20.281610952801003],[72.84952759933009,20.287555206717755],[72.84952759933009,20.324543964384944],[72.78043599235319,20.324543964384944],[72.77925511482523,20.281610952801003]]]},"properties":{"ulpin":"26408857355044","parcel_id":"e9d741dd-13dd-499e-9643-8bd1125cebc5","state":"Dadra & Nagar Haveli and Daman & Diu","state_code":"DN","state_type":"UT","state_lgd_code":"26","district_lgd_code":"470","district_name":"Daman","subdistrict_lgd_code":"4501","subdistrict_name":"Daman Sub-District","subdistrict_type":"Tehsil / Taluk","village_lgd_code":"510101","village_name":"Nani Daman","khasra_plot_no":"Survey 89/1-B/D10","recorded_area":"4.5","recorded_area_unit":"Hectare-Are","normalized_area_sqm":"450.0","gis_area_sqm":"450.0","land_use_category":"WATER_BODY","land_use_raw":"Industrial Estate Plot","status":"AMALGAMATED","data_freshness_status":"CURRENT","scenario_index":"19491","use_case_description":"Tribal non-alienation protection review","mutation_workflow_status":"HEARING_SCHEDULED","revenue_record_id":"ROR-DN-2025-1031-0010","revenue_record_type":"Form I & XIV Land Record","khata_khewat_no":"KHT-81","khatauni_no":"KHN-181","owner_name":"Coastal Petro-Chem Pvt Ltd","owner_name_local":"કોસ્ટલ પેટ્રો-કેમ પ્રાઇવેટ લિમિટેડ","co_owners":"","tenure_type":"Government Grant","mutation_status":"REJECTED","active_mutation_id":"MUT-DN-00000010","tax_demand_status":"PAID","annual_tax_inr":"185.5","deed_number":"DEED-DN-2024-431-0010","deed_type":"Sale Deed / Conveyance","sro_office":"Sub-Registrar Office, Daman Sub-District","execution_date":"2024-05-10","registered_owner":"Coastal Petro-Chem Pvt Ltd","seller_name":"Previous Landholder","consideration_amount_inr":"3500000.0","stamp_duty_inr":"210000.0","survey_sketch_id":"FMB-DN-31-0010","cadastral_sheet_no":"SHT-DN-31","surveyed_area_sqm":"450.0","survey_status":"RESURVEY_REQUIRED","urban_authority":"Daman Sub-District Urban Development & Town Planning Authority","zone_name":"Agricultural / Green Buffer","permitted_land_use":"WATER_BODY","building_permission_status":"NOT_APPLICABLE","violations_reported":"False","is_encumbered":"True","encumbrance_certificate_number":"EC-DN-00000010-0010","encumbrance_type":"TRIBAL_NON_ALIENATION","financial_institution":"","mortgage_amount":"0.0","created_at":"2026-01-15T09:00:00Z","updated_at":"2026-09-24T11:30:00Z"}},{"type":"Feature","geometry":{"type":"Polygon","coordinates":[[[72.459910039277,20.264246355090393],[72.59567842661984,20.264246355090393],[72.59567842661984,20.35278763497047],[72.459910039277,20.35278763497047],[72.459910039277,20.264246355090393]]]},"properties":{"ulpin":"26181304381614","parcel_id":"a789da81-44d1-4105-b4df-dd31275fba72","state":"Dadra & Nagar Haveli and Daman & Diu","state_code":"DN","state_type":"UT","state_lgd_code":"26","district_lgd_code":"470","district_name":"Daman","subdistrict_lgd_code":"4501","subdistrict_name":"Daman Sub-District","subdistrict_type":"Tehsil / Taluk","village_lgd_code":"510101","village_name":"Nani Daman","khasra_plot_no":"Survey 89/1-B/D11","recorded_area":"4.5","recorded_area_unit":"Hectare-Are","normalized_area_sqm":"450.0","gis_area_sqm":"450.0","land_use_category":"MIXED_USE","land_use_raw":"Industrial Estate Plot","status":"DISPUTED","data_freshness_status":"STALE","scenario_index":"19492","use_case_description":"Lease charge and institutional tenancy","mutation_workflow_status":"APPROVED","revenue_record_id":"ROR-DN-2025-1031-0011","revenue_record_type":"Form I & XIV Land Record","khata_khewat_no":"KHT-81","khatauni_no":"KHN-181","owner_name":"Coastal Petro-Chem Pvt Ltd","owner_name_local":"કોસ્ટલ પેટ્રો-કેમ પ્રાઇવેટ લિમિટેડ","co_owners":"","tenure_type":"Waqf / Religious Trust","mutation_status":"DISPUTED","active_mutation_id":"MUT-DN-00000011","tax_demand_status":"PAID","annual_tax_inr":"185.5","deed_number":"DEED-DN-2024-431-0011","deed_type":"Sale Deed / Conveyance","sro_office":"Sub-Registrar Office, Daman Sub-District","execution_date":"2024-05-10","registered_owner":"Coastal Petro-Chem Pvt Ltd","seller_name":"Previous Landholder","consideration_amount_inr":"3500000.0","stamp_duty_inr":"210000.0","survey_sketch_id":"FMB-DN-31-0011","cadastral_sheet_no":"SHT-DN-31","surveyed_area_sqm":"450.0","survey_status":"SURVEYED","urban_authority":"Daman Sub-District Urban Development & Town Planning Authority","zone_name":"Agricultural / Green Buffer","permitted_land_use":"MIXED_USE","building_permission_status":"SANCTIONED","violations_reported":"False","is_encumbered":"True","encumbrance_certificate_number":"EC-DN-00000011-0011","encumbrance_type":"LEASE_CHARGE","financial_institution":"","mortgage_amount":"0.0","created_at":"2026-01-15T09:00:00Z","updated_at":"2026-09-24T11:30:00Z"}}]}