{"type":"FeatureCollection","features":[{"type":"Feature","geometry":{"type":"Polygon","coordinates":[[[74.04559750618606,15.449412586625328],[74.1171298516561,15.449435979637045],[74.11757245719816,15.513635119823304],[74.04671578640495,15.508430220218317],[74.04559750618606,15.449412586625328]]]},"properties":{"ulpin":"30407657018349","parcel_id":"91de5a76-08fa-4216-9352-d030906ccf43","state":"Goa","state_code":"GA","state_type":"STATE","state_lgd_code":"30","district_lgd_code":"550","district_name":"North Goa","subdistrict_lgd_code":"5201","subdistrict_name":"Bardez Taluka","subdistrict_type":"Tehsil / Taluk","village_lgd_code":"612040","village_name":"Calangute","khasra_plot_no":"Sy. 182/4-A/D1","recorded_area":"850.0","recorded_area_unit":"Square Meter","normalized_area_sqm":"850.0","gis_area_sqm":"850.0","land_use_category":"AGRICULTURAL","land_use_raw":"Orchard / Coconut Grove","status":"AMALGAMATED","data_freshness_status":"CURRENT","scenario_index":"3495","use_case_description":"Court attachment and disputed possession","mutation_workflow_status":"NOTICE_PERIOD","revenue_record_id":"ROR-GA-2025-1006-0001","revenue_record_type":"Form I & XIV (DSLR Goa)","khata_khewat_no":"KHT-56","khatauni_no":"KHN-156","owner_name":"Antonio Fernandes & Maria Fernandes","owner_name_local":"अँटोनियो फर्नांडिस","co_owners":"","tenure_type":"Government Grant","mutation_status":"REJECTED","active_mutation_id":"MUT-GA-00000001","tax_demand_status":"PAID","annual_tax_inr":"185.5","deed_number":"DEED-GA-2024-406-0001","deed_type":"Sale Deed / Conveyance","sro_office":"Sub-Registrar Office, Bardez Taluka","execution_date":"2024-05-10","registered_owner":"Antonio Fernandes & Maria Fernandes","seller_name":"Previous Landholder","consideration_amount_inr":"3500000.0","stamp_duty_inr":"210000.0","survey_sketch_id":"FMB-GA-06-0001","cadastral_sheet_no":"SHT-GA-06","surveyed_area_sqm":"850.0","survey_status":"RESURVEY_REQUIRED","urban_authority":"Bardez Taluka Urban Development & Town Planning Authority","zone_name":"Agricultural / Green Buffer","permitted_land_use":"AGRICULTURAL","building_permission_status":"NOT_APPLICABLE","violations_reported":"False","is_encumbered":"True","encumbrance_certificate_number":"EC-GA-00000001-0001","encumbrance_type":"TRIBAL_NON_ALIENATION","financial_institution":"","mortgage_amount":"0.0","created_at":"2026-01-15T09:00:00Z","updated_at":"2026-09-24T11:30:00Z"}},{"type":"Feature","geometry":{"type":"Polygon","coordinates":[[[74.2939149017942,15.145351360370519],[74.4014416842924,15.16751400905817],[74.39953184269433,15.269215677016213],[74.2939149017942,15.269215677016213],[74.2939149017942,15.145351360370519]]]},"properties":{"ulpin":"30451560803387","parcel_id":"916ab362-8982-4e82-bcb1-55379ca1caa9","state":"Goa","state_code":"GA","state_type":"STATE","state_lgd_code":"30","district_lgd_code":"550","district_name":"North Goa","subdistrict_lgd_code":"5201","subdistrict_name":"Bardez Taluka","subdistrict_type":"Tehsil / Taluk","village_lgd_code":"612040","village_name":"Calangute","khasra_plot_no":"Sy. 182/4-A/D2","recorded_area":"850.0","recorded_area_unit":"Square Meter","normalized_area_sqm":"850.0","gis_area_sqm":"850.0","land_use_category":"INSTITUTIONAL","land_use_raw":"Orchard / Coconut Grove","status":"DISPUTED","data_freshness_status":"STALE","scenario_index":"3496","use_case_description":"Tribal non-alienation protection review","mutation_workflow_status":"HEARING_SCHEDULED","revenue_record_id":"ROR-GA-2025-1006-0002","revenue_record_type":"Form I & XIV (DSLR Goa)","khata_khewat_no":"KHT-56","khatauni_no":"KHN-156","owner_name":"Antonio Fernandes & Maria Fernandes","owner_name_local":"अँटोनियो फर्नांडिस","co_owners":"","tenure_type":"Waqf / Religious Trust","mutation_status":"DISPUTED","active_mutation_id":"MUT-GA-00000002","tax_demand_status":"PAID","annual_tax_inr":"185.5","deed_number":"DEED-GA-2024-406-0002","deed_type":"Sale Deed / Conveyance","sro_office":"Sub-Registrar Office, Bardez Taluka","execution_date":"2024-05-10","registered_owner":"Antonio Fernandes & Maria Fernandes","seller_name":"Previous Landholder","consideration_amount_inr":"3500000.0","stamp_duty_inr":"210000.0","survey_sketch_id":"FMB-GA-06-0002","cadastral_sheet_no":"SHT-GA-06","surveyed_area_sqm":"850.0","survey_status":"SURVEYED","urban_authority":"Bardez Taluka Urban Development & Town Planning Authority","zone_name":"Agricultural / Green Buffer","permitted_land_use":"INSTITUTIONAL","building_permission_status":"SANCTIONED","violations_reported":"False","is_encumbered":"True","encumbrance_certificate_number":"EC-GA-00000002-0002","encumbrance_type":"LEASE_CHARGE","financial_institution":"","mortgage_amount":"0.0","created_at":"2026-01-15T09:00:00Z","updated_at":"2026-09-24T11:30:00Z"}},{"type":"Feature","geometry":{"type":"Polygon","coordinates":[[[74.39424158309603,15.481763145120151],[74.51270736181775,15.4590990923572],[74.51270736181775,15.562657169211782],[74.41229879285603,15.562657169211782],[74.39424158309603,15.481763145120151]]]},"properties":{"ulpin":"30224009660964","parcel_id":"1eafa0a4-2a68-4bc4-88e5-1bd7be94bb8d","state":"Goa","state_code":"GA","state_type":"STATE","state_lgd_code":"30","district_lgd_code":"550","district_name":"North Goa","subdistrict_lgd_code":"5201","subdistrict_name":"Bardez Taluka","subdistrict_type":"Tehsil / Taluk","village_lgd_code":"612040","village_name":"Calangute","khasra_plot_no":"Sy. 182/4-A/D3","recorded_area":"850.0","recorded_area_unit":"Square Meter","normalized_area_sqm":"850.0","gis_area_sqm":"850.0","land_use_category":"FOREST_GREEN_BELT","land_use_raw":"Orchard / Coconut Grove","status":"ARCHIVED","data_freshness_status":"UNKNOWN","scenario_index":"3497","use_case_description":"Pending sale mutation within statutory SLA","mutation_workflow_status":"APPROVED","revenue_record_id":"ROR-GA-2025-1006-0003","revenue_record_type":"Form I & XIV (DSLR Goa)","khata_khewat_no":"KHT-56","khatauni_no":"KHN-156","owner_name":"Antonio Fernandes & Maria Fernandes","owner_name_local":"अँटोनियो फर्नांडिस","co_owners":"","tenure_type":"Tribal Community Tenure","mutation_status":"NONE","active_mutation_id":"MUT-GA-00000003","tax_demand_status":"PAID","annual_tax_inr":"185.5","deed_number":"DEED-GA-2024-406-0003","deed_type":"Sale Deed / Conveyance","sro_office":"Sub-Registrar Office, Bardez Taluka","execution_date":"2024-05-10","registered_owner":"Antonio Fernandes & Maria Fernandes","seller_name":"Previous Landholder","consideration_amount_inr":"3500000.0","stamp_duty_inr":"210000.0","survey_sketch_id":"FMB-GA-06-0003","cadastral_sheet_no":"SHT-GA-06","surveyed_area_sqm":"850.0","survey_status":"PENDING","urban_authority":"Bardez Taluka Urban Development & Town Planning Authority","zone_name":"Agricultural / Green Buffer","permitted_land_use":"FOREST_GREEN_BELT","building_permission_status":"PENDING","violations_reported":"False","is_encumbered":"False","encumbrance_certificate_number":"EC-GA-2024-106-0003","encumbrance_type":"NIL","financial_institution":"","mortgage_amount":"0.0","created_at":"2026-01-15T09:00:00Z","updated_at":"2026-09-24T11:30:00Z"}},{"type":"Feature","geometry":{"type":"Polygon","coordinates":[[[74.2939149017942,15.047106079086205],[74.38097414143996,15.047106079086205],[74.4014416842924,15.16751400905817],[74.2939149017942,15.145351360370519],[74.2939149017942,15.047106079086205]]]},"properties":{"ulpin":"30364079780974","parcel_id":"dedbee20-d363-4f04-b3d5-6a8749c5a3f7","state":"Goa","state_code":"GA","state_type":"STATE","state_lgd_code":"30","district_lgd_code":"550","district_name":"North Goa","subdistrict_lgd_code":"5201","subdistrict_name":"Bardez Taluka","subdistrict_type":"Tehsil / Taluk","village_lgd_code":"612040","village_name":"Calangute","khasra_plot_no":"Sy. 182/4-A/D4","recorded_area":"850.0","recorded_area_unit":"Square Meter","normalized_area_sqm":"850.0","gis_area_sqm":"850.0","land_use_category":"WATER_BODY","land_use_raw":"Orchard / Coconut Grove","status":"ACTIVE","data_freshness_status":"CURRENT","scenario_index":"3498","use_case_description":"Subdivision or amalgamation history review","mutation_workflow_status":"REJECTED","revenue_record_id":"ROR-GA-2025-1006-0004","revenue_record_type":"Form I & XIV (DSLR Goa)","khata_khewat_no":"KHT-56","khatauni_no":"KHN-156","owner_name":"Antonio Fernandes & Maria Fernandes","owner_name_local":"अँटोनियो फर्नांडिस","co_owners":"","tenure_type":"Bhumiswami / Raiyati with Transferable Rights","mutation_status":"MUTATED","active_mutation_id":"","tax_demand_status":"PAID","annual_tax_inr":"185.5","deed_number":"DEED-GA-2024-406-0004","deed_type":"Sale Deed / Conveyance","sro_office":"Sub-Registrar Office, Bardez Taluka","execution_date":"2024-05-10","registered_owner":"Antonio Fernandes & Maria Fernandes","seller_name":"Previous Landholder","consideration_amount_inr":"3500000.0","stamp_duty_inr":"210000.0","survey_sketch_id":"FMB-GA-06-0004","cadastral_sheet_no":"SHT-GA-06","surveyed_area_sqm":"850.0","survey_status":"DISPUTED","urban_authority":"Bardez Taluka Urban Development & Town Planning Authority","zone_name":"Agricultural / Green Buffer","permitted_land_use":"WATER_BODY","building_permission_status":"REJECTED","violations_reported":"False","is_encumbered":"True","encumbrance_certificate_number":"EC-GA-00000004-0004","encumbrance_type":"BANK_MORTGAGE","financial_institution":"","mortgage_amount":"0.0","created_at":"2026-01-15T09:00:00Z","updated_at":"2026-09-24T11:30:00Z"}},{"type":"Feature","geometry":{"type":"Polygon","coordinates":[[[74.04459816889133,15.386974560436096],[74.1211638847596,15.386974560436096],[74.1171298516561,15.449435979637045],[74.04559750618606,15.449412586625328],[74.04459816889133,15.386974560436096]]]},"properties":{"ulpin":"30105723226571","parcel_id":"f866d1be-f4de-4e9b-84cc-d2045f69fd27","state":"Goa","state_code":"GA","state_type":"STATE","state_lgd_code":"30","district_lgd_code":"550","district_name":"North Goa","subdistrict_lgd_code":"5201","subdistrict_name":"Bardez Taluka","subdistrict_type":"Tehsil / Taluk","village_lgd_code":"612040","village_name":"Calangute","khasra_plot_no":"Sy. 182/4-A/D5","recorded_area":"850.0","recorded_area_unit":"Square Meter","normalized_area_sqm":"850.0","gis_area_sqm":"850.0","land_use_category":"MIXED_USE","land_use_raw":"Orchard / Coconut Grove","status":"PENDING_MUTATION","data_freshness_status":"STALE","scenario_index":"3499","use_case_description":"Archived historical record for audit retrieval","mutation_workflow_status":"SLA_BREACHED","revenue_record_id":"ROR-GA-2025-1006-0005","revenue_record_type":"Form I & XIV (DSLR Goa)","khata_khewat_no":"KHT-56","khatauni_no":"KHN-156","owner_name":"Antonio Fernandes & Maria Fernandes","owner_name_local":"अँटोनियो फर्नांडिस","co_owners":"","tenure_type":"Bhumiswami / Freehold","mutation_status":"PENDING","active_mutation_id":"MUT-GA-00000005","tax_demand_status":"PAID","annual_tax_inr":"185.5","deed_number":"DEED-GA-2024-406-0005","deed_type":"Sale Deed / Conveyance","sro_office":"Sub-Registrar Office, Bardez Taluka","execution_date":"2024-05-10","registered_owner":"Registry Variance Owner 5","seller_name":"Previous Landholder","consideration_amount_inr":"3500000.0","stamp_duty_inr":"210000.0","survey_sketch_id":"FMB-GA-06-0005","cadastral_sheet_no":"SHT-GA-06","surveyed_area_sqm":"850.0","survey_status":"RESURVEY_REQUIRED","urban_authority":"Bardez Taluka Urban Development & Town Planning Authority","zone_name":"Agricultural / Green Buffer","permitted_land_use":"MIXED_USE","building_permission_status":"NOT_APPLICABLE","violations_reported":"False","is_encumbered":"True","encumbrance_certificate_number":"EC-GA-00000005-0005","encumbrance_type":"GOVT_REVENUE_LIEN","financial_institution":"","mortgage_amount":"0.0","created_at":"2026-01-15T09:00:00Z","updated_at":"2026-09-24T11:30:00Z"}},{"type":"Feature","geometry":{"type":"Polygon","coordinates":[[[74.1171298516561,15.449435979637045],[74.19362277486825,15.438604339618466],[74.19362277486825,15.500492324250065],[74.11757245719816,15.513635119823304],[74.1171298516561,15.449435979637045]]]},"properties":{"ulpin":"30924567919688","parcel_id":"1cff97aa-f93e-499a-8e51-bb79167ec855","state":"Goa","state_code":"GA","state_type":"STATE","state_lgd_code":"30","district_lgd_code":"550","district_name":"North Goa","subdistrict_lgd_code":"5201","subdistrict_name":"Bardez Taluka","subdistrict_type":"Tehsil / Taluk","village_lgd_code":"612040","village_name":"Calangute","khasra_plot_no":"Sy. 182/4-A/D6","recorded_area":"850.0","recorded_area_unit":"Square Meter","normalized_area_sqm":"850.0","gis_area_sqm":"850.0","land_use_category":"OTHER","land_use_raw":"Orchard / Coconut Grove","status":"SUBDIVIDED","data_freshness_status":"UNKNOWN","scenario_index":"3500","use_case_description":"Bank mortgage and active encumbrance","mutation_workflow_status":"SUBMITTED","revenue_record_id":"ROR-GA-2025-1006-0006","revenue_record_type":"Form I & XIV (DSLR Goa)","khata_khewat_no":"KHT-56","khatauni_no":"KHN-156","owner_name":"Antonio Fernandes & Maria Fernandes","owner_name_local":"अँटोनियो फर्नांडिस","co_owners":"","tenure_type":"Leasehold","mutation_status":"UNMUTATED_TRANSACTION","active_mutation_id":"MUT-GA-00000006","tax_demand_status":"PAID","annual_tax_inr":"185.5","deed_number":"DEED-GA-2024-406-0006","deed_type":"Sale Deed / Conveyance","sro_office":"Sub-Registrar Office, Bardez Taluka","execution_date":"2024-05-10","registered_owner":"Antonio Fernandes & Maria Fernandes","seller_name":"Previous Landholder","consideration_amount_inr":"3500000.0","stamp_duty_inr":"210000.0","survey_sketch_id":"FMB-GA-06-0006","cadastral_sheet_no":"SHT-GA-06","surveyed_area_sqm":"850.0","survey_status":"SURVEYED","urban_authority":"Bardez Taluka Urban Development & Town Planning Authority","zone_name":"Agricultural / Green Buffer","permitted_land_use":"OTHER","building_permission_status":"SANCTIONED","violations_reported":"True","is_encumbered":"True","encumbrance_certificate_number":"EC-GA-00000006-0006","encumbrance_type":"COURT_ATTACHMENT","financial_institution":"","mortgage_amount":"0.0","created_at":"2026-01-15T09:00:00Z","updated_at":"2026-09-24T11:30:00Z"}},{"type":"Feature","geometry":{"type":"Polygon","coordinates":[[[74.12109917271371,15.251009814933917],[74.17851856216647,15.256030676381114],[74.17851856216647,15.310633741479501],[74.10900181891559,15.310633741479501],[74.12109917271371,15.251009814933917]]]},"properties":{"ulpin":"30645962138490","parcel_id":"9db63b91-6b83-4e2e-a552-15b55c97c575","state":"Goa","state_code":"GA","state_type":"STATE","state_lgd_code":"30","district_lgd_code":"550","district_name":"North Goa","subdistrict_lgd_code":"5201","subdistrict_name":"Bardez Taluka","subdistrict_type":"Tehsil / Taluk","village_lgd_code":"612040","village_name":"Calangute","khasra_plot_no":"Sy. 182/4-A/D7","recorded_area":"850.0","recorded_area_unit":"Square Meter","normalized_area_sqm":"850.0","gis_area_sqm":"850.0","land_use_category":"RESIDENTIAL","land_use_raw":"Orchard / Coconut Grove","status":"AMALGAMATED","data_freshness_status":"CURRENT","scenario_index":"3501","use_case_description":"Government revenue lien and tax demand","mutation_workflow_status":"UNDER_VERIFICATION","revenue_record_id":"ROR-GA-2025-1006-0007","revenue_record_type":"Form I & XIV (DSLR Goa)","khata_khewat_no":"KHT-56","khatauni_no":"KHN-156","owner_name":"Antonio Fernandes & Maria Fernandes","owner_name_local":"अँटोनियो फर्नांडिस","co_owners":"","tenure_type":"Government Grant","mutation_status":"REJECTED","active_mutation_id":"MUT-GA-00000007","tax_demand_status":"PAID","annual_tax_inr":"185.5","deed_number":"DEED-GA-2024-406-0007","deed_type":"Sale Deed / Conveyance","sro_office":"Sub-Registrar Office, Bardez Taluka","execution_date":"2024-05-10","registered_owner":"Antonio Fernandes & Maria Fernandes","seller_name":"Previous Landholder","consideration_amount_inr":"3500000.0","stamp_duty_inr":"210000.0","survey_sketch_id":"FMB-GA-06-0007","cadastral_sheet_no":"SHT-GA-06","surveyed_area_sqm":"850.0","survey_status":"PENDING","urban_authority":"Bardez Taluka Urban Development & Town Planning Authority","zone_name":"Agricultural / Green Buffer","permitted_land_use":"RESIDENTIAL","building_permission_status":"PENDING","violations_reported":"False","is_encumbered":"True","encumbrance_certificate_number":"EC-GA-00000007-0007","encumbrance_type":"TRIBAL_NON_ALIENATION","financial_institution":"","mortgage_amount":"0.0","created_at":"2026-01-15T09:00:00Z","updated_at":"2026-09-24T11:30:00Z"}},{"type":"Feature","geometry":{"type":"Polygon","coordinates":[[[74.4014416842924,15.16751400905817],[74.48449831066783,15.147085222409894],[74.48449831066783,15.269215677016213],[74.39953184269433,15.269215677016213],[74.4014416842924,15.16751400905817]]]},"properties":{"ulpin":"30554264477559","parcel_id":"9db3ec15-d082-42af-83f6-1c07161a2128","state":"Goa","state_code":"GA","state_type":"STATE","state_lgd_code":"30","district_lgd_code":"550","district_name":"North Goa","subdistrict_lgd_code":"5201","subdistrict_name":"Bardez Taluka","subdistrict_type":"Tehsil / Taluk","village_lgd_code":"612040","village_name":"Calangute","khasra_plot_no":"Sy. 182/4-A/D8","recorded_area":"850.0","recorded_area_unit":"Square Meter","normalized_area_sqm":"850.0","gis_area_sqm":"850.0","land_use_category":"COMMERCIAL","land_use_raw":"Orchard / Coconut Grove","status":"DISPUTED","data_freshness_status":"STALE","scenario_index":"3502","use_case_description":"Court attachment and disputed possession","mutation_workflow_status":"NOTICE_PERIOD","revenue_record_id":"ROR-GA-2025-1006-0008","revenue_record_type":"Form I & XIV (DSLR Goa)","khata_khewat_no":"KHT-56","khatauni_no":"KHN-156","owner_name":"Antonio Fernandes & Maria Fernandes","owner_name_local":"अँटोनियो फर्नांडिस","co_owners":"","tenure_type":"Waqf / Religious Trust","mutation_status":"DISPUTED","active_mutation_id":"MUT-GA-00000008","tax_demand_status":"PAID","annual_tax_inr":"185.5","deed_number":"DEED-GA-2024-406-0008","deed_type":"Sale Deed / Conveyance","sro_office":"Sub-Registrar Office, Bardez Taluka","execution_date":"2024-05-10","registered_owner":"Antonio Fernandes & Maria Fernandes","seller_name":"Previous Landholder","consideration_amount_inr":"3500000.0","stamp_duty_inr":"210000.0","survey_sketch_id":"FMB-GA-06-0008","cadastral_sheet_no":"SHT-GA-06","surveyed_area_sqm":"850.0","survey_status":"DISPUTED","urban_authority":"Bardez Taluka Urban Development & Town Planning Authority","zone_name":"Agricultural / Green Buffer","permitted_land_use":"COMMERCIAL","building_permission_status":"REJECTED","violations_reported":"False","is_encumbered":"True","encumbrance_certificate_number":"EC-GA-00000008-0008","encumbrance_type":"LEASE_CHARGE","financial_institution":"","mortgage_amount":"0.0","created_at":"2026-01-15T09:00:00Z","updated_at":"2026-09-24T11:30:00Z"}},{"type":"Feature","geometry":{"type":"Polygon","coordinates":[[[74.11858733459192,15.185830280507805],[74.17851856216647,15.190596178835124],[74.17851856216647,15.256030676381114],[74.12109917271371,15.251009814933917],[74.11858733459192,15.185830280507805]]]},"properties":{"ulpin":"30629151847093","parcel_id":"f15e1388-c18f-4a4f-aba0-4425c754d58e","state":"Goa","state_code":"GA","state_type":"STATE","state_lgd_code":"30","district_lgd_code":"550","district_name":"North Goa","subdistrict_lgd_code":"5201","subdistrict_name":"Bardez Taluka","subdistrict_type":"Tehsil / Taluk","village_lgd_code":"612040","village_name":"Calangute","khasra_plot_no":"Sy. 182/4-A/D9","recorded_area":"850.0","recorded_area_unit":"Square Meter","normalized_area_sqm":"850.0","gis_area_sqm":"850.0","land_use_category":"INDUSTRIAL","land_use_raw":"Orchard / Coconut Grove","status":"ARCHIVED","data_freshness_status":"UNKNOWN","scenario_index":"3503","use_case_description":"Bank mortgage and active encumbrance","mutation_workflow_status":"HEARING_SCHEDULED","revenue_record_id":"ROR-GA-2025-1006-0009","revenue_record_type":"Form I & XIV (DSLR Goa)","khata_khewat_no":"KHT-56","khatauni_no":"KHN-156","owner_name":"Antonio Fernandes & Maria Fernandes","owner_name_local":"अँटोनियो फर्नांडिस","co_owners":"","tenure_type":"Tribal Community Tenure","mutation_status":"NONE","active_mutation_id":"MUT-GA-00000009","tax_demand_status":"PAID","annual_tax_inr":"185.5","deed_number":"DEED-GA-2024-406-0009","deed_type":"Sale Deed / Conveyance","sro_office":"Sub-Registrar Office, Bardez Taluka","execution_date":"2024-05-10","registered_owner":"Antonio Fernandes & Maria Fernandes","seller_name":"Previous Landholder","consideration_amount_inr":"3500000.0","stamp_duty_inr":"210000.0","survey_sketch_id":"FMB-GA-06-0009","cadastral_sheet_no":"SHT-GA-06","surveyed_area_sqm":"850.0","survey_status":"RESURVEY_REQUIRED","urban_authority":"Bardez Taluka Urban Development & Town Planning Authority","zone_name":"Agricultural / Green Buffer","permitted_land_use":"INDUSTRIAL","building_permission_status":"NOT_APPLICABLE","violations_reported":"False","is_encumbered":"False","encumbrance_certificate_number":"EC-GA-2024-106-0009","encumbrance_type":"NIL","financial_institution":"","mortgage_amount":"0.0","created_at":"2026-01-15T09:00:00Z","updated_at":"2026-09-24T11:30:00Z"}},{"type":"Feature","geometry":{"type":"Polygon","coordinates":[[[74.04671578640495,15.508430220218317],[74.11757245719816,15.513635119823304],[74.12128797767156,15.570885847557852],[74.04949161931032,15.570885847557852],[74.04671578640495,15.508430220218317]]]},"properties":{"ulpin":"30469448537200","parcel_id":"a98654bd-5d13-4d50-b03b-d82243acbf22","state":"Goa","state_code":"GA","state_type":"STATE","state_lgd_code":"30","district_lgd_code":"550","district_name":"North Goa","subdistrict_lgd_code":"5201","subdistrict_name":"Bardez Taluka","subdistrict_type":"Tehsil / Taluk","village_lgd_code":"612040","village_name":"Calangute","khasra_plot_no":"Sy. 182/4-A/D10","recorded_area":"850.0","recorded_area_unit":"Square Meter","normalized_area_sqm":"850.0","gis_area_sqm":"850.0","land_use_category":"AGRICULTURAL","land_use_raw":"Orchard / Coconut Grove","status":"ACTIVE","data_freshness_status":"CURRENT","scenario_index":"3504","use_case_description":"Lease charge and institutional tenancy","mutation_workflow_status":"APPROVED","revenue_record_id":"ROR-GA-2025-1006-0010","revenue_record_type":"Form I & XIV (DSLR Goa)","khata_khewat_no":"KHT-56","khatauni_no":"KHN-156","owner_name":"Antonio Fernandes & Maria Fernandes","owner_name_local":"अँटोनियो फर्नांडिस","co_owners":"","tenure_type":"Bhumiswami / Raiyati with Transferable Rights","mutation_status":"MUTATED","active_mutation_id":"","tax_demand_status":"PAID","annual_tax_inr":"185.5","deed_number":"DEED-GA-2024-406-0010","deed_type":"Sale Deed / Conveyance","sro_office":"Sub-Registrar Office, Bardez Taluka","execution_date":"2024-05-10","registered_owner":"Registry Variance Owner 10","seller_name":"Previous Landholder","consideration_amount_inr":"3500000.0","stamp_duty_inr":"210000.0","survey_sketch_id":"FMB-GA-06-0010","cadastral_sheet_no":"SHT-GA-06","surveyed_area_sqm":"850.0","survey_status":"SURVEYED","urban_authority":"Bardez Taluka Urban Development & Town Planning Authority","zone_name":"Agricultural / Green Buffer","permitted_land_use":"AGRICULTURAL","building_permission_status":"SANCTIONED","violations_reported":"False","is_encumbered":"True","encumbrance_certificate_number":"EC-GA-00000010-0010","encumbrance_type":"BANK_MORTGAGE","financial_institution":"","mortgage_amount":"0.0","created_at":"2026-01-15T09:00:00Z","updated_at":"2026-09-24T11:30:00Z"}},{"type":"Feature","geometry":{"type":"Polygon","coordinates":[[[74.29205158421678,15.475532504653057],[74.39424158309603,15.481763145120151],[74.41229879285603,15.562657169211782],[74.29205158421678,15.562657169211782],[74.29205158421678,15.475532504653057]]]},"properties":{"ulpin":"30717037285612","parcel_id":"940503a8-86d1-4347-a77c-9c308282770b","state":"Goa","state_code":"GA","state_type":"STATE","state_lgd_code":"30","district_lgd_code":"550","district_name":"North Goa","subdistrict_lgd_code":"5201","subdistrict_name":"Bardez Taluka","subdistrict_type":"Tehsil / Taluk","village_lgd_code":"612040","village_name":"Calangute","khasra_plot_no":"Sy. 182/4-A/D11","recorded_area":"850.0","recorded_area_unit":"Square Meter","normalized_area_sqm":"850.0","gis_area_sqm":"850.0","land_use_category":"INSTITUTIONAL","land_use_raw":"Orchard / Coconut Grove","status":"PENDING_MUTATION","data_freshness_status":"STALE","scenario_index":"3505","use_case_description":"Subdivision or amalgamation history review","mutation_workflow_status":"REJECTED","revenue_record_id":"ROR-GA-2025-1006-0011","revenue_record_type":"Form I & XIV (DSLR Goa)","khata_khewat_no":"KHT-56","khatauni_no":"KHN-156","owner_name":"Antonio Fernandes & Maria Fernandes","owner_name_local":"अँटोनियो फर्नांडिस","co_owners":"","tenure_type":"Bhumiswami / Freehold","mutation_status":"PENDING","active_mutation_id":"MUT-GA-00000011","tax_demand_status":"PAID","annual_tax_inr":"185.5","deed_number":"DEED-GA-2024-406-0011","deed_type":"Sale Deed / Conveyance","sro_office":"Sub-Registrar Office, Bardez Taluka","execution_date":"2024-05-10","registered_owner":"Antonio Fernandes & Maria Fernandes","seller_name":"Previous Landholder","consideration_amount_inr":"3500000.0","stamp_duty_inr":"210000.0","survey_sketch_id":"FMB-GA-06-0011","cadastral_sheet_no":"SHT-GA-06","surveyed_area_sqm":"850.0","survey_status":"PENDING","urban_authority":"Bardez Taluka Urban Development & Town Planning Authority","zone_name":"Agricultural / Green Buffer","permitted_land_use":"INSTITUTIONAL","building_permission_status":"PENDING","violations_reported":"False","is_encumbered":"True","encumbrance_certificate_number":"EC-GA-00000011-0011","encumbrance_type":"GOVT_REVENUE_LIEN","financial_institution":"","mortgage_amount":"0.0","created_at":"2026-01-15T09:00:00Z","updated_at":"2026-09-24T11:30:00Z"}},{"type":"Feature","geometry":{"type":"Polygon","coordinates":[[[74.10952414495861,15.13413822232989],[74.17851856216647,15.13413822232989],[74.17851856216647,15.190596178835124],[74.11858733459192,15.185830280507805],[74.10952414495861,15.13413822232989]]]},"properties":{"ulpin":"30217580857318","parcel_id":"7a82a6c9-66cc-4f3c-89f9-3012aed2b32a","state":"Goa","state_code":"GA","state_type":"STATE","state_lgd_code":"30","district_lgd_code":"550","district_name":"North Goa","subdistrict_lgd_code":"5201","subdistrict_name":"Bardez Taluka","subdistrict_type":"Tehsil / Taluk","village_lgd_code":"612040","village_name":"Calangute","khasra_plot_no":"Sy. 182/4-A/D12","recorded_area":"850.0","recorded_area_unit":"Square Meter","normalized_area_sqm":"850.0","gis_area_sqm":"850.0","land_use_category":"FOREST_GREEN_BELT","land_use_raw":"Orchard / Coconut Grove","status":"SUBDIVIDED","data_freshness_status":"UNKNOWN","scenario_index":"3506","use_case_description":"Archived historical record for audit retrieval","mutation_workflow_status":"SLA_BREACHED","revenue_record_id":"ROR-GA-2025-1006-0012","revenue_record_type":"Form I & XIV (DSLR Goa)","khata_khewat_no":"KHT-56","khatauni_no":"KHN-156","owner_name":"Antonio Fernandes & Maria Fernandes","owner_name_local":"अँटोनियो फर्नांडिस","co_owners":"","tenure_type":"Leasehold","mutation_status":"UNMUTATED_TRANSACTION","active_mutation_id":"MUT-GA-00000012","tax_demand_status":"PAID","annual_tax_inr":"185.5","deed_number":"DEED-GA-2024-406-0012","deed_type":"Sale Deed / Conveyance","sro_office":"Sub-Registrar Office, Bardez Taluka","execution_date":"2024-05-10","registered_owner":"Antonio Fernandes & Maria Fernandes","seller_name":"Previous Landholder","consideration_amount_inr":"3500000.0","stamp_duty_inr":"210000.0","survey_sketch_id":"FMB-GA-06-0012","cadastral_sheet_no":"SHT-GA-06","surveyed_area_sqm":"850.0","survey_status":"DISPUTED","urban_authority":"Bardez Taluka Urban Development & Town Planning Authority","zone_name":"Agricultural / Green Buffer","permitted_land_use":"FOREST_GREEN_BELT","building_permission_status":"REJECTED","violations_reported":"False","is_encumbered":"True","encumbrance_certificate_number":"EC-GA-00000012-0012","encumbrance_type":"COURT_ATTACHMENT","financial_institution":"","mortgage_amount":"0.0","created_at":"2026-01-15T09:00:00Z","updated_at":"2026-09-24T11:30:00Z"}},{"type":"Feature","geometry":{"type":"Polygon","coordinates":[[[73.97838467162582,15.386974560436096],[74.04459816889133,15.386974560436096],[74.04559750618606,15.449412586625328],[73.97838467162582,15.447231250189757],[73.97838467162582,15.386974560436096]]]},"properties":{"ulpin":"30909903898071","parcel_id":"e37f90e6-4f1d-4b3c-b4a1-1448c3fda9fb","state":"Goa","state_code":"GA","state_type":"STATE","state_lgd_code":"30","district_lgd_code":"550","district_name":"North Goa","subdistrict_lgd_code":"5201","subdistrict_name":"Bardez Taluka","subdistrict_type":"Tehsil / Taluk","village_lgd_code":"612040","village_name":"Calangute","khasra_plot_no":"Sy. 182/4-A/D13","recorded_area":"850.0","recorded_area_unit":"Square Meter","normalized_area_sqm":"850.0","gis_area_sqm":"850.0","land_use_category":"WATER_BODY","land_use_raw":"Orchard / Coconut Grove","status":"AMALGAMATED","data_freshness_status":"CURRENT","scenario_index":"3507","use_case_description":"Bank mortgage and active encumbrance","mutation_workflow_status":"SUBMITTED","revenue_record_id":"ROR-GA-2025-1006-0013","revenue_record_type":"Form I & XIV (DSLR Goa)","khata_khewat_no":"KHT-56","khatauni_no":"KHN-156","owner_name":"Antonio Fernandes & Maria Fernandes","owner_name_local":"अँटोनियो फर्नांडिस","co_owners":"","tenure_type":"Government Grant","mutation_status":"REJECTED","active_mutation_id":"MUT-GA-00000013","tax_demand_status":"PAID","annual_tax_inr":"185.5","deed_number":"DEED-GA-2024-406-0013","deed_type":"Sale Deed / Conveyance","sro_office":"Sub-Registrar Office, Bardez Taluka","execution_date":"2024-05-10","registered_owner":"Antonio Fernandes & Maria Fernandes","seller_name":"Previous Landholder","consideration_amount_inr":"3500000.0","stamp_duty_inr":"210000.0","survey_sketch_id":"FMB-GA-06-0013","cadastral_sheet_no":"SHT-GA-06","surveyed_area_sqm":"850.0","survey_status":"RESURVEY_REQUIRED","urban_authority":"Bardez Taluka Urban Development & Town Planning Authority","zone_name":"Agricultural / Green Buffer","permitted_land_use":"WATER_BODY","building_permission_status":"NOT_APPLICABLE","violations_reported":"True","is_encumbered":"True","encumbrance_certificate_number":"EC-GA-00000013-0013","encumbrance_type":"TRIBAL_NON_ALIENATION","financial_institution":"","mortgage_amount":"0.0","created_at":"2026-01-15T09:00:00Z","updated_at":"2026-09-24T11:30:00Z"}},{"type":"Feature","geometry":{"type":"Polygon","coordinates":[[[74.05872906702295,15.195586691007243],[74.11858733459192,15.185830280507805],[74.12109917271371,15.251009814933917],[74.04708844155262,15.257906175130133],[74.05872906702295,15.195586691007243]]]},"properties":{"ulpin":"30985428520735","parcel_id":"a5e97f6e-b330-4ae5-ad82-0e351cd5f1bd","state":"Goa","state_code":"GA","state_type":"STATE","state_lgd_code":"30","district_lgd_code":"550","district_name":"North Goa","subdistrict_lgd_code":"5201","subdistrict_name":"Bardez Taluka","subdistrict_type":"Tehsil / Taluk","village_lgd_code":"612040","village_name":"Calangute","khasra_plot_no":"Sy. 182/4-A/D14","recorded_area":"850.0","recorded_area_unit":"Square Meter","normalized_area_sqm":"850.0","gis_area_sqm":"850.0","land_use_category":"MIXED_USE","land_use_raw":"Orchard / Coconut Grove","status":"DISPUTED","data_freshness_status":"STALE","scenario_index":"3508","use_case_description":"Government revenue lien and tax demand","mutation_workflow_status":"UNDER_VERIFICATION","revenue_record_id":"ROR-GA-2025-1006-0014","revenue_record_type":"Form I & XIV (DSLR Goa)","khata_khewat_no":"KHT-56","khatauni_no":"KHN-156","owner_name":"Antonio Fernandes & Maria Fernandes","owner_name_local":"अँटोनियो फर्नांडिस","co_owners":"","tenure_type":"Waqf / Religious Trust","mutation_status":"DISPUTED","active_mutation_id":"MUT-GA-00000014","tax_demand_status":"PAID","annual_tax_inr":"185.5","deed_number":"DEED-GA-2024-406-0014","deed_type":"Sale Deed / Conveyance","sro_office":"Sub-Registrar Office, Bardez Taluka","execution_date":"2024-05-10","registered_owner":"Antonio Fernandes & Maria Fernandes","seller_name":"Previous Landholder","consideration_amount_inr":"3500000.0","stamp_duty_inr":"210000.0","survey_sketch_id":"FMB-GA-06-0014","cadastral_sheet_no":"SHT-GA-06","surveyed_area_sqm":"850.0","survey_status":"SURVEYED","urban_authority":"Bardez Taluka Urban Development & Town Planning Authority","zone_name":"Agricultural / Green Buffer","permitted_land_use":"MIXED_USE","building_permission_status":"SANCTIONED","violations_reported":"False","is_encumbered":"True","encumbrance_certificate_number":"EC-GA-00000014-0014","encumbrance_type":"LEASE_CHARGE","financial_institution":"","mortgage_amount":"0.0","created_at":"2026-01-15T09:00:00Z","updated_at":"2026-09-24T11:30:00Z"}},{"type":"Feature","geometry":{"type":"Polygon","coordinates":[[[74.1211638847596,15.386974560436096],[74.19362277486825,15.386974560436096],[74.19362277486825,15.438604339618466],[74.1171298516561,15.449435979637045],[74.1211638847596,15.386974560436096]]]},"properties":{"ulpin":"30714090942925","parcel_id":"87da88e9-be9c-47f6-b246-f9c14d5ac8a0","state":"Goa","state_code":"GA","state_type":"STATE","state_lgd_code":"30","district_lgd_code":"550","district_name":"North Goa","subdistrict_lgd_code":"5201","subdistrict_name":"Bardez Taluka","subdistrict_type":"Tehsil / Taluk","village_lgd_code":"612040","village_name":"Calangute","khasra_plot_no":"Sy. 182/4-A/D15","recorded_area":"850.0","recorded_area_unit":"Square Meter","normalized_area_sqm":"850.0","gis_area_sqm":"850.0","land_use_category":"OTHER","land_use_raw":"Orchard / Coconut Grove","status":"ARCHIVED","data_freshness_status":"UNKNOWN","scenario_index":"3509","use_case_description":"Archived historical record for audit retrieval","mutation_workflow_status":"NOTICE_PERIOD","revenue_record_id":"ROR-GA-2025-1006-0015","revenue_record_type":"Form I & XIV (DSLR Goa)","khata_khewat_no":"KHT-56","khatauni_no":"KHN-156","owner_name":"Antonio Fernandes & Maria Fernandes","owner_name_local":"अँटोनियो फर्नांडिस","co_owners":"","tenure_type":"Tribal Community Tenure","mutation_status":"NONE","active_mutation_id":"MUT-GA-00000015","tax_demand_status":"PAID","annual_tax_inr":"185.5","deed_number":"DEED-GA-2024-406-0015","deed_type":"Sale Deed / Conveyance","sro_office":"Sub-Registrar Office, Bardez Taluka","execution_date":"2024-05-10","registered_owner":"Registry Variance Owner 15","seller_name":"Previous Landholder","consideration_amount_inr":"3500000.0","stamp_duty_inr":"210000.0","survey_sketch_id":"FMB-GA-06-0015","cadastral_sheet_no":"SHT-GA-06","surveyed_area_sqm":"850.0","survey_status":"PENDING","urban_authority":"Bardez Taluka Urban Development & Town Planning Authority","zone_name":"Agricultural / Green Buffer","permitted_land_use":"OTHER","building_permission_status":"PENDING","violations_reported":"False","is_encumbered":"False","encumbrance_certificate_number":"EC-GA-2024-106-0015","encumbrance_type":"NIL","financial_institution":"","mortgage_amount":"0.0","created_at":"2026-01-15T09:00:00Z","updated_at":"2026-09-24T11:30:00Z"}},{"type":"Feature","geometry":{"type":"Polygon","coordinates":[[[73.99551712676329,15.194936795936375],[74.05872906702295,15.195586691007243],[74.04708844155262,15.257906175130133],[73.99551712676329,15.25033303956809],[73.99551712676329,15.194936795936375]]]},"properties":{"ulpin":"30060689285851","parcel_id":"49dca377-9320-4b25-bdb8-2692364af0fd","state":"Goa","state_code":"GA","state_type":"STATE","state_lgd_code":"30","district_lgd_code":"550","district_name":"North Goa","subdistrict_lgd_code":"5201","subdistrict_name":"Bardez Taluka","subdistrict_type":"Tehsil / Taluk","village_lgd_code":"612040","village_name":"Calangute","khasra_plot_no":"Sy. 182/4-A/D16","recorded_area":"850.0","recorded_area_unit":"Square Meter","normalized_area_sqm":"850.0","gis_area_sqm":"850.0","land_use_category":"RESIDENTIAL","land_use_raw":"Orchard / Coconut Grove","status":"ACTIVE","data_freshness_status":"CURRENT","scenario_index":"3510","use_case_description":"Tribal non-alienation protection review","mutation_workflow_status":"HEARING_SCHEDULED","revenue_record_id":"ROR-GA-2025-1006-0016","revenue_record_type":"Form I & XIV (DSLR Goa)","khata_khewat_no":"KHT-56","khatauni_no":"KHN-156","owner_name":"Antonio Fernandes & Maria Fernandes","owner_name_local":"अँटोनियो फर्नांडिस","co_owners":"","tenure_type":"Bhumiswami / Raiyati with Transferable Rights","mutation_status":"MUTATED","active_mutation_id":"","tax_demand_status":"PAID","annual_tax_inr":"185.5","deed_number":"DEED-GA-2024-406-0016","deed_type":"Sale Deed / Conveyance","sro_office":"Sub-Registrar Office, Bardez Taluka","execution_date":"2024-05-10","registered_owner":"Antonio Fernandes & Maria Fernandes","seller_name":"Previous Landholder","consideration_amount_inr":"3500000.0","stamp_duty_inr":"210000.0","survey_sketch_id":"FMB-GA-06-0016","cadastral_sheet_no":"SHT-GA-06","surveyed_area_sqm":"850.0","survey_status":"DISPUTED","urban_authority":"Bardez Taluka Urban Development & Town Planning Authority","zone_name":"Agricultural / Green Buffer","permitted_land_use":"RESIDENTIAL","building_permission_status":"REJECTED","violations_reported":"False","is_encumbered":"True","encumbrance_certificate_number":"EC-GA-00000016-0016","encumbrance_type":"BANK_MORTGAGE","financial_institution":"","mortgage_amount":"0.0","created_at":"2026-01-15T09:00:00Z","updated_at":"2026-09-24T11:30:00Z"}},{"type":"Feature","geometry":{"type":"Polygon","coordinates":[[[73.97838467162582,15.447231250189757],[74.04559750618606,15.449412586625328],[74.04671578640495,15.508430220218317],[73.97838467162582,15.512785361119887],[73.97838467162582,15.447231250189757]]]},"properties":{"ulpin":"30230764284219","parcel_id":"34791d88-bccd-48dc-b2c9-f92f8b66198c","state":"Goa","state_code":"GA","state_type":"STATE","state_lgd_code":"30","district_lgd_code":"550","district_name":"North Goa","subdistrict_lgd_code":"5201","subdistrict_name":"Bardez Taluka","subdistrict_type":"Tehsil / Taluk","village_lgd_code":"612040","village_name":"Calangute","khasra_plot_no":"Sy. 182/4-A/D17","recorded_area":"850.0","recorded_area_unit":"Square Meter","normalized_area_sqm":"850.0","gis_area_sqm":"850.0","land_use_category":"COMMERCIAL","land_use_raw":"Orchard / Coconut Grove","status":"PENDING_MUTATION","data_freshness_status":"STALE","scenario_index":"3511","use_case_description":"Lease charge and institutional tenancy","mutation_workflow_status":"APPROVED","revenue_record_id":"ROR-GA-2025-1006-0017","revenue_record_type":"Form I & XIV (DSLR Goa)","khata_khewat_no":"KHT-56","khatauni_no":"KHN-156","owner_name":"Antonio Fernandes & Maria Fernandes","owner_name_local":"अँटोनियो फर्नांडिस","co_owners":"","tenure_type":"Bhumiswami / Freehold","mutation_status":"PENDING","active_mutation_id":"MUT-GA-00000017","tax_demand_status":"PAID","annual_tax_inr":"185.5","deed_number":"DEED-GA-2024-406-0017","deed_type":"Sale Deed / Conveyance","sro_office":"Sub-Registrar Office, Bardez Taluka","execution_date":"2024-05-10","registered_owner":"Antonio Fernandes & Maria Fernandes","seller_name":"Previous Landholder","consideration_amount_inr":"3500000.0","stamp_duty_inr":"210000.0","survey_sketch_id":"FMB-GA-06-0017","cadastral_sheet_no":"SHT-GA-06","surveyed_area_sqm":"850.0","survey_status":"RESURVEY_REQUIRED","urban_authority":"Bardez Taluka Urban Development & Town Planning Authority","zone_name":"Agricultural / Green Buffer","permitted_land_use":"COMMERCIAL","building_permission_status":"NOT_APPLICABLE","violations_reported":"False","is_encumbered":"True","encumbrance_certificate_number":"EC-GA-00000017-0017","encumbrance_type":"GOVT_REVENUE_LIEN","financial_institution":"","mortgage_amount":"0.0","created_at":"2026-01-15T09:00:00Z","updated_at":"2026-09-24T11:30:00Z"}},{"type":"Feature","geometry":{"type":"Polygon","coordinates":[[[74.38097414143996,15.047106079086205],[74.48449831066783,15.047106079086205],[74.48449831066783,15.147085222409894],[74.4014416842924,15.16751400905817],[74.38097414143996,15.047106079086205]]]},"properties":{"ulpin":"30741144901645","parcel_id":"e4fd0d57-28ed-4877-82e8-c57404bf8564","state":"Goa","state_code":"GA","state_type":"STATE","state_lgd_code":"30","district_lgd_code":"550","district_name":"North Goa","subdistrict_lgd_code":"5201","subdistrict_name":"Bardez Taluka","subdistrict_type":"Tehsil / Taluk","village_lgd_code":"612040","village_name":"Calangute","khasra_plot_no":"Sy. 182/4-A/D18","recorded_area":"850.0","recorded_area_unit":"Square Meter","normalized_area_sqm":"850.0","gis_area_sqm":"850.0","land_use_category":"INDUSTRIAL","land_use_raw":"Orchard / Coconut Grove","status":"SUBDIVIDED","data_freshness_status":"UNKNOWN","scenario_index":"3512","use_case_description":"Subdivision or amalgamation history review","mutation_workflow_status":"REJECTED","revenue_record_id":"ROR-GA-2025-1006-0018","revenue_record_type":"Form I & XIV (DSLR Goa)","khata_khewat_no":"KHT-56","khatauni_no":"KHN-156","owner_name":"Antonio Fernandes & Maria Fernandes","owner_name_local":"अँटोनियो फर्नांडिस","co_owners":"","tenure_type":"Leasehold","mutation_status":"UNMUTATED_TRANSACTION","active_mutation_id":"MUT-GA-00000018","tax_demand_status":"PAID","annual_tax_inr":"185.5","deed_number":"DEED-GA-2024-406-0018","deed_type":"Sale Deed / Conveyance","sro_office":"Sub-Registrar Office, Bardez Taluka","execution_date":"2024-05-10","registered_owner":"Antonio Fernandes & Maria Fernandes","seller_name":"Previous Landholder","consideration_amount_inr":"3500000.0","stamp_duty_inr":"210000.0","survey_sketch_id":"FMB-GA-06-0018","cadastral_sheet_no":"SHT-GA-06","surveyed_area_sqm":"850.0","survey_status":"SURVEYED","urban_authority":"Bardez Taluka Urban Development & Town Planning Authority","zone_name":"Agricultural / Green Buffer","permitted_land_use":"INDUSTRIAL","building_permission_status":"SANCTIONED","violations_reported":"False","is_encumbered":"True","encumbrance_certificate_number":"EC-GA-00000018-0018","encumbrance_type":"COURT_ATTACHMENT","financial_institution":"","mortgage_amount":"0.0","created_at":"2026-01-15T09:00:00Z","updated_at":"2026-09-24T11:30:00Z"}},{"type":"Feature","geometry":{"type":"Polygon","coordinates":[[[73.99551712676329,15.13413822232989],[74.05665464401683,15.13413822232989],[74.05872906702295,15.195586691007243],[73.99551712676329,15.194936795936375],[73.99551712676329,15.13413822232989]]]},"properties":{"ulpin":"30317756024775","parcel_id":"7fc3502a-0546-414e-8e81-4eb89801d50a","state":"Goa","state_code":"GA","state_type":"STATE","state_lgd_code":"30","district_lgd_code":"550","district_name":"North Goa","subdistrict_lgd_code":"5201","subdistrict_name":"Bardez Taluka","subdistrict_type":"Tehsil / Taluk","village_lgd_code":"612040","village_name":"Calangute","khasra_plot_no":"Sy. 182/4-A/D19","recorded_area":"850.0","recorded_area_unit":"Square Meter","normalized_area_sqm":"850.0","gis_area_sqm":"850.0","land_use_category":"AGRICULTURAL","land_use_raw":"Orchard / Coconut Grove","status":"AMALGAMATED","data_freshness_status":"CURRENT","scenario_index":"3513","use_case_description":"Archived historical record for audit retrieval","mutation_workflow_status":"SLA_BREACHED","revenue_record_id":"ROR-GA-2025-1006-0019","revenue_record_type":"Form I & XIV (DSLR Goa)","khata_khewat_no":"KHT-56","khatauni_no":"KHN-156","owner_name":"Antonio Fernandes & Maria Fernandes","owner_name_local":"अँटोनियो फर्नांडिस","co_owners":"","tenure_type":"Government Grant","mutation_status":"REJECTED","active_mutation_id":"MUT-GA-00000019","tax_demand_status":"PAID","annual_tax_inr":"185.5","deed_number":"DEED-GA-2024-406-0019","deed_type":"Sale Deed / Conveyance","sro_office":"Sub-Registrar Office, Bardez Taluka","execution_date":"2024-05-10","registered_owner":"Antonio Fernandes & Maria Fernandes","seller_name":"Previous Landholder","consideration_amount_inr":"3500000.0","stamp_duty_inr":"210000.0","survey_sketch_id":"FMB-GA-06-0019","cadastral_sheet_no":"SHT-GA-06","surveyed_area_sqm":"850.0","survey_status":"PENDING","urban_authority":"Bardez Taluka Urban Development & Town Planning Authority","zone_name":"Agricultural / Green Buffer","permitted_land_use":"AGRICULTURAL","building_permission_status":"PENDING","violations_reported":"False","is_encumbered":"True","encumbrance_certificate_number":"EC-GA-00000019-0019","encumbrance_type":"TRIBAL_NON_ALIENATION","financial_institution":"","mortgage_amount":"0.0","created_at":"2026-01-15T09:00:00Z","updated_at":"2026-09-24T11:30:00Z"}},{"type":"Feature","geometry":{"type":"Polygon","coordinates":[[[74.29205158421678,15.374542081169416],[74.39680453895036,15.374542081169416],[74.39424158309603,15.481763145120151],[74.29205158421678,15.475532504653057],[74.29205158421678,15.374542081169416]]]},"properties":{"ulpin":"30978647015008","parcel_id":"a12f07c3-52b0-4d7a-ae44-bd2b664821cb","state":"Goa","state_code":"GA","state_type":"STATE","state_lgd_code":"30","district_lgd_code":"550","district_name":"North Goa","subdistrict_lgd_code":"5201","subdistrict_name":"Bardez Taluka","subdistrict_type":"Tehsil / Taluk","village_lgd_code":"612040","village_name":"Calangute","khasra_plot_no":"Sy. 182/4-A/D20","recorded_area":"850.0","recorded_area_unit":"Square Meter","normalized_area_sqm":"850.0","gis_area_sqm":"850.0","land_use_category":"INSTITUTIONAL","land_use_raw":"Orchard / Coconut Grove","status":"DISPUTED","data_freshness_status":"STALE","scenario_index":"3514","use_case_description":"Bank mortgage and active encumbrance","mutation_workflow_status":"SUBMITTED","revenue_record_id":"ROR-GA-2025-1006-0020","revenue_record_type":"Form I & XIV (DSLR Goa)","khata_khewat_no":"KHT-56","khatauni_no":"KHN-156","owner_name":"Antonio Fernandes & Maria Fernandes","owner_name_local":"अँटोनियो फर्नांडिस","co_owners":"","tenure_type":"Waqf / Religious Trust","mutation_status":"DISPUTED","active_mutation_id":"MUT-GA-00000020","tax_demand_status":"PAID","annual_tax_inr":"185.5","deed_number":"DEED-GA-2024-406-0020","deed_type":"Sale Deed / Conveyance","sro_office":"Sub-Registrar Office, Bardez Taluka","execution_date":"2024-05-10","registered_owner":"Registry Variance Owner 20","seller_name":"Previous Landholder","consideration_amount_inr":"3500000.0","stamp_duty_inr":"210000.0","survey_sketch_id":"FMB-GA-06-0020","cadastral_sheet_no":"SHT-GA-06","surveyed_area_sqm":"850.0","survey_status":"DISPUTED","urban_authority":"Bardez Taluka Urban Development & Town Planning Authority","zone_name":"Agricultural / Green Buffer","permitted_land_use":"INSTITUTIONAL","building_permission_status":"REJECTED","violations_reported":"True","is_encumbered":"True","encumbrance_certificate_number":"EC-GA-00000020-0020","encumbrance_type":"LEASE_CHARGE","financial_institution":"","mortgage_amount":"0.0","created_at":"2026-01-15T09:00:00Z","updated_at":"2026-09-24T11:30:00Z"}},{"type":"Feature","geometry":{"type":"Polygon","coordinates":[[[74.39680453895036,15.374542081169416],[74.51270736181775,15.374542081169416],[74.51270736181775,15.4590990923572],[74.39424158309603,15.481763145120151],[74.39680453895036,15.374542081169416]]]},"properties":{"ulpin":"30319880563135","parcel_id":"9bd3431e-c16a-4fec-bd95-5968baed9aeb","state":"Goa","state_code":"GA","state_type":"STATE","state_lgd_code":"30","district_lgd_code":"550","district_name":"North Goa","subdistrict_lgd_code":"5201","subdistrict_name":"Bardez Taluka","subdistrict_type":"Tehsil / Taluk","village_lgd_code":"612040","village_name":"Calangute","khasra_plot_no":"Sy. 182/4-A/D21","recorded_area":"850.0","recorded_area_unit":"Square Meter","normalized_area_sqm":"850.0","gis_area_sqm":"850.0","land_use_category":"FOREST_GREEN_BELT","land_use_raw":"Orchard / Coconut Grove","status":"ARCHIVED","data_freshness_status":"UNKNOWN","scenario_index":"3515","use_case_description":"Cadastral area discrepancy requiring resurvey","mutation_workflow_status":"UNDER_VERIFICATION","revenue_record_id":"ROR-GA-2025-1006-0021","revenue_record_type":"Form I & XIV (DSLR Goa)","khata_khewat_no":"KHT-56","khatauni_no":"KHN-156","owner_name":"Antonio Fernandes & Maria Fernandes","owner_name_local":"अँटोनियो फर्नांडिस","co_owners":"","tenure_type":"Tribal Community Tenure","mutation_status":"NONE","active_mutation_id":"MUT-GA-00000021","tax_demand_status":"PAID","annual_tax_inr":"185.5","deed_number":"DEED-GA-2024-406-0021","deed_type":"Sale Deed / Conveyance","sro_office":"Sub-Registrar Office, Bardez Taluka","execution_date":"2024-05-10","registered_owner":"Antonio Fernandes & Maria Fernandes","seller_name":"Previous Landholder","consideration_amount_inr":"3500000.0","stamp_duty_inr":"210000.0","survey_sketch_id":"FMB-GA-06-0021","cadastral_sheet_no":"SHT-GA-06","surveyed_area_sqm":"850.0","survey_status":"RESURVEY_REQUIRED","urban_authority":"Bardez Taluka Urban Development & Town Planning Authority","zone_name":"Agricultural / Green Buffer","permitted_land_use":"FOREST_GREEN_BELT","building_permission_status":"NOT_APPLICABLE","violations_reported":"False","is_encumbered":"False","encumbrance_certificate_number":"EC-GA-2024-106-0021","encumbrance_type":"NIL","financial_institution":"","mortgage_amount":"0.0","created_at":"2026-01-15T09:00:00Z","updated_at":"2026-09-24T11:30:00Z"}},{"type":"Feature","geometry":{"type":"Polygon","coordinates":[[[74.04708844155262,15.257906175130133],[74.12109917271371,15.251009814933917],[74.10900181891559,15.310633741479501],[74.06515943442791,15.310633741479501],[74.04708844155262,15.257906175130133]]]},"properties":{"ulpin":"30210562477481","parcel_id":"b1764ec9-eb99-4d4c-8f43-5fc4e2933ad6","state":"Goa","state_code":"GA","state_type":"STATE","state_lgd_code":"30","district_lgd_code":"550","district_name":"North Goa","subdistrict_lgd_code":"5201","subdistrict_name":"Bardez Taluka","subdistrict_type":"Tehsil / Taluk","village_lgd_code":"612040","village_name":"Calangute","khasra_plot_no":"Sy. 182/4-A/D22","recorded_area":"850.0","recorded_area_unit":"Square Meter","normalized_area_sqm":"850.0","gis_area_sqm":"850.0","land_use_category":"WATER_BODY","land_use_raw":"Orchard / Coconut Grove","status":"ACTIVE","data_freshness_status":"CURRENT","scenario_index":"3516","use_case_description":"Court attachment and disputed possession","mutation_workflow_status":"NOTICE_PERIOD","revenue_record_id":"ROR-GA-2025-1006-0022","revenue_record_type":"Form I & XIV (DSLR Goa)","khata_khewat_no":"KHT-56","khatauni_no":"KHN-156","owner_name":"Antonio Fernandes & Maria Fernandes","owner_name_local":"अँटोनियो फर्नांडिस","co_owners":"","tenure_type":"Bhumiswami / Raiyati with Transferable Rights","mutation_status":"MUTATED","active_mutation_id":"","tax_demand_status":"PAID","annual_tax_inr":"185.5","deed_number":"DEED-GA-2024-406-0022","deed_type":"Sale Deed / Conveyance","sro_office":"Sub-Registrar Office, Bardez Taluka","execution_date":"2024-05-10","registered_owner":"Antonio Fernandes & Maria Fernandes","seller_name":"Previous Landholder","consideration_amount_inr":"3500000.0","stamp_duty_inr":"210000.0","survey_sketch_id":"FMB-GA-06-0022","cadastral_sheet_no":"SHT-GA-06","surveyed_area_sqm":"850.0","survey_status":"SURVEYED","urban_authority":"Bardez Taluka Urban Development & Town Planning Authority","zone_name":"Agricultural / Green Buffer","permitted_land_use":"WATER_BODY","building_permission_status":"SANCTIONED","violations_reported":"False","is_encumbered":"True","encumbrance_certificate_number":"EC-GA-00000022-0022","encumbrance_type":"BANK_MORTGAGE","financial_institution":"","mortgage_amount":"0.0","created_at":"2026-01-15T09:00:00Z","updated_at":"2026-09-24T11:30:00Z"}},{"type":"Feature","geometry":{"type":"Polygon","coordinates":[[[74.11757245719816,15.513635119823304],[74.19362277486825,15.500492324250065],[74.19362277486825,15.570885847557852],[74.12128797767156,15.570885847557852],[74.11757245719816,15.513635119823304]]]},"properties":{"ulpin":"30985195676063","parcel_id":"d2dff857-a07e-49bb-9a11-c6eec2cdd8c2","state":"Goa","state_code":"GA","state_type":"STATE","state_lgd_code":"30","district_lgd_code":"550","district_name":"North Goa","subdistrict_lgd_code":"5201","subdistrict_name":"Bardez Taluka","subdistrict_type":"Tehsil / Taluk","village_lgd_code":"612040","village_name":"Calangute","khasra_plot_no":"Sy. 182/4-A/D23","recorded_area":"850.0","recorded_area_unit":"Square Meter","normalized_area_sqm":"850.0","gis_area_sqm":"850.0","land_use_category":"MIXED_USE","land_use_raw":"Orchard / Coconut Grove","status":"PENDING_MUTATION","data_freshness_status":"STALE","scenario_index":"3517","use_case_description":"Tribal non-alienation protection review","mutation_workflow_status":"HEARING_SCHEDULED","revenue_record_id":"ROR-GA-2025-1006-0023","revenue_record_type":"Form I & XIV (DSLR Goa)","khata_khewat_no":"KHT-56","khatauni_no":"KHN-156","owner_name":"Antonio Fernandes & Maria Fernandes","owner_name_local":"अँटोनियो फर्नांडिस","co_owners":"","tenure_type":"Bhumiswami / Freehold","mutation_status":"PENDING","active_mutation_id":"MUT-GA-00000023","tax_demand_status":"PAID","annual_tax_inr":"185.5","deed_number":"DEED-GA-2024-406-0023","deed_type":"Sale Deed / Conveyance","sro_office":"Sub-Registrar Office, Bardez Taluka","execution_date":"2024-05-10","registered_owner":"Antonio Fernandes & Maria Fernandes","seller_name":"Previous Landholder","consideration_amount_inr":"3500000.0","stamp_duty_inr":"210000.0","survey_sketch_id":"FMB-GA-06-0023","cadastral_sheet_no":"SHT-GA-06","surveyed_area_sqm":"850.0","survey_status":"PENDING","urban_authority":"Bardez Taluka Urban Development & Town Planning Authority","zone_name":"Agricultural / Green Buffer","permitted_land_use":"MIXED_USE","building_permission_status":"PENDING","violations_reported":"False","is_encumbered":"True","encumbrance_certificate_number":"EC-GA-00000023-0023","encumbrance_type":"GOVT_REVENUE_LIEN","financial_institution":"","mortgage_amount":"0.0","created_at":"2026-01-15T09:00:00Z","updated_at":"2026-09-24T11:30:00Z"}},{"type":"Feature","geometry":{"type":"Polygon","coordinates":[[[73.97838467162582,15.512785361119887],[74.04671578640495,15.508430220218317],[74.04949161931032,15.570885847557852],[73.97838467162582,15.570885847557852],[73.97838467162582,15.512785361119887]]]},"properties":{"ulpin":"30926391629585","parcel_id":"5fe4e9d7-9c64-4988-a183-6bb305450b3a","state":"Goa","state_code":"GA","state_type":"STATE","state_lgd_code":"30","district_lgd_code":"550","district_name":"North Goa","subdistrict_lgd_code":"5201","subdistrict_name":"Bardez Taluka","subdistrict_type":"Tehsil / Taluk","village_lgd_code":"612040","village_name":"Calangute","khasra_plot_no":"Sy. 182/4-A/D24","recorded_area":"850.0","recorded_area_unit":"Square Meter","normalized_area_sqm":"850.0","gis_area_sqm":"850.0","land_use_category":"OTHER","land_use_raw":"Orchard / Coconut Grove","status":"SUBDIVIDED","data_freshness_status":"UNKNOWN","scenario_index":"3518","use_case_description":"Lease charge and institutional tenancy","mutation_workflow_status":"APPROVED","revenue_record_id":"ROR-GA-2025-1006-0024","revenue_record_type":"Form I & XIV (DSLR Goa)","khata_khewat_no":"KHT-56","khatauni_no":"KHN-156","owner_name":"Antonio Fernandes & Maria Fernandes","owner_name_local":"अँटोनियो फर्नांडिस","co_owners":"","tenure_type":"Leasehold","mutation_status":"UNMUTATED_TRANSACTION","active_mutation_id":"MUT-GA-00000024","tax_demand_status":"PAID","annual_tax_inr":"185.5","deed_number":"DEED-GA-2024-406-0024","deed_type":"Sale Deed / Conveyance","sro_office":"Sub-Registrar Office, Bardez Taluka","execution_date":"2024-05-10","registered_owner":"Antonio Fernandes & Maria Fernandes","seller_name":"Previous Landholder","consideration_amount_inr":"3500000.0","stamp_duty_inr":"210000.0","survey_sketch_id":"FMB-GA-06-0024","cadastral_sheet_no":"SHT-GA-06","surveyed_area_sqm":"850.0","survey_status":"DISPUTED","urban_authority":"Bardez Taluka Urban Development & Town Planning Authority","zone_name":"Agricultural / Green Buffer","permitted_land_use":"OTHER","building_permission_status":"REJECTED","violations_reported":"False","is_encumbered":"True","encumbrance_certificate_number":"EC-GA-00000024-0024","encumbrance_type":"COURT_ATTACHMENT","financial_institution":"","mortgage_amount":"0.0","created_at":"2026-01-15T09:00:00Z","updated_at":"2026-09-24T11:30:00Z"}},{"type":"Feature","geometry":{"type":"Polygon","coordinates":[[[74.05665464401683,15.13413822232989],[74.10952414495861,15.13413822232989],[74.11858733459192,15.185830280507805],[74.05872906702295,15.195586691007243],[74.05665464401683,15.13413822232989]]]},"properties":{"ulpin":"30161897160176","parcel_id":"527b6220-032e-4c77-adea-f4bec8402e88","state":"Goa","state_code":"GA","state_type":"STATE","state_lgd_code":"30","district_lgd_code":"550","district_name":"North Goa","subdistrict_lgd_code":"5201","subdistrict_name":"Bardez Taluka","subdistrict_type":"Tehsil / Taluk","village_lgd_code":"612040","village_name":"Calangute","khasra_plot_no":"Sy. 182/4-A/D25","recorded_area":"850.0","recorded_area_unit":"Square Meter","normalized_area_sqm":"850.0","gis_area_sqm":"850.0","land_use_category":"RESIDENTIAL","land_use_raw":"Orchard / Coconut Grove","status":"AMALGAMATED","data_freshness_status":"CURRENT","scenario_index":"3519","use_case_description":"Subdivision or amalgamation history review","mutation_workflow_status":"REJECTED","revenue_record_id":"ROR-GA-2025-1006-0025","revenue_record_type":"Form I & XIV (DSLR Goa)","khata_khewat_no":"KHT-56","khatauni_no":"KHN-156","owner_name":"Antonio Fernandes & Maria Fernandes","owner_name_local":"अँटोनियो फर्नांडिस","co_owners":"","tenure_type":"Government Grant","mutation_status":"REJECTED","active_mutation_id":"MUT-GA-00000025","tax_demand_status":"PAID","annual_tax_inr":"185.5","deed_number":"DEED-GA-2024-406-0025","deed_type":"Sale Deed / Conveyance","sro_office":"Sub-Registrar Office, Bardez Taluka","execution_date":"2024-05-10","registered_owner":"Registry Variance Owner 25","seller_name":"Previous Landholder","consideration_amount_inr":"3500000.0","stamp_duty_inr":"210000.0","survey_sketch_id":"FMB-GA-06-0025","cadastral_sheet_no":"SHT-GA-06","surveyed_area_sqm":"850.0","survey_status":"RESURVEY_REQUIRED","urban_authority":"Bardez Taluka Urban Development & Town Planning Authority","zone_name":"Agricultural / Green Buffer","permitted_land_use":"RESIDENTIAL","building_permission_status":"NOT_APPLICABLE","violations_reported":"False","is_encumbered":"True","encumbrance_certificate_number":"EC-GA-00000025-0025","encumbrance_type":"TRIBAL_NON_ALIENATION","financial_institution":"","mortgage_amount":"0.0","created_at":"2026-01-15T09:00:00Z","updated_at":"2026-09-24T11:30:00Z"}}]}