{"type":"FeatureCollection","features":[{"type":"Feature","geometry":{"type":"Polygon","coordinates":[[[78.6956243859654,34.6105017102602],[79.04790921048478,34.66308322814486],[79.04790921048478,34.972353604385916],[78.73555501219235,34.972353604385916],[78.6956243859654,34.6105017102602]]]},"properties":{"ulpin":"37970735092431","parcel_id":"91272fea-f43e-4296-b5bd-da2db9ad54c0","state":"Ladakh","state_code":"LA","state_type":"UT","state_lgd_code":"37","district_lgd_code":"620","district_name":"Leh","subdistrict_lgd_code":"6101","subdistrict_name":"Leh Tehsil","subdistrict_type":"Tehsil / Taluk","village_lgd_code":"660102","village_name":"Choglamsar","khasra_plot_no":"Khasra 190/D1","recorded_area":"1.5","recorded_area_unit":"Kanal-Marla","normalized_area_sqm":"758.79","gis_area_sqm":"758.79","land_use_category":"OTHER","land_use_raw":"Agricultural Valley Terrace","status":"SUBDIVIDED","data_freshness_status":"UNKNOWN","scenario_index":"19970","use_case_description":"Archived historical record for audit retrieval","mutation_workflow_status":"SLA_BREACHED","revenue_record_id":"ROR-LA-2025-1034-0001","revenue_record_type":"Jamabandi (Ladakh Revenue)","khata_khewat_no":"KHT-84","khatauni_no":"KHN-184","owner_name":"Stanzin Dorjey","owner_name_local":"Stanzin Dorjey","co_owners":"","tenure_type":"Leasehold","mutation_status":"UNMUTATED_TRANSACTION","active_mutation_id":"MUT-LA-00000001","tax_demand_status":"PAID","annual_tax_inr":"185.5","deed_number":"DEED-LA-2024-434-0001","deed_type":"Sale Deed / Conveyance","sro_office":"Sub-Registrar Office, Leh Tehsil","execution_date":"2024-05-10","registered_owner":"Stanzin Dorjey","seller_name":"Previous Landholder","consideration_amount_inr":"3500000.0","stamp_duty_inr":"210000.0","survey_sketch_id":"FMB-LA-34-0001","cadastral_sheet_no":"SHT-LA-34","surveyed_area_sqm":"758.79","survey_status":"DISPUTED","urban_authority":"Leh Tehsil Urban Development & Town Planning Authority","zone_name":"Agricultural / Green Buffer","permitted_land_use":"OTHER","building_permission_status":"REJECTED","violations_reported":"False","is_encumbered":"True","encumbrance_certificate_number":"EC-LA-00000001-0001","encumbrance_type":"COURT_ATTACHMENT","financial_institution":"","mortgage_amount":"0.0","created_at":"2026-01-15T09:00:00Z","updated_at":"2026-09-24T11:30:00Z"}},{"type":"Feature","geometry":{"type":"Polygon","coordinates":[[[78.35607246398406,34.59607251360466],[78.6956243859654,34.6105017102602],[78.73555501219235,34.972353604385916],[78.35607246398406,34.972353604385916],[78.35607246398406,34.59607251360466]]]},"properties":{"ulpin":"37338962429590","parcel_id":"c3074672-7616-4d09-b7fb-2e35bfc499cd","state":"Ladakh","state_code":"LA","state_type":"UT","state_lgd_code":"37","district_lgd_code":"620","district_name":"Leh","subdistrict_lgd_code":"6101","subdistrict_name":"Leh Tehsil","subdistrict_type":"Tehsil / Taluk","village_lgd_code":"660102","village_name":"Choglamsar","khasra_plot_no":"Khasra 190/D2","recorded_area":"1.5","recorded_area_unit":"Kanal-Marla","normalized_area_sqm":"758.79","gis_area_sqm":"758.79","land_use_category":"RESIDENTIAL","land_use_raw":"Agricultural Valley Terrace","status":"AMALGAMATED","data_freshness_status":"CURRENT","scenario_index":"19971","use_case_description":"Bank mortgage and active encumbrance","mutation_workflow_status":"SUBMITTED","revenue_record_id":"ROR-LA-2025-1034-0002","revenue_record_type":"Jamabandi (Ladakh Revenue)","khata_khewat_no":"KHT-84","khatauni_no":"KHN-184","owner_name":"Stanzin Dorjey","owner_name_local":"Stanzin Dorjey","co_owners":"","tenure_type":"Government Grant","mutation_status":"REJECTED","active_mutation_id":"MUT-LA-00000002","tax_demand_status":"PAID","annual_tax_inr":"185.5","deed_number":"DEED-LA-2024-434-0002","deed_type":"Sale Deed / Conveyance","sro_office":"Sub-Registrar Office, Leh Tehsil","execution_date":"2024-05-10","registered_owner":"Stanzin Dorjey","seller_name":"Previous Landholder","consideration_amount_inr":"3500000.0","stamp_duty_inr":"210000.0","survey_sketch_id":"FMB-LA-34-0002","cadastral_sheet_no":"SHT-LA-34","surveyed_area_sqm":"758.79","survey_status":"RESURVEY_REQUIRED","urban_authority":"Leh Tehsil Urban Development & Town Planning Authority","zone_name":"Agricultural / Green Buffer","permitted_land_use":"RESIDENTIAL","building_permission_status":"NOT_APPLICABLE","violations_reported":"True","is_encumbered":"True","encumbrance_certificate_number":"EC-LA-00000002-0002","encumbrance_type":"TRIBAL_NON_ALIENATION","financial_institution":"","mortgage_amount":"0.0","created_at":"2026-01-15T09:00:00Z","updated_at":"2026-09-24T11:30:00Z"}},{"type":"Feature","geometry":{"type":"Polygon","coordinates":[[[78.37121688442195,35.44234290401325],[78.7537078133119,35.45470240649383],[78.65308334810715,35.71707405018166],[78.37121688442195,35.71707405018166],[78.37121688442195,35.44234290401325]]]},"properties":{"ulpin":"37815372376113","parcel_id":"1ec9f761-ee17-4125-8c41-07ab023aa70c","state":"Ladakh","state_code":"LA","state_type":"UT","state_lgd_code":"37","district_lgd_code":"620","district_name":"Leh","subdistrict_lgd_code":"6101","subdistrict_name":"Leh Tehsil","subdistrict_type":"Tehsil / Taluk","village_lgd_code":"660102","village_name":"Choglamsar","khasra_plot_no":"Khasra 190/D3","recorded_area":"1.5","recorded_area_unit":"Kanal-Marla","normalized_area_sqm":"758.79","gis_area_sqm":"758.79","land_use_category":"COMMERCIAL","land_use_raw":"Agricultural Valley Terrace","status":"DISPUTED","data_freshness_status":"STALE","scenario_index":"19972","use_case_description":"Government revenue lien and tax demand","mutation_workflow_status":"UNDER_VERIFICATION","revenue_record_id":"ROR-LA-2025-1034-0003","revenue_record_type":"Jamabandi (Ladakh Revenue)","khata_khewat_no":"KHT-84","khatauni_no":"KHN-184","owner_name":"Stanzin Dorjey","owner_name_local":"Stanzin Dorjey","co_owners":"","tenure_type":"Waqf / Religious Trust","mutation_status":"DISPUTED","active_mutation_id":"MUT-LA-00000003","tax_demand_status":"PAID","annual_tax_inr":"185.5","deed_number":"DEED-LA-2024-434-0003","deed_type":"Sale Deed / Conveyance","sro_office":"Sub-Registrar Office, Leh Tehsil","execution_date":"2024-05-10","registered_owner":"Stanzin Dorjey","seller_name":"Previous Landholder","consideration_amount_inr":"3500000.0","stamp_duty_inr":"210000.0","survey_sketch_id":"FMB-LA-34-0003","cadastral_sheet_no":"SHT-LA-34","surveyed_area_sqm":"758.79","survey_status":"SURVEYED","urban_authority":"Leh Tehsil Urban Development & Town Planning Authority","zone_name":"Agricultural / Green Buffer","permitted_land_use":"COMMERCIAL","building_permission_status":"SANCTIONED","violations_reported":"False","is_encumbered":"True","encumbrance_certificate_number":"EC-LA-00000003-0003","encumbrance_type":"LEASE_CHARGE","financial_institution":"","mortgage_amount":"0.0","created_at":"2026-01-15T09:00:00Z","updated_at":"2026-09-24T11:30:00Z"}},{"type":"Feature","geometry":{"type":"Polygon","coordinates":[[[78.69519452364958,35.098687378665396],[79.03158610073947,35.098687378665396],[79.03158610073947,35.415986086502805],[78.7537078133119,35.45470240649383],[78.69519452364958,35.098687378665396]]]},"properties":{"ulpin":"37387033937887","parcel_id":"af11f875-fdb3-43c2-8a1c-2a16f1b102c1","state":"Ladakh","state_code":"LA","state_type":"UT","state_lgd_code":"37","district_lgd_code":"620","district_name":"Leh","subdistrict_lgd_code":"6101","subdistrict_name":"Leh Tehsil","subdistrict_type":"Tehsil / Taluk","village_lgd_code":"660102","village_name":"Choglamsar","khasra_plot_no":"Khasra 190/D4","recorded_area":"1.5","recorded_area_unit":"Kanal-Marla","normalized_area_sqm":"758.79","gis_area_sqm":"758.79","land_use_category":"INDUSTRIAL","land_use_raw":"Agricultural Valley Terrace","status":"ARCHIVED","data_freshness_status":"UNKNOWN","scenario_index":"19973","use_case_description":"Bank mortgage and active encumbrance","mutation_workflow_status":"NOTICE_PERIOD","revenue_record_id":"ROR-LA-2025-1034-0004","revenue_record_type":"Jamabandi (Ladakh Revenue)","khata_khewat_no":"KHT-84","khatauni_no":"KHN-184","owner_name":"Stanzin Dorjey","owner_name_local":"Stanzin Dorjey","co_owners":"","tenure_type":"Tribal Community Tenure","mutation_status":"NONE","active_mutation_id":"MUT-LA-00000004","tax_demand_status":"PAID","annual_tax_inr":"185.5","deed_number":"DEED-LA-2024-434-0004","deed_type":"Sale Deed / Conveyance","sro_office":"Sub-Registrar Office, Leh Tehsil","execution_date":"2024-05-10","registered_owner":"Stanzin Dorjey","seller_name":"Previous Landholder","consideration_amount_inr":"3500000.0","stamp_duty_inr":"210000.0","survey_sketch_id":"FMB-LA-34-0004","cadastral_sheet_no":"SHT-LA-34","surveyed_area_sqm":"758.79","survey_status":"PENDING","urban_authority":"Leh Tehsil Urban Development & Town Planning Authority","zone_name":"Agricultural / Green Buffer","permitted_land_use":"INDUSTRIAL","building_permission_status":"PENDING","violations_reported":"False","is_encumbered":"False","encumbrance_certificate_number":"EC-LA-2024-134-0004","encumbrance_type":"NIL","financial_institution":"","mortgage_amount":"0.0","created_at":"2026-01-15T09:00:00Z","updated_at":"2026-09-24T11:30:00Z"}},{"type":"Feature","geometry":{"type":"Polygon","coordinates":[[[78.37121688442195,35.098687378665396],[78.69519452364958,35.098687378665396],[78.7537078133119,35.45470240649383],[78.37121688442195,35.44234290401325],[78.37121688442195,35.098687378665396]]]},"properties":{"ulpin":"37154187138021","parcel_id":"3b34b1db-935f-4453-9ac9-6c5654314340","state":"Ladakh","state_code":"LA","state_type":"UT","state_lgd_code":"37","district_lgd_code":"620","district_name":"Leh","subdistrict_lgd_code":"6101","subdistrict_name":"Leh Tehsil","subdistrict_type":"Tehsil / Taluk","village_lgd_code":"660102","village_name":"Choglamsar","khasra_plot_no":"Khasra 190/D5","recorded_area":"1.5","recorded_area_unit":"Kanal-Marla","normalized_area_sqm":"758.79","gis_area_sqm":"758.79","land_use_category":"AGRICULTURAL","land_use_raw":"Agricultural Valley Terrace","status":"ACTIVE","data_freshness_status":"CURRENT","scenario_index":"19974","use_case_description":"Tribal non-alienation protection review","mutation_workflow_status":"HEARING_SCHEDULED","revenue_record_id":"ROR-LA-2025-1034-0005","revenue_record_type":"Jamabandi (Ladakh Revenue)","khata_khewat_no":"KHT-84","khatauni_no":"KHN-184","owner_name":"Stanzin Dorjey","owner_name_local":"Stanzin Dorjey","co_owners":"","tenure_type":"Bhumiswami / Raiyati with Transferable Rights","mutation_status":"MUTATED","active_mutation_id":"","tax_demand_status":"PAID","annual_tax_inr":"185.5","deed_number":"DEED-LA-2024-434-0005","deed_type":"Sale Deed / Conveyance","sro_office":"Sub-Registrar Office, Leh Tehsil","execution_date":"2024-05-10","registered_owner":"Registry Variance Owner 5","seller_name":"Previous Landholder","consideration_amount_inr":"3500000.0","stamp_duty_inr":"210000.0","survey_sketch_id":"FMB-LA-34-0005","cadastral_sheet_no":"SHT-LA-34","surveyed_area_sqm":"758.79","survey_status":"DISPUTED","urban_authority":"Leh Tehsil Urban Development & Town Planning Authority","zone_name":"Agricultural / Green Buffer","permitted_land_use":"AGRICULTURAL","building_permission_status":"REJECTED","violations_reported":"False","is_encumbered":"True","encumbrance_certificate_number":"EC-LA-00000005-0005","encumbrance_type":"BANK_MORTGAGE","financial_institution":"","mortgage_amount":"0.0","created_at":"2026-01-15T09:00:00Z","updated_at":"2026-09-24T11:30:00Z"}},{"type":"Feature","geometry":{"type":"Polygon","coordinates":[[[78.69561091054771,34.312861298000016],[79.04790921048478,34.312861298000016],[79.04790921048478,34.66308322814486],[78.6956243859654,34.6105017102602],[78.69561091054771,34.312861298000016]]]},"properties":{"ulpin":"37424892231661","parcel_id":"796810a1-0707-49c5-b2cd-52d50ed34e50","state":"Ladakh","state_code":"LA","state_type":"UT","state_lgd_code":"37","district_lgd_code":"620","district_name":"Leh","subdistrict_lgd_code":"6101","subdistrict_name":"Leh Tehsil","subdistrict_type":"Tehsil / Taluk","village_lgd_code":"660102","village_name":"Choglamsar","khasra_plot_no":"Khasra 190/D6","recorded_area":"1.5","recorded_area_unit":"Kanal-Marla","normalized_area_sqm":"758.79","gis_area_sqm":"758.79","land_use_category":"INSTITUTIONAL","land_use_raw":"Agricultural Valley Terrace","status":"PENDING_MUTATION","data_freshness_status":"STALE","scenario_index":"19975","use_case_description":"Lease charge and institutional tenancy","mutation_workflow_status":"APPROVED","revenue_record_id":"ROR-LA-2025-1034-0006","revenue_record_type":"Jamabandi (Ladakh Revenue)","khata_khewat_no":"KHT-84","khatauni_no":"KHN-184","owner_name":"Stanzin Dorjey","owner_name_local":"Stanzin Dorjey","co_owners":"","tenure_type":"Bhumiswami / Freehold","mutation_status":"PENDING","active_mutation_id":"MUT-LA-00000006","tax_demand_status":"PAID","annual_tax_inr":"185.5","deed_number":"DEED-LA-2024-434-0006","deed_type":"Sale Deed / Conveyance","sro_office":"Sub-Registrar Office, Leh Tehsil","execution_date":"2024-05-10","registered_owner":"Stanzin Dorjey","seller_name":"Previous Landholder","consideration_amount_inr":"3500000.0","stamp_duty_inr":"210000.0","survey_sketch_id":"FMB-LA-34-0006","cadastral_sheet_no":"SHT-LA-34","surveyed_area_sqm":"758.79","survey_status":"RESURVEY_REQUIRED","urban_authority":"Leh Tehsil Urban Development & Town Planning Authority","zone_name":"Agricultural / Green Buffer","permitted_land_use":"INSTITUTIONAL","building_permission_status":"NOT_APPLICABLE","violations_reported":"False","is_encumbered":"True","encumbrance_certificate_number":"EC-LA-00000006-0006","encumbrance_type":"GOVT_REVENUE_LIEN","financial_institution":"","mortgage_amount":"0.0","created_at":"2026-01-15T09:00:00Z","updated_at":"2026-09-24T11:30:00Z"}}]}