{"type":"FeatureCollection","features":[{"type":"Feature","geometry":{"type":"Polygon","coordinates":[[[72.45403463925194,10.549674308277483],[72.49916664184784,10.549674308277483],[72.50379711658533,10.586133668176947],[72.45403463925194,10.586133668176947],[72.45403463925194,10.549674308277483]]]},"properties":{"ulpin":"31293244105785","parcel_id":"5cd58d73-d45e-41c1-ba77-a935b17bb8f3","state":"Lakshadweep","state_code":"LD","state_type":"UT","state_lgd_code":"31","district_lgd_code":"555","district_name":"Lakshadweep","subdistrict_lgd_code":"5401","subdistrict_name":"Kavaratti Island","subdistrict_type":"Tehsil / Taluk","village_lgd_code":"619010","village_name":"Kavaratti","khasra_plot_no":"Sy. 42/Jenmam 14/D1","recorded_area":"600.0","recorded_area_unit":"Square Meter","normalized_area_sqm":"600.0","gis_area_sqm":"600.0","land_use_category":"FOREST_GREEN_BELT","land_use_raw":"Coconut Homestead","status":"SUBDIVIDED","data_freshness_status":"UNKNOWN","scenario_index":"19976","use_case_description":"Subdivision or amalgamation history review","mutation_workflow_status":"REJECTED","revenue_record_id":"ROR-LD-2025-1035-0001","revenue_record_type":"Jenmam & Pandaram Land Register","khata_khewat_no":"KHT-85","khatauni_no":"KHN-185","owner_name":"P. P. Mohammed Koya","owner_name_local":"പി. പി. മുഹമ്മദ് കോയ","co_owners":"","tenure_type":"Leasehold","mutation_status":"UNMUTATED_TRANSACTION","active_mutation_id":"MUT-LD-00000001","tax_demand_status":"PAID","annual_tax_inr":"185.5","deed_number":"DEED-LD-2024-435-0001","deed_type":"Sale Deed / Conveyance","sro_office":"Sub-Registrar Office, Kavaratti Island","execution_date":"2024-05-10","registered_owner":"P. P. Mohammed Koya","seller_name":"Previous Landholder","consideration_amount_inr":"3500000.0","stamp_duty_inr":"210000.0","survey_sketch_id":"FMB-LD-35-0001","cadastral_sheet_no":"SHT-LD-35","surveyed_area_sqm":"600.0","survey_status":"SURVEYED","urban_authority":"Kavaratti Island Urban Development & Town Planning Authority","zone_name":"Agricultural / Green Buffer","permitted_land_use":"FOREST_GREEN_BELT","building_permission_status":"SANCTIONED","violations_reported":"False","is_encumbered":"True","encumbrance_certificate_number":"EC-LD-00000001-0001","encumbrance_type":"COURT_ATTACHMENT","financial_institution":"","mortgage_amount":"0.0","created_at":"2026-01-15T09:00:00Z","updated_at":"2026-09-24T11:30:00Z"}},{"type":"Feature","geometry":{"type":"Polygon","coordinates":[[[72.59590595487728,10.552468099107976],[72.67756660599966,10.552468099107976],[72.67756660599966,10.589021137603822],[72.59590595487728,10.589021137603822],[72.59590595487728,10.552468099107976]]]},"properties":{"ulpin":"31895935872382","parcel_id":"a450bdf4-7bf4-4e31-b0ed-1a6fdfe0db17","state":"Lakshadweep","state_code":"LD","state_type":"UT","state_lgd_code":"31","district_lgd_code":"555","district_name":"Lakshadweep","subdistrict_lgd_code":"5401","subdistrict_name":"Kavaratti Island","subdistrict_type":"Tehsil / Taluk","village_lgd_code":"619010","village_name":"Kavaratti","khasra_plot_no":"Sy. 42/Jenmam 14/D2","recorded_area":"600.0","recorded_area_unit":"Square Meter","normalized_area_sqm":"600.0","gis_area_sqm":"600.0","land_use_category":"WATER_BODY","land_use_raw":"Coconut Homestead","status":"AMALGAMATED","data_freshness_status":"CURRENT","scenario_index":"19977","use_case_description":"Archived historical record for audit retrieval","mutation_workflow_status":"SLA_BREACHED","revenue_record_id":"ROR-LD-2025-1035-0002","revenue_record_type":"Jenmam & Pandaram Land Register","khata_khewat_no":"KHT-85","khatauni_no":"KHN-185","owner_name":"P. P. Mohammed Koya","owner_name_local":"പി. പി. മുഹമ്മദ് കോയ","co_owners":"","tenure_type":"Government Grant","mutation_status":"REJECTED","active_mutation_id":"MUT-LD-00000002","tax_demand_status":"PAID","annual_tax_inr":"185.5","deed_number":"DEED-LD-2024-435-0002","deed_type":"Sale Deed / Conveyance","sro_office":"Sub-Registrar Office, Kavaratti Island","execution_date":"2024-05-10","registered_owner":"P. P. Mohammed Koya","seller_name":"Previous Landholder","consideration_amount_inr":"3500000.0","stamp_duty_inr":"210000.0","survey_sketch_id":"FMB-LD-35-0002","cadastral_sheet_no":"SHT-LD-35","surveyed_area_sqm":"600.0","survey_status":"PENDING","urban_authority":"Kavaratti Island Urban Development & Town Planning Authority","zone_name":"Agricultural / Green Buffer","permitted_land_use":"WATER_BODY","building_permission_status":"PENDING","violations_reported":"False","is_encumbered":"True","encumbrance_certificate_number":"EC-LD-00000002-0002","encumbrance_type":"TRIBAL_NON_ALIENATION","financial_institution":"","mortgage_amount":"0.0","created_at":"2026-01-15T09:00:00Z","updated_at":"2026-09-24T11:30:00Z"}}]}