{"type":"FeatureCollection","features":[{"type":"Feature","geometry":{"type":"Polygon","coordinates":[[[92.22642304868519,23.877300664201243],[92.45095927753897,23.877300664201243],[92.43435178116044,24.08766245768363],[92.20498113164854,24.15779141230898],[92.22642304868519,23.877300664201243]]]},"properties":{"ulpin":"15446508774064","parcel_id":"0219e562-ef28-4ef0-b891-52297de86082","state":"Mizoram","state_code":"MZ","state_type":"STATE","state_lgd_code":"15","district_lgd_code":"260","district_name":"Aizawl","subdistrict_lgd_code":"2410","subdistrict_name":"Tlangnuam Block","subdistrict_type":"Tehsil / Taluk","village_lgd_code":"289105","village_name":"Khatla Veng","khasra_plot_no":"LSC-AZL-2019-94/D1","recorded_area":"450.0","recorded_area_unit":"Square Meter","normalized_area_sqm":"450.0","gis_area_sqm":"450.0","land_use_category":"AGRICULTURAL","land_use_raw":"Town Plotted Residential","status":"ACTIVE","data_freshness_status":"CURRENT","scenario_index":"10308","use_case_description":"Lease charge and institutional tenancy","mutation_workflow_status":"APPROVED","revenue_record_id":"ROR-MZ-2025-1017-0001","revenue_record_type":"Land Settlement Certificate (LSC)","khata_khewat_no":"KHT-67","khatauni_no":"KHN-167","owner_name":"Lalrinsanga Sailo","owner_name_local":"Lalrinsanga Sailo","co_owners":"","tenure_type":"Bhumiswami / Raiyati with Transferable Rights","mutation_status":"MUTATED","active_mutation_id":"","tax_demand_status":"PAID","annual_tax_inr":"185.5","deed_number":"DEED-MZ-2024-417-0001","deed_type":"Sale Deed / Conveyance","sro_office":"Sub-Registrar Office, Tlangnuam Block","execution_date":"2024-05-10","registered_owner":"Lalrinsanga Sailo","seller_name":"Previous Landholder","consideration_amount_inr":"3500000.0","stamp_duty_inr":"210000.0","survey_sketch_id":"FMB-MZ-17-0001","cadastral_sheet_no":"SHT-MZ-17","surveyed_area_sqm":"450.0","survey_status":"SURVEYED","urban_authority":"Tlangnuam Block Urban Development & Town Planning Authority","zone_name":"Residential Zone","permitted_land_use":"AGRICULTURAL","building_permission_status":"SANCTIONED","violations_reported":"False","is_encumbered":"True","encumbrance_certificate_number":"EC-MZ-00000001-0001","encumbrance_type":"BANK_MORTGAGE","financial_institution":"","mortgage_amount":"0.0","created_at":"2026-01-15T09:00:00Z","updated_at":"2026-09-24T11:30:00Z"}},{"type":"Feature","geometry":{"type":"Polygon","coordinates":[[[93.19329182223906,23.54683861080437],[93.47002610990572,23.550262314659026],[93.44130869341332,23.805832628485696],[93.19329182223906,23.805832628485696],[93.19329182223906,23.54683861080437]]]},"properties":{"ulpin":"15549252784139","parcel_id":"a5f94f83-ad01-4c9f-ab99-850901dce6a8","state":"Mizoram","state_code":"MZ","state_type":"STATE","state_lgd_code":"15","district_lgd_code":"260","district_name":"Aizawl","subdistrict_lgd_code":"2410","subdistrict_name":"Tlangnuam Block","subdistrict_type":"Tehsil / Taluk","village_lgd_code":"289105","village_name":"Khatla Veng","khasra_plot_no":"LSC-AZL-2019-94/D2","recorded_area":"450.0","recorded_area_unit":"Square Meter","normalized_area_sqm":"450.0","gis_area_sqm":"450.0","land_use_category":"INSTITUTIONAL","land_use_raw":"Town Plotted Residential","status":"PENDING_MUTATION","data_freshness_status":"STALE","scenario_index":"10309","use_case_description":"Subdivision or amalgamation history review","mutation_workflow_status":"REJECTED","revenue_record_id":"ROR-MZ-2025-1017-0002","revenue_record_type":"Land Settlement Certificate (LSC)","khata_khewat_no":"KHT-67","khatauni_no":"KHN-167","owner_name":"Lalrinsanga Sailo","owner_name_local":"Lalrinsanga Sailo","co_owners":"","tenure_type":"Bhumiswami / Freehold","mutation_status":"PENDING","active_mutation_id":"MUT-MZ-00000002","tax_demand_status":"PAID","annual_tax_inr":"185.5","deed_number":"DEED-MZ-2024-417-0002","deed_type":"Sale Deed / Conveyance","sro_office":"Sub-Registrar Office, Tlangnuam Block","execution_date":"2024-05-10","registered_owner":"Registry Variance Owner 2","seller_name":"Previous Landholder","consideration_amount_inr":"3500000.0","stamp_duty_inr":"210000.0","survey_sketch_id":"FMB-MZ-17-0002","cadastral_sheet_no":"SHT-MZ-17","surveyed_area_sqm":"450.0","survey_status":"PENDING","urban_authority":"Tlangnuam Block Urban Development & Town Planning Authority","zone_name":"Residential Zone","permitted_land_use":"INSTITUTIONAL","building_permission_status":"PENDING","violations_reported":"False","is_encumbered":"True","encumbrance_certificate_number":"EC-MZ-00000002-0002","encumbrance_type":"GOVT_REVENUE_LIEN","financial_institution":"","mortgage_amount":"0.0","created_at":"2026-01-15T09:00:00Z","updated_at":"2026-09-24T11:30:00Z"}},{"type":"Feature","geometry":{"type":"Polygon","coordinates":[[[91.97223085982107,23.877300664201243],[92.22642304868519,23.877300664201243],[92.20498113164854,24.15779141230898],[91.97223085982107,24.08170012835723],[91.97223085982107,23.877300664201243]]]},"properties":{"ulpin":"15201686122291","parcel_id":"75c9f64e-97a6-49f2-b78a-4db2ba7a0080","state":"Mizoram","state_code":"MZ","state_type":"STATE","state_lgd_code":"15","district_lgd_code":"260","district_name":"Aizawl","subdistrict_lgd_code":"2410","subdistrict_name":"Tlangnuam Block","subdistrict_type":"Tehsil / Taluk","village_lgd_code":"289105","village_name":"Khatla Veng","khasra_plot_no":"LSC-AZL-2019-94/D3","recorded_area":"450.0","recorded_area_unit":"Square Meter","normalized_area_sqm":"450.0","gis_area_sqm":"450.0","land_use_category":"FOREST_GREEN_BELT","land_use_raw":"Town Plotted Residential","status":"SUBDIVIDED","data_freshness_status":"UNKNOWN","scenario_index":"10310","use_case_description":"Archived historical record for audit retrieval","mutation_workflow_status":"SLA_BREACHED","revenue_record_id":"ROR-MZ-2025-1017-0003","revenue_record_type":"Land Settlement Certificate (LSC)","khata_khewat_no":"KHT-67","khatauni_no":"KHN-167","owner_name":"Lalrinsanga Sailo","owner_name_local":"Lalrinsanga Sailo","co_owners":"","tenure_type":"Leasehold","mutation_status":"UNMUTATED_TRANSACTION","active_mutation_id":"MUT-MZ-00000003","tax_demand_status":"PAID","annual_tax_inr":"185.5","deed_number":"DEED-MZ-2024-417-0003","deed_type":"Sale Deed / Conveyance","sro_office":"Sub-Registrar Office, Tlangnuam Block","execution_date":"2024-05-10","registered_owner":"Lalrinsanga Sailo","seller_name":"Previous Landholder","consideration_amount_inr":"3500000.0","stamp_duty_inr":"210000.0","survey_sketch_id":"FMB-MZ-17-0003","cadastral_sheet_no":"SHT-MZ-17","surveyed_area_sqm":"450.0","survey_status":"DISPUTED","urban_authority":"Tlangnuam Block Urban Development & Town Planning Authority","zone_name":"Residential Zone","permitted_land_use":"FOREST_GREEN_BELT","building_permission_status":"REJECTED","violations_reported":"False","is_encumbered":"True","encumbrance_certificate_number":"EC-MZ-00000003-0003","encumbrance_type":"COURT_ATTACHMENT","financial_institution":"","mortgage_amount":"0.0","created_at":"2026-01-15T09:00:00Z","updated_at":"2026-09-24T11:30:00Z"}},{"type":"Feature","geometry":{"type":"Polygon","coordinates":[[[91.97223085982107,24.08170012835723],[92.20498113164854,24.15779141230898],[92.16113927273979,24.362289100758687],[91.97223085982107,24.362289100758687],[91.97223085982107,24.08170012835723]]]},"properties":{"ulpin":"15533417203988","parcel_id":"d94d51ab-de81-4148-8f8c-f45cfa05e433","state":"Mizoram","state_code":"MZ","state_type":"STATE","state_lgd_code":"15","district_lgd_code":"260","district_name":"Aizawl","subdistrict_lgd_code":"2410","subdistrict_name":"Tlangnuam Block","subdistrict_type":"Tehsil / Taluk","village_lgd_code":"289105","village_name":"Khatla Veng","khasra_plot_no":"LSC-AZL-2019-94/D4","recorded_area":"450.0","recorded_area_unit":"Square Meter","normalized_area_sqm":"450.0","gis_area_sqm":"450.0","land_use_category":"WATER_BODY","land_use_raw":"Town Plotted Residential","status":"AMALGAMATED","data_freshness_status":"CURRENT","scenario_index":"10311","use_case_description":"Bank mortgage and active encumbrance","mutation_workflow_status":"SUBMITTED","revenue_record_id":"ROR-MZ-2025-1017-0004","revenue_record_type":"Land Settlement Certificate (LSC)","khata_khewat_no":"KHT-67","khatauni_no":"KHN-167","owner_name":"Lalrinsanga Sailo","owner_name_local":"Lalrinsanga Sailo","co_owners":"","tenure_type":"Government Grant","mutation_status":"REJECTED","active_mutation_id":"MUT-MZ-00000004","tax_demand_status":"PAID","annual_tax_inr":"185.5","deed_number":"DEED-MZ-2024-417-0004","deed_type":"Sale Deed / Conveyance","sro_office":"Sub-Registrar Office, Tlangnuam Block","execution_date":"2024-05-10","registered_owner":"Lalrinsanga Sailo","seller_name":"Previous Landholder","consideration_amount_inr":"3500000.0","stamp_duty_inr":"210000.0","survey_sketch_id":"FMB-MZ-17-0004","cadastral_sheet_no":"SHT-MZ-17","surveyed_area_sqm":"450.0","survey_status":"RESURVEY_REQUIRED","urban_authority":"Tlangnuam Block Urban Development & Town Planning Authority","zone_name":"Residential Zone","permitted_land_use":"WATER_BODY","building_permission_status":"NOT_APPLICABLE","violations_reported":"True","is_encumbered":"True","encumbrance_certificate_number":"EC-MZ-00000004-0004","encumbrance_type":"TRIBAL_NON_ALIENATION","financial_institution":"","mortgage_amount":"0.0","created_at":"2026-01-15T09:00:00Z","updated_at":"2026-09-24T11:30:00Z"}},{"type":"Feature","geometry":{"type":"Polygon","coordinates":[[[92.45095927753897,23.877300664201243],[92.62722067688497,23.877300664201243],[92.67280094285634,24.132274532827427],[92.43435178116044,24.08766245768363],[92.45095927753897,23.877300664201243]]]},"properties":{"ulpin":"15730876871004","parcel_id":"d1eaf422-cc2b-449e-b12c-624bfde2aacb","state":"Mizoram","state_code":"MZ","state_type":"STATE","state_lgd_code":"15","district_lgd_code":"260","district_name":"Aizawl","subdistrict_lgd_code":"2410","subdistrict_name":"Tlangnuam Block","subdistrict_type":"Tehsil / Taluk","village_lgd_code":"289105","village_name":"Khatla Veng","khasra_plot_no":"LSC-AZL-2019-94/D5","recorded_area":"450.0","recorded_area_unit":"Square Meter","normalized_area_sqm":"450.0","gis_area_sqm":"450.0","land_use_category":"MIXED_USE","land_use_raw":"Town Plotted Residential","status":"DISPUTED","data_freshness_status":"STALE","scenario_index":"10312","use_case_description":"Government revenue lien and tax demand","mutation_workflow_status":"UNDER_VERIFICATION","revenue_record_id":"ROR-MZ-2025-1017-0005","revenue_record_type":"Land Settlement Certificate (LSC)","khata_khewat_no":"KHT-67","khatauni_no":"KHN-167","owner_name":"Lalrinsanga Sailo","owner_name_local":"Lalrinsanga Sailo","co_owners":"","tenure_type":"Waqf / Religious Trust","mutation_status":"DISPUTED","active_mutation_id":"MUT-MZ-00000005","tax_demand_status":"PAID","annual_tax_inr":"185.5","deed_number":"DEED-MZ-2024-417-0005","deed_type":"Sale Deed / Conveyance","sro_office":"Sub-Registrar Office, Tlangnuam Block","execution_date":"2024-05-10","registered_owner":"Lalrinsanga Sailo","seller_name":"Previous Landholder","consideration_amount_inr":"3500000.0","stamp_duty_inr":"210000.0","survey_sketch_id":"FMB-MZ-17-0005","cadastral_sheet_no":"SHT-MZ-17","surveyed_area_sqm":"450.0","survey_status":"SURVEYED","urban_authority":"Tlangnuam Block Urban Development & Town Planning Authority","zone_name":"Residential Zone","permitted_land_use":"MIXED_USE","building_permission_status":"SANCTIONED","violations_reported":"False","is_encumbered":"True","encumbrance_certificate_number":"EC-MZ-00000005-0005","encumbrance_type":"LEASE_CHARGE","financial_institution":"","mortgage_amount":"0.0","created_at":"2026-01-15T09:00:00Z","updated_at":"2026-09-24T11:30:00Z"}},{"type":"Feature","geometry":{"type":"Polygon","coordinates":[[[93.71599236362806,23.32644823514692],[93.90110071207627,23.32644823514692],[93.9388796835805,23.553849963970613],[93.72586122249434,23.538895004197244],[93.71599236362806,23.32644823514692]]]},"properties":{"ulpin":"15942013593758","parcel_id":"95c02931-cfd8-457b-968c-2825dae99e96","state":"Mizoram","state_code":"MZ","state_type":"STATE","state_lgd_code":"15","district_lgd_code":"260","district_name":"Aizawl","subdistrict_lgd_code":"2410","subdistrict_name":"Tlangnuam Block","subdistrict_type":"Tehsil / Taluk","village_lgd_code":"289105","village_name":"Khatla Veng","khasra_plot_no":"LSC-AZL-2019-94/D6","recorded_area":"450.0","recorded_area_unit":"Square Meter","normalized_area_sqm":"450.0","gis_area_sqm":"450.0","land_use_category":"OTHER","land_use_raw":"Town Plotted Residential","status":"ARCHIVED","data_freshness_status":"UNKNOWN","scenario_index":"10313","use_case_description":"Bank mortgage and active encumbrance","mutation_workflow_status":"NOTICE_PERIOD","revenue_record_id":"ROR-MZ-2025-1017-0006","revenue_record_type":"Land Settlement Certificate (LSC)","khata_khewat_no":"KHT-67","khatauni_no":"KHN-167","owner_name":"Lalrinsanga Sailo","owner_name_local":"Lalrinsanga Sailo","co_owners":"","tenure_type":"Tribal Community Tenure","mutation_status":"NONE","active_mutation_id":"MUT-MZ-00000006","tax_demand_status":"PAID","annual_tax_inr":"185.5","deed_number":"DEED-MZ-2024-417-0006","deed_type":"Sale Deed / Conveyance","sro_office":"Sub-Registrar Office, Tlangnuam Block","execution_date":"2024-05-10","registered_owner":"Lalrinsanga Sailo","seller_name":"Previous Landholder","consideration_amount_inr":"3500000.0","stamp_duty_inr":"210000.0","survey_sketch_id":"FMB-MZ-17-0006","cadastral_sheet_no":"SHT-MZ-17","surveyed_area_sqm":"450.0","survey_status":"PENDING","urban_authority":"Tlangnuam Block Urban Development & Town Planning Authority","zone_name":"Residential Zone","permitted_land_use":"OTHER","building_permission_status":"PENDING","violations_reported":"False","is_encumbered":"False","encumbrance_certificate_number":"EC-MZ-2024-117-0006","encumbrance_type":"NIL","financial_institution":"","mortgage_amount":"0.0","created_at":"2026-01-15T09:00:00Z","updated_at":"2026-09-24T11:30:00Z"}},{"type":"Feature","geometry":{"type":"Polygon","coordinates":[[[93.28171218323344,24.101299707951878],[93.67213721485926,24.117151904865402],[93.67309610217816,24.32680459471523],[93.28171218323344,24.32680459471523],[93.28171218323344,24.101299707951878]]]},"properties":{"ulpin":"15544776906252","parcel_id":"215a871d-ae85-4b91-a12a-343af640bf08","state":"Mizoram","state_code":"MZ","state_type":"STATE","state_lgd_code":"15","district_lgd_code":"260","district_name":"Aizawl","subdistrict_lgd_code":"2410","subdistrict_name":"Tlangnuam Block","subdistrict_type":"Tehsil / Taluk","village_lgd_code":"289105","village_name":"Khatla Veng","khasra_plot_no":"LSC-AZL-2019-94/D7","recorded_area":"450.0","recorded_area_unit":"Square Meter","normalized_area_sqm":"450.0","gis_area_sqm":"450.0","land_use_category":"RESIDENTIAL","land_use_raw":"Town Plotted Residential","status":"ACTIVE","data_freshness_status":"CURRENT","scenario_index":"10314","use_case_description":"Tribal non-alienation protection review","mutation_workflow_status":"HEARING_SCHEDULED","revenue_record_id":"ROR-MZ-2025-1017-0007","revenue_record_type":"Land Settlement Certificate (LSC)","khata_khewat_no":"KHT-67","khatauni_no":"KHN-167","owner_name":"Lalrinsanga Sailo","owner_name_local":"Lalrinsanga Sailo","co_owners":"","tenure_type":"Bhumiswami / Raiyati with Transferable Rights","mutation_status":"MUTATED","active_mutation_id":"","tax_demand_status":"PAID","annual_tax_inr":"185.5","deed_number":"DEED-MZ-2024-417-0007","deed_type":"Sale Deed / Conveyance","sro_office":"Sub-Registrar Office, Tlangnuam Block","execution_date":"2024-05-10","registered_owner":"Registry Variance Owner 7","seller_name":"Previous Landholder","consideration_amount_inr":"3500000.0","stamp_duty_inr":"210000.0","survey_sketch_id":"FMB-MZ-17-0007","cadastral_sheet_no":"SHT-MZ-17","surveyed_area_sqm":"450.0","survey_status":"DISPUTED","urban_authority":"Tlangnuam Block Urban Development & Town Planning Authority","zone_name":"Residential Zone","permitted_land_use":"RESIDENTIAL","building_permission_status":"REJECTED","violations_reported":"False","is_encumbered":"True","encumbrance_certificate_number":"EC-MZ-00000007-0007","encumbrance_type":"BANK_MORTGAGE","financial_institution":"","mortgage_amount":"0.0","created_at":"2026-01-15T09:00:00Z","updated_at":"2026-09-24T11:30:00Z"}},{"type":"Feature","geometry":{"type":"Polygon","coordinates":[[[92.62722067688497,23.877300664201243],[92.8595812831242,23.877300664201243],[92.8595812831242,24.121029185550142],[92.67280094285634,24.132274532827427],[92.62722067688497,23.877300664201243]]]},"properties":{"ulpin":"15457338921365","parcel_id":"f3cdec3d-4e0b-4b10-88e3-d117ba7c637b","state":"Mizoram","state_code":"MZ","state_type":"STATE","state_lgd_code":"15","district_lgd_code":"260","district_name":"Aizawl","subdistrict_lgd_code":"2410","subdistrict_name":"Tlangnuam Block","subdistrict_type":"Tehsil / Taluk","village_lgd_code":"289105","village_name":"Khatla Veng","khasra_plot_no":"LSC-AZL-2019-94/D8","recorded_area":"450.0","recorded_area_unit":"Square Meter","normalized_area_sqm":"450.0","gis_area_sqm":"450.0","land_use_category":"COMMERCIAL","land_use_raw":"Town Plotted Residential","status":"PENDING_MUTATION","data_freshness_status":"STALE","scenario_index":"10315","use_case_description":"Lease charge and institutional tenancy","mutation_workflow_status":"APPROVED","revenue_record_id":"ROR-MZ-2025-1017-0008","revenue_record_type":"Land Settlement Certificate (LSC)","khata_khewat_no":"KHT-67","khatauni_no":"KHN-167","owner_name":"Lalrinsanga Sailo","owner_name_local":"Lalrinsanga Sailo","co_owners":"","tenure_type":"Bhumiswami / Freehold","mutation_status":"PENDING","active_mutation_id":"MUT-MZ-00000008","tax_demand_status":"PAID","annual_tax_inr":"185.5","deed_number":"DEED-MZ-2024-417-0008","deed_type":"Sale Deed / Conveyance","sro_office":"Sub-Registrar Office, Tlangnuam Block","execution_date":"2024-05-10","registered_owner":"Lalrinsanga Sailo","seller_name":"Previous Landholder","consideration_amount_inr":"3500000.0","stamp_duty_inr":"210000.0","survey_sketch_id":"FMB-MZ-17-0008","cadastral_sheet_no":"SHT-MZ-17","surveyed_area_sqm":"450.0","survey_status":"RESURVEY_REQUIRED","urban_authority":"Tlangnuam Block Urban Development & Town Planning Authority","zone_name":"Residential Zone","permitted_land_use":"COMMERCIAL","building_permission_status":"NOT_APPLICABLE","violations_reported":"False","is_encumbered":"True","encumbrance_certificate_number":"EC-MZ-00000008-0008","encumbrance_type":"GOVT_REVENUE_LIEN","financial_institution":"","mortgage_amount":"0.0","created_at":"2026-01-15T09:00:00Z","updated_at":"2026-09-24T11:30:00Z"}},{"type":"Feature","geometry":{"type":"Polygon","coordinates":[[[93.28171218323344,23.865968585481074],[93.70586111271595,23.865968585481074],[93.67213721485926,24.117151904865402],[93.28171218323344,24.101299707951878],[93.28171218323344,23.865968585481074]]]},"properties":{"ulpin":"15476589049461","parcel_id":"6f531e39-f9c3-4664-984f-5c2f03a662a8","state":"Mizoram","state_code":"MZ","state_type":"STATE","state_lgd_code":"15","district_lgd_code":"260","district_name":"Aizawl","subdistrict_lgd_code":"2410","subdistrict_name":"Tlangnuam Block","subdistrict_type":"Tehsil / Taluk","village_lgd_code":"289105","village_name":"Khatla Veng","khasra_plot_no":"LSC-AZL-2019-94/D9","recorded_area":"450.0","recorded_area_unit":"Square Meter","normalized_area_sqm":"450.0","gis_area_sqm":"450.0","land_use_category":"INDUSTRIAL","land_use_raw":"Town Plotted Residential","status":"SUBDIVIDED","data_freshness_status":"UNKNOWN","scenario_index":"10316","use_case_description":"Subdivision or amalgamation history review","mutation_workflow_status":"REJECTED","revenue_record_id":"ROR-MZ-2025-1017-0009","revenue_record_type":"Land Settlement Certificate (LSC)","khata_khewat_no":"KHT-67","khatauni_no":"KHN-167","owner_name":"Lalrinsanga Sailo","owner_name_local":"Lalrinsanga Sailo","co_owners":"","tenure_type":"Leasehold","mutation_status":"UNMUTATED_TRANSACTION","active_mutation_id":"MUT-MZ-00000009","tax_demand_status":"PAID","annual_tax_inr":"185.5","deed_number":"DEED-MZ-2024-417-0009","deed_type":"Sale Deed / Conveyance","sro_office":"Sub-Registrar Office, Tlangnuam Block","execution_date":"2024-05-10","registered_owner":"Lalrinsanga Sailo","seller_name":"Previous Landholder","consideration_amount_inr":"3500000.0","stamp_duty_inr":"210000.0","survey_sketch_id":"FMB-MZ-17-0009","cadastral_sheet_no":"SHT-MZ-17","surveyed_area_sqm":"450.0","survey_status":"SURVEYED","urban_authority":"Tlangnuam Block Urban Development & Town Planning Authority","zone_name":"Residential Zone","permitted_land_use":"INDUSTRIAL","building_permission_status":"SANCTIONED","violations_reported":"False","is_encumbered":"True","encumbrance_certificate_number":"EC-MZ-00000009-0009","encumbrance_type":"COURT_ATTACHMENT","financial_institution":"","mortgage_amount":"0.0","created_at":"2026-01-15T09:00:00Z","updated_at":"2026-09-24T11:30:00Z"}},{"type":"Feature","geometry":{"type":"Polygon","coordinates":[[[93.45525104238705,23.32644823514692],[93.71599236362806,23.32644823514692],[93.72586122249434,23.538895004197244],[93.47002610990572,23.550262314659026],[93.45525104238705,23.32644823514692]]]},"properties":{"ulpin":"15605192923075","parcel_id":"ea196557-14da-4f8d-b734-982d6be0f7f9","state":"Mizoram","state_code":"MZ","state_type":"STATE","state_lgd_code":"15","district_lgd_code":"260","district_name":"Aizawl","subdistrict_lgd_code":"2410","subdistrict_name":"Tlangnuam Block","subdistrict_type":"Tehsil / Taluk","village_lgd_code":"289105","village_name":"Khatla Veng","khasra_plot_no":"LSC-AZL-2019-94/D10","recorded_area":"450.0","recorded_area_unit":"Square Meter","normalized_area_sqm":"450.0","gis_area_sqm":"450.0","land_use_category":"AGRICULTURAL","land_use_raw":"Town Plotted Residential","status":"AMALGAMATED","data_freshness_status":"CURRENT","scenario_index":"10317","use_case_description":"Archived historical record for audit retrieval","mutation_workflow_status":"SLA_BREACHED","revenue_record_id":"ROR-MZ-2025-1017-0010","revenue_record_type":"Land Settlement Certificate (LSC)","khata_khewat_no":"KHT-67","khatauni_no":"KHN-167","owner_name":"Lalrinsanga Sailo","owner_name_local":"Lalrinsanga Sailo","co_owners":"","tenure_type":"Government Grant","mutation_status":"REJECTED","active_mutation_id":"MUT-MZ-00000010","tax_demand_status":"PAID","annual_tax_inr":"185.5","deed_number":"DEED-MZ-2024-417-0010","deed_type":"Sale Deed / Conveyance","sro_office":"Sub-Registrar Office, Tlangnuam Block","execution_date":"2024-05-10","registered_owner":"Lalrinsanga Sailo","seller_name":"Previous Landholder","consideration_amount_inr":"3500000.0","stamp_duty_inr":"210000.0","survey_sketch_id":"FMB-MZ-17-0010","cadastral_sheet_no":"SHT-MZ-17","surveyed_area_sqm":"450.0","survey_status":"PENDING","urban_authority":"Tlangnuam Block Urban Development & Town Planning Authority","zone_name":"Residential Zone","permitted_land_use":"AGRICULTURAL","building_permission_status":"PENDING","violations_reported":"False","is_encumbered":"True","encumbrance_certificate_number":"EC-MZ-00000010-0010","encumbrance_type":"TRIBAL_NON_ALIENATION","financial_institution":"","mortgage_amount":"0.0","created_at":"2026-01-15T09:00:00Z","updated_at":"2026-09-24T11:30:00Z"}},{"type":"Feature","geometry":{"type":"Polygon","coordinates":[[[92.20498113164854,24.15779141230898],[92.43435178116044,24.08766245768363],[92.429076192371,24.362289100758687],[92.16113927273979,24.362289100758687],[92.20498113164854,24.15779141230898]]]},"properties":{"ulpin":"15353711765002","parcel_id":"7a46e895-c008-4b7f-8231-3fa7328afe04","state":"Mizoram","state_code":"MZ","state_type":"STATE","state_lgd_code":"15","district_lgd_code":"260","district_name":"Aizawl","subdistrict_lgd_code":"2410","subdistrict_name":"Tlangnuam Block","subdistrict_type":"Tehsil / Taluk","village_lgd_code":"289105","village_name":"Khatla Veng","khasra_plot_no":"LSC-AZL-2019-94/D11","recorded_area":"450.0","recorded_area_unit":"Square Meter","normalized_area_sqm":"450.0","gis_area_sqm":"450.0","land_use_category":"INSTITUTIONAL","land_use_raw":"Town Plotted Residential","status":"DISPUTED","data_freshness_status":"STALE","scenario_index":"10318","use_case_description":"Bank mortgage and active encumbrance","mutation_workflow_status":"SUBMITTED","revenue_record_id":"ROR-MZ-2025-1017-0011","revenue_record_type":"Land Settlement Certificate (LSC)","khata_khewat_no":"KHT-67","khatauni_no":"KHN-167","owner_name":"Lalrinsanga Sailo","owner_name_local":"Lalrinsanga Sailo","co_owners":"","tenure_type":"Waqf / Religious Trust","mutation_status":"DISPUTED","active_mutation_id":"MUT-MZ-00000011","tax_demand_status":"PAID","annual_tax_inr":"185.5","deed_number":"DEED-MZ-2024-417-0011","deed_type":"Sale Deed / Conveyance","sro_office":"Sub-Registrar Office, Tlangnuam Block","execution_date":"2024-05-10","registered_owner":"Lalrinsanga Sailo","seller_name":"Previous Landholder","consideration_amount_inr":"3500000.0","stamp_duty_inr":"210000.0","survey_sketch_id":"FMB-MZ-17-0011","cadastral_sheet_no":"SHT-MZ-17","surveyed_area_sqm":"450.0","survey_status":"DISPUTED","urban_authority":"Tlangnuam Block Urban Development & Town Planning Authority","zone_name":"Residential Zone","permitted_land_use":"INSTITUTIONAL","building_permission_status":"REJECTED","violations_reported":"True","is_encumbered":"True","encumbrance_certificate_number":"EC-MZ-00000011-0011","encumbrance_type":"LEASE_CHARGE","financial_institution":"","mortgage_amount":"0.0","created_at":"2026-01-15T09:00:00Z","updated_at":"2026-09-24T11:30:00Z"}},{"type":"Feature","geometry":{"type":"Polygon","coordinates":[[[93.19329182223906,23.32644823514692],[93.45525104238705,23.32644823514692],[93.47002610990572,23.550262314659026],[93.19329182223906,23.54683861080437],[93.19329182223906,23.32644823514692]]]},"properties":{"ulpin":"15653391772954","parcel_id":"3b7f7097-69c4-40ab-9f8b-2f624637e591","state":"Mizoram","state_code":"MZ","state_type":"STATE","state_lgd_code":"15","district_lgd_code":"260","district_name":"Aizawl","subdistrict_lgd_code":"2410","subdistrict_name":"Tlangnuam Block","subdistrict_type":"Tehsil / Taluk","village_lgd_code":"289105","village_name":"Khatla Veng","khasra_plot_no":"LSC-AZL-2019-94/D12","recorded_area":"450.0","recorded_area_unit":"Square Meter","normalized_area_sqm":"450.0","gis_area_sqm":"450.0","land_use_category":"FOREST_GREEN_BELT","land_use_raw":"Town Plotted Residential","status":"ARCHIVED","data_freshness_status":"UNKNOWN","scenario_index":"10319","use_case_description":"Archived historical record for audit retrieval","mutation_workflow_status":"UNDER_VERIFICATION","revenue_record_id":"ROR-MZ-2025-1017-0012","revenue_record_type":"Land Settlement Certificate (LSC)","khata_khewat_no":"KHT-67","khatauni_no":"KHN-167","owner_name":"Lalrinsanga Sailo","owner_name_local":"Lalrinsanga Sailo","co_owners":"","tenure_type":"Tribal Community Tenure","mutation_status":"NONE","active_mutation_id":"MUT-MZ-00000012","tax_demand_status":"PAID","annual_tax_inr":"185.5","deed_number":"DEED-MZ-2024-417-0012","deed_type":"Sale Deed / Conveyance","sro_office":"Sub-Registrar Office, Tlangnuam Block","execution_date":"2024-05-10","registered_owner":"Registry Variance Owner 12","seller_name":"Previous Landholder","consideration_amount_inr":"3500000.0","stamp_duty_inr":"210000.0","survey_sketch_id":"FMB-MZ-17-0012","cadastral_sheet_no":"SHT-MZ-17","surveyed_area_sqm":"450.0","survey_status":"RESURVEY_REQUIRED","urban_authority":"Tlangnuam Block Urban Development & Town Planning Authority","zone_name":"Residential Zone","permitted_land_use":"FOREST_GREEN_BELT","building_permission_status":"NOT_APPLICABLE","violations_reported":"False","is_encumbered":"False","encumbrance_certificate_number":"EC-MZ-2024-117-0012","encumbrance_type":"NIL","financial_institution":"","mortgage_amount":"0.0","created_at":"2026-01-15T09:00:00Z","updated_at":"2026-09-24T11:30:00Z"}},{"type":"Feature","geometry":{"type":"Polygon","coordinates":[[[92.67280094285634,24.132274532827427],[92.8595812831242,24.121029185550142],[92.8595812831242,24.362289100758687],[92.6241161133187,24.362289100758687],[92.67280094285634,24.132274532827427]]]},"properties":{"ulpin":"15611811831021","parcel_id":"4dd9f89a-acc0-4cf6-a7a0-537f752932d4","state":"Mizoram","state_code":"MZ","state_type":"STATE","state_lgd_code":"15","district_lgd_code":"260","district_name":"Aizawl","subdistrict_lgd_code":"2410","subdistrict_name":"Tlangnuam Block","subdistrict_type":"Tehsil / Taluk","village_lgd_code":"289105","village_name":"Khatla Veng","khasra_plot_no":"LSC-AZL-2019-94/D13","recorded_area":"450.0","recorded_area_unit":"Square Meter","normalized_area_sqm":"450.0","gis_area_sqm":"450.0","land_use_category":"WATER_BODY","land_use_raw":"Town Plotted Residential","status":"ACTIVE","data_freshness_status":"CURRENT","scenario_index":"10320","use_case_description":"Court attachment and disputed possession","mutation_workflow_status":"NOTICE_PERIOD","revenue_record_id":"ROR-MZ-2025-1017-0013","revenue_record_type":"Land Settlement Certificate (LSC)","khata_khewat_no":"KHT-67","khatauni_no":"KHN-167","owner_name":"Lalrinsanga Sailo","owner_name_local":"Lalrinsanga Sailo","co_owners":"","tenure_type":"Bhumiswami / Raiyati with Transferable Rights","mutation_status":"MUTATED","active_mutation_id":"","tax_demand_status":"PAID","annual_tax_inr":"185.5","deed_number":"DEED-MZ-2024-417-0013","deed_type":"Sale Deed / Conveyance","sro_office":"Sub-Registrar Office, Tlangnuam Block","execution_date":"2024-05-10","registered_owner":"Lalrinsanga Sailo","seller_name":"Previous Landholder","consideration_amount_inr":"3500000.0","stamp_duty_inr":"210000.0","survey_sketch_id":"FMB-MZ-17-0013","cadastral_sheet_no":"SHT-MZ-17","surveyed_area_sqm":"450.0","survey_status":"SURVEYED","urban_authority":"Tlangnuam Block Urban Development & Town Planning Authority","zone_name":"Residential Zone","permitted_land_use":"WATER_BODY","building_permission_status":"SANCTIONED","violations_reported":"False","is_encumbered":"True","encumbrance_certificate_number":"EC-MZ-00000013-0013","encumbrance_type":"BANK_MORTGAGE","financial_institution":"","mortgage_amount":"0.0","created_at":"2026-01-15T09:00:00Z","updated_at":"2026-09-24T11:30:00Z"}},{"type":"Feature","geometry":{"type":"Polygon","coordinates":[[[93.67213721485926,24.117151904865402],[94.07195309006471,24.06425314714369],[94.00942790908975,24.32680459471523],[93.67309610217816,24.32680459471523],[93.67213721485926,24.117151904865402]]]},"properties":{"ulpin":"15571753319824","parcel_id":"6d3d4268-2216-484f-b2a3-dd9a50c6a443","state":"Mizoram","state_code":"MZ","state_type":"STATE","state_lgd_code":"15","district_lgd_code":"260","district_name":"Aizawl","subdistrict_lgd_code":"2410","subdistrict_name":"Tlangnuam Block","subdistrict_type":"Tehsil / Taluk","village_lgd_code":"289105","village_name":"Khatla Veng","khasra_plot_no":"LSC-AZL-2019-94/D14","recorded_area":"450.0","recorded_area_unit":"Square Meter","normalized_area_sqm":"450.0","gis_area_sqm":"450.0","land_use_category":"MIXED_USE","land_use_raw":"Town Plotted Residential","status":"PENDING_MUTATION","data_freshness_status":"STALE","scenario_index":"10321","use_case_description":"Tribal non-alienation protection review","mutation_workflow_status":"HEARING_SCHEDULED","revenue_record_id":"ROR-MZ-2025-1017-0014","revenue_record_type":"Land Settlement Certificate (LSC)","khata_khewat_no":"KHT-67","khatauni_no":"KHN-167","owner_name":"Lalrinsanga Sailo","owner_name_local":"Lalrinsanga Sailo","co_owners":"","tenure_type":"Bhumiswami / Freehold","mutation_status":"PENDING","active_mutation_id":"MUT-MZ-00000014","tax_demand_status":"PAID","annual_tax_inr":"185.5","deed_number":"DEED-MZ-2024-417-0014","deed_type":"Sale Deed / Conveyance","sro_office":"Sub-Registrar Office, Tlangnuam Block","execution_date":"2024-05-10","registered_owner":"Lalrinsanga Sailo","seller_name":"Previous Landholder","consideration_amount_inr":"3500000.0","stamp_duty_inr":"210000.0","survey_sketch_id":"FMB-MZ-17-0014","cadastral_sheet_no":"SHT-MZ-17","surveyed_area_sqm":"450.0","survey_status":"PENDING","urban_authority":"Tlangnuam Block Urban Development & Town Planning Authority","zone_name":"Residential Zone","permitted_land_use":"MIXED_USE","building_permission_status":"PENDING","violations_reported":"False","is_encumbered":"True","encumbrance_certificate_number":"EC-MZ-00000014-0014","encumbrance_type":"GOVT_REVENUE_LIEN","financial_institution":"","mortgage_amount":"0.0","created_at":"2026-01-15T09:00:00Z","updated_at":"2026-09-24T11:30:00Z"}},{"type":"Feature","geometry":{"type":"Polygon","coordinates":[[[93.72586122249434,23.538895004197244],[93.9388796835805,23.553849963970613],[93.95521264195366,23.805832628485696],[93.70330546821334,23.805832628485696],[93.72586122249434,23.538895004197244]]]},"properties":{"ulpin":"15014252015897","parcel_id":"641acfe2-d748-4456-96a6-6ace68080cc9","state":"Mizoram","state_code":"MZ","state_type":"STATE","state_lgd_code":"15","district_lgd_code":"260","district_name":"Aizawl","subdistrict_lgd_code":"2410","subdistrict_name":"Tlangnuam Block","subdistrict_type":"Tehsil / Taluk","village_lgd_code":"289105","village_name":"Khatla Veng","khasra_plot_no":"LSC-AZL-2019-94/D15","recorded_area":"450.0","recorded_area_unit":"Square Meter","normalized_area_sqm":"450.0","gis_area_sqm":"450.0","land_use_category":"OTHER","land_use_raw":"Town Plotted Residential","status":"SUBDIVIDED","data_freshness_status":"UNKNOWN","scenario_index":"10322","use_case_description":"Lease charge and institutional tenancy","mutation_workflow_status":"APPROVED","revenue_record_id":"ROR-MZ-2025-1017-0015","revenue_record_type":"Land Settlement Certificate (LSC)","khata_khewat_no":"KHT-67","khatauni_no":"KHN-167","owner_name":"Lalrinsanga Sailo","owner_name_local":"Lalrinsanga Sailo","co_owners":"","tenure_type":"Leasehold","mutation_status":"UNMUTATED_TRANSACTION","active_mutation_id":"MUT-MZ-00000015","tax_demand_status":"PAID","annual_tax_inr":"185.5","deed_number":"DEED-MZ-2024-417-0015","deed_type":"Sale Deed / Conveyance","sro_office":"Sub-Registrar Office, Tlangnuam Block","execution_date":"2024-05-10","registered_owner":"Lalrinsanga Sailo","seller_name":"Previous Landholder","consideration_amount_inr":"3500000.0","stamp_duty_inr":"210000.0","survey_sketch_id":"FMB-MZ-17-0015","cadastral_sheet_no":"SHT-MZ-17","surveyed_area_sqm":"450.0","survey_status":"DISPUTED","urban_authority":"Tlangnuam Block Urban Development & Town Planning Authority","zone_name":"Residential Zone","permitted_land_use":"OTHER","building_permission_status":"REJECTED","violations_reported":"False","is_encumbered":"True","encumbrance_certificate_number":"EC-MZ-00000015-0015","encumbrance_type":"COURT_ATTACHMENT","financial_institution":"","mortgage_amount":"0.0","created_at":"2026-01-15T09:00:00Z","updated_at":"2026-09-24T11:30:00Z"}},{"type":"Feature","geometry":{"type":"Polygon","coordinates":[[[93.47002610990572,23.550262314659026],[93.72586122249434,23.538895004197244],[93.70330546821334,23.805832628485696],[93.44130869341332,23.805832628485696],[93.47002610990572,23.550262314659026]]]},"properties":{"ulpin":"15333781226222","parcel_id":"a264a40a-252e-47b4-8130-072abebf0b09","state":"Mizoram","state_code":"MZ","state_type":"STATE","state_lgd_code":"15","district_lgd_code":"260","district_name":"Aizawl","subdistrict_lgd_code":"2410","subdistrict_name":"Tlangnuam Block","subdistrict_type":"Tehsil / Taluk","village_lgd_code":"289105","village_name":"Khatla Veng","khasra_plot_no":"LSC-AZL-2019-94/D16","recorded_area":"450.0","recorded_area_unit":"Square Meter","normalized_area_sqm":"450.0","gis_area_sqm":"450.0","land_use_category":"RESIDENTIAL","land_use_raw":"Town Plotted Residential","status":"AMALGAMATED","data_freshness_status":"CURRENT","scenario_index":"10323","use_case_description":"Subdivision or amalgamation history review","mutation_workflow_status":"REJECTED","revenue_record_id":"ROR-MZ-2025-1017-0016","revenue_record_type":"Land Settlement Certificate (LSC)","khata_khewat_no":"KHT-67","khatauni_no":"KHN-167","owner_name":"Lalrinsanga Sailo","owner_name_local":"Lalrinsanga Sailo","co_owners":"","tenure_type":"Government Grant","mutation_status":"REJECTED","active_mutation_id":"MUT-MZ-00000016","tax_demand_status":"PAID","annual_tax_inr":"185.5","deed_number":"DEED-MZ-2024-417-0016","deed_type":"Sale Deed / Conveyance","sro_office":"Sub-Registrar Office, Tlangnuam Block","execution_date":"2024-05-10","registered_owner":"Lalrinsanga Sailo","seller_name":"Previous Landholder","consideration_amount_inr":"3500000.0","stamp_duty_inr":"210000.0","survey_sketch_id":"FMB-MZ-17-0016","cadastral_sheet_no":"SHT-MZ-17","surveyed_area_sqm":"450.0","survey_status":"RESURVEY_REQUIRED","urban_authority":"Tlangnuam Block Urban Development & Town Planning Authority","zone_name":"Residential Zone","permitted_land_use":"RESIDENTIAL","building_permission_status":"NOT_APPLICABLE","violations_reported":"False","is_encumbered":"True","encumbrance_certificate_number":"EC-MZ-00000016-0016","encumbrance_type":"TRIBAL_NON_ALIENATION","financial_institution":"","mortgage_amount":"0.0","created_at":"2026-01-15T09:00:00Z","updated_at":"2026-09-24T11:30:00Z"}},{"type":"Feature","geometry":{"type":"Polygon","coordinates":[[[93.70586111271595,23.865968585481074],[93.96483342227543,23.865968585481074],[94.07195309006471,24.06425314714369],[93.67213721485926,24.117151904865402],[93.70586111271595,23.865968585481074]]]},"properties":{"ulpin":"15968917189191","parcel_id":"927f03a7-ebce-4ca8-b21a-a7cdeefac0de","state":"Mizoram","state_code":"MZ","state_type":"STATE","state_lgd_code":"15","district_lgd_code":"260","district_name":"Aizawl","subdistrict_lgd_code":"2410","subdistrict_name":"Tlangnuam Block","subdistrict_type":"Tehsil / Taluk","village_lgd_code":"289105","village_name":"Khatla Veng","khasra_plot_no":"LSC-AZL-2019-94/D17","recorded_area":"450.0","recorded_area_unit":"Square Meter","normalized_area_sqm":"450.0","gis_area_sqm":"450.0","land_use_category":"COMMERCIAL","land_use_raw":"Town Plotted Residential","status":"DISPUTED","data_freshness_status":"STALE","scenario_index":"10324","use_case_description":"Archived historical record for audit retrieval","mutation_workflow_status":"SLA_BREACHED","revenue_record_id":"ROR-MZ-2025-1017-0017","revenue_record_type":"Land Settlement Certificate (LSC)","khata_khewat_no":"KHT-67","khatauni_no":"KHN-167","owner_name":"Lalrinsanga Sailo","owner_name_local":"Lalrinsanga Sailo","co_owners":"","tenure_type":"Waqf / Religious Trust","mutation_status":"DISPUTED","active_mutation_id":"MUT-MZ-00000017","tax_demand_status":"PAID","annual_tax_inr":"185.5","deed_number":"DEED-MZ-2024-417-0017","deed_type":"Sale Deed / Conveyance","sro_office":"Sub-Registrar Office, Tlangnuam Block","execution_date":"2024-05-10","registered_owner":"Registry Variance Owner 17","seller_name":"Previous Landholder","consideration_amount_inr":"3500000.0","stamp_duty_inr":"210000.0","survey_sketch_id":"FMB-MZ-17-0017","cadastral_sheet_no":"SHT-MZ-17","surveyed_area_sqm":"450.0","survey_status":"SURVEYED","urban_authority":"Tlangnuam Block Urban Development & Town Planning Authority","zone_name":"Residential Zone","permitted_land_use":"COMMERCIAL","building_permission_status":"SANCTIONED","violations_reported":"False","is_encumbered":"True","encumbrance_certificate_number":"EC-MZ-00000017-0017","encumbrance_type":"LEASE_CHARGE","financial_institution":"","mortgage_amount":"0.0","created_at":"2026-01-15T09:00:00Z","updated_at":"2026-09-24T11:30:00Z"}},{"type":"Feature","geometry":{"type":"Polygon","coordinates":[[[93.96483342227543,23.865968585481074],[94.38922494881554,23.865968585481074],[94.38922494881554,24.062708028861977],[94.07195309006471,24.06425314714369],[93.96483342227543,23.865968585481074]]]},"properties":{"ulpin":"15203121977428","parcel_id":"6f06eeed-de2a-466a-bebf-aa44f4f5dddd","state":"Mizoram","state_code":"MZ","state_type":"STATE","state_lgd_code":"15","district_lgd_code":"260","district_name":"Aizawl","subdistrict_lgd_code":"2410","subdistrict_name":"Tlangnuam Block","subdistrict_type":"Tehsil / Taluk","village_lgd_code":"289105","village_name":"Khatla Veng","khasra_plot_no":"LSC-AZL-2019-94/D18","recorded_area":"450.0","recorded_area_unit":"Square Meter","normalized_area_sqm":"450.0","gis_area_sqm":"450.0","land_use_category":"INDUSTRIAL","land_use_raw":"Town Plotted Residential","status":"ARCHIVED","data_freshness_status":"UNKNOWN","scenario_index":"10325","use_case_description":"Cadastral area discrepancy requiring resurvey","mutation_workflow_status":"SUBMITTED","revenue_record_id":"ROR-MZ-2025-1017-0018","revenue_record_type":"Land Settlement Certificate (LSC)","khata_khewat_no":"KHT-67","khatauni_no":"KHN-167","owner_name":"Lalrinsanga Sailo","owner_name_local":"Lalrinsanga Sailo","co_owners":"","tenure_type":"Tribal Community Tenure","mutation_status":"NONE","active_mutation_id":"MUT-MZ-00000018","tax_demand_status":"PAID","annual_tax_inr":"185.5","deed_number":"DEED-MZ-2024-417-0018","deed_type":"Sale Deed / Conveyance","sro_office":"Sub-Registrar Office, Tlangnuam Block","execution_date":"2024-05-10","registered_owner":"Lalrinsanga Sailo","seller_name":"Previous Landholder","consideration_amount_inr":"3500000.0","stamp_duty_inr":"210000.0","survey_sketch_id":"FMB-MZ-17-0018","cadastral_sheet_no":"SHT-MZ-17","surveyed_area_sqm":"450.0","survey_status":"PENDING","urban_authority":"Tlangnuam Block Urban Development & Town Planning Authority","zone_name":"Residential Zone","permitted_land_use":"INDUSTRIAL","building_permission_status":"PENDING","violations_reported":"True","is_encumbered":"False","encumbrance_certificate_number":"EC-MZ-2024-117-0018","encumbrance_type":"NIL","financial_institution":"","mortgage_amount":"0.0","created_at":"2026-01-15T09:00:00Z","updated_at":"2026-09-24T11:30:00Z"}},{"type":"Feature","geometry":{"type":"Polygon","coordinates":[[[92.43435178116044,24.08766245768363],[92.67280094285634,24.132274532827427],[92.6241161133187,24.362289100758687],[92.429076192371,24.362289100758687],[92.43435178116044,24.08766245768363]]]},"properties":{"ulpin":"15861690355150","parcel_id":"c06c2af1-f0d2-42e2-bed8-9628272eb614","state":"Mizoram","state_code":"MZ","state_type":"STATE","state_lgd_code":"15","district_lgd_code":"260","district_name":"Aizawl","subdistrict_lgd_code":"2410","subdistrict_name":"Tlangnuam Block","subdistrict_type":"Tehsil / Taluk","village_lgd_code":"289105","village_name":"Khatla Veng","khasra_plot_no":"LSC-AZL-2019-94/D19","recorded_area":"450.0","recorded_area_unit":"Square Meter","normalized_area_sqm":"450.0","gis_area_sqm":"450.0","land_use_category":"AGRICULTURAL","land_use_raw":"Town Plotted Residential","status":"ACTIVE","data_freshness_status":"CURRENT","scenario_index":"10326","use_case_description":"Government revenue lien and tax demand","mutation_workflow_status":"UNDER_VERIFICATION","revenue_record_id":"ROR-MZ-2025-1017-0019","revenue_record_type":"Land Settlement Certificate (LSC)","khata_khewat_no":"KHT-67","khatauni_no":"KHN-167","owner_name":"Lalrinsanga Sailo","owner_name_local":"Lalrinsanga Sailo","co_owners":"","tenure_type":"Bhumiswami / Raiyati with Transferable Rights","mutation_status":"MUTATED","active_mutation_id":"","tax_demand_status":"PAID","annual_tax_inr":"185.5","deed_number":"DEED-MZ-2024-417-0019","deed_type":"Sale Deed / Conveyance","sro_office":"Sub-Registrar Office, Tlangnuam Block","execution_date":"2024-05-10","registered_owner":"Lalrinsanga Sailo","seller_name":"Previous Landholder","consideration_amount_inr":"3500000.0","stamp_duty_inr":"210000.0","survey_sketch_id":"FMB-MZ-17-0019","cadastral_sheet_no":"SHT-MZ-17","surveyed_area_sqm":"450.0","survey_status":"DISPUTED","urban_authority":"Tlangnuam Block Urban Development & Town Planning Authority","zone_name":"Residential Zone","permitted_land_use":"AGRICULTURAL","building_permission_status":"REJECTED","violations_reported":"False","is_encumbered":"True","encumbrance_certificate_number":"EC-MZ-00000019-0019","encumbrance_type":"BANK_MORTGAGE","financial_institution":"","mortgage_amount":"0.0","created_at":"2026-01-15T09:00:00Z","updated_at":"2026-09-24T11:30:00Z"}}]}