{"type":"FeatureCollection","features":[{"type":"Feature","geometry":{"type":"Polygon","coordinates":[[[95.16985469517509,26.096692856853096],[95.30721553825384,26.109552806595364],[95.28370177889417,26.195364846423363],[95.17818892152113,26.19943924012542],[95.16985469517509,26.096692856853096]]]},"properties":{"ulpin":"13177439235659","parcel_id":"a2f2650c-5443-429f-8a7d-b6be3a8c2d78","state":"Nagaland","state_code":"NL","state_type":"STATE","state_lgd_code":"13","district_lgd_code":"245","district_name":"Kohima","subdistrict_lgd_code":"2220","subdistrict_name":"Kohima Sadar","subdistrict_type":"Tehsil / Taluk","village_lgd_code":"273010","village_name":"Meriema","khasra_plot_no":"KHEL-MR-108/D1","recorded_area":"0.85","recorded_area_unit":"Hectare","normalized_area_sqm":"8500.0","gis_area_sqm":"8500.0","land_use_category":"INSTITUTIONAL","land_use_raw":"Community Terrace Cultivation","status":"PENDING_MUTATION","data_freshness_status":"STALE","scenario_index":"10327","use_case_description":"Court attachment and disputed possession","mutation_workflow_status":"NOTICE_PERIOD","revenue_record_id":"ROR-NL-2025-1018-0001","revenue_record_type":"Village Council Land Holding Record","khata_khewat_no":"KHT-68","khatauni_no":"KHN-168","owner_name":"Keviselie Angami","owner_name_local":"Keviselie Angami","co_owners":"","tenure_type":"Bhumiswami / Freehold","mutation_status":"PENDING","active_mutation_id":"MUT-NL-00000001","tax_demand_status":"PAID","annual_tax_inr":"185.5","deed_number":"DEED-NL-2024-418-0001","deed_type":"Sale Deed / Conveyance","sro_office":"Sub-Registrar Office, Kohima Sadar","execution_date":"2024-05-10","registered_owner":"Keviselie Angami","seller_name":"Previous Landholder","consideration_amount_inr":"3500000.0","stamp_duty_inr":"210000.0","survey_sketch_id":"FMB-NL-18-0001","cadastral_sheet_no":"SHT-NL-18","surveyed_area_sqm":"8500.0","survey_status":"RESURVEY_REQUIRED","urban_authority":"Kohima Sadar Urban Development & Town Planning Authority","zone_name":"Agricultural / Green Buffer","permitted_land_use":"INSTITUTIONAL","building_permission_status":"NOT_APPLICABLE","violations_reported":"False","is_encumbered":"True","encumbrance_certificate_number":"EC-NL-00000001-0001","encumbrance_type":"GOVT_REVENUE_LIEN","financial_institution":"","mortgage_amount":"0.0","created_at":"2026-01-15T09:00:00Z","updated_at":"2026-09-24T11:30:00Z"}},{"type":"Feature","geometry":{"type":"Polygon","coordinates":[[[95.17818892152113,26.19943924012542],[95.28370177889417,26.195364846423363],[95.3113292881761,26.306815024101223],[95.17918132013416,26.306815024101223],[95.17818892152113,26.19943924012542]]]},"properties":{"ulpin":"13438313408431","parcel_id":"35cd3243-00da-4388-b09e-6ceb52642e79","state":"Nagaland","state_code":"NL","state_type":"STATE","state_lgd_code":"13","district_lgd_code":"245","district_name":"Kohima","subdistrict_lgd_code":"2220","subdistrict_name":"Kohima Sadar","subdistrict_type":"Tehsil / Taluk","village_lgd_code":"273010","village_name":"Meriema","khasra_plot_no":"KHEL-MR-108/D2","recorded_area":"0.85","recorded_area_unit":"Hectare","normalized_area_sqm":"8500.0","gis_area_sqm":"8500.0","land_use_category":"FOREST_GREEN_BELT","land_use_raw":"Community Terrace Cultivation","status":"SUBDIVIDED","data_freshness_status":"UNKNOWN","scenario_index":"10328","use_case_description":"Tribal non-alienation protection review","mutation_workflow_status":"HEARING_SCHEDULED","revenue_record_id":"ROR-NL-2025-1018-0002","revenue_record_type":"Village Council Land Holding Record","khata_khewat_no":"KHT-68","khatauni_no":"KHN-168","owner_name":"Keviselie Angami","owner_name_local":"Keviselie Angami","co_owners":"","tenure_type":"Leasehold","mutation_status":"UNMUTATED_TRANSACTION","active_mutation_id":"MUT-NL-00000002","tax_demand_status":"PAID","annual_tax_inr":"185.5","deed_number":"DEED-NL-2024-418-0002","deed_type":"Sale Deed / Conveyance","sro_office":"Sub-Registrar Office, Kohima Sadar","execution_date":"2024-05-10","registered_owner":"Keviselie Angami","seller_name":"Previous Landholder","consideration_amount_inr":"3500000.0","stamp_duty_inr":"210000.0","survey_sketch_id":"FMB-NL-18-0002","cadastral_sheet_no":"SHT-NL-18","surveyed_area_sqm":"8500.0","survey_status":"SURVEYED","urban_authority":"Kohima Sadar Urban Development & Town Planning Authority","zone_name":"Agricultural / Green Buffer","permitted_land_use":"FOREST_GREEN_BELT","building_permission_status":"SANCTIONED","violations_reported":"False","is_encumbered":"True","encumbrance_certificate_number":"EC-NL-00000002-0002","encumbrance_type":"COURT_ATTACHMENT","financial_institution":"","mortgage_amount":"0.0","created_at":"2026-01-15T09:00:00Z","updated_at":"2026-09-24T11:30:00Z"}},{"type":"Feature","geometry":{"type":"Polygon","coordinates":[[[94.56863074714566,26.842254587964625],[94.70742566755821,26.842817148671458],[94.70290146435086,26.9157040376212],[94.57205147977324,26.9157040376212],[94.56863074714566,26.842254587964625]]]},"properties":{"ulpin":"13566701031808","parcel_id":"727cb006-914a-473b-9934-6c53fc307744","state":"Nagaland","state_code":"NL","state_type":"STATE","state_lgd_code":"13","district_lgd_code":"245","district_name":"Kohima","subdistrict_lgd_code":"2220","subdistrict_name":"Kohima Sadar","subdistrict_type":"Tehsil / Taluk","village_lgd_code":"273010","village_name":"Meriema","khasra_plot_no":"KHEL-MR-108/D3","recorded_area":"0.85","recorded_area_unit":"Hectare","normalized_area_sqm":"8500.0","gis_area_sqm":"8500.0","land_use_category":"WATER_BODY","land_use_raw":"Community Terrace Cultivation","status":"AMALGAMATED","data_freshness_status":"CURRENT","scenario_index":"10329","use_case_description":"Lease charge and institutional tenancy","mutation_workflow_status":"APPROVED","revenue_record_id":"ROR-NL-2025-1018-0003","revenue_record_type":"Village Council Land Holding Record","khata_khewat_no":"KHT-68","khatauni_no":"KHN-168","owner_name":"Keviselie Angami","owner_name_local":"Keviselie Angami","co_owners":"","tenure_type":"Government Grant","mutation_status":"REJECTED","active_mutation_id":"MUT-NL-00000003","tax_demand_status":"PAID","annual_tax_inr":"185.5","deed_number":"DEED-NL-2024-418-0003","deed_type":"Sale Deed / Conveyance","sro_office":"Sub-Registrar Office, Kohima Sadar","execution_date":"2024-05-10","registered_owner":"Registry Variance Owner 3","seller_name":"Previous Landholder","consideration_amount_inr":"3500000.0","stamp_duty_inr":"210000.0","survey_sketch_id":"FMB-NL-18-0003","cadastral_sheet_no":"SHT-NL-18","surveyed_area_sqm":"8500.0","survey_status":"PENDING","urban_authority":"Kohima Sadar Urban Development & Town Planning Authority","zone_name":"Agricultural / Green Buffer","permitted_land_use":"WATER_BODY","building_permission_status":"PENDING","violations_reported":"False","is_encumbered":"True","encumbrance_certificate_number":"EC-NL-00000003-0003","encumbrance_type":"TRIBAL_NON_ALIENATION","financial_institution":"","mortgage_amount":"0.0","created_at":"2026-01-15T09:00:00Z","updated_at":"2026-09-24T11:30:00Z"}},{"type":"Feature","geometry":{"type":"Polygon","coordinates":[[[94.29917653667647,26.027883662202584],[94.41619409583821,26.027883662202584],[94.43803353790786,26.14839428281701],[94.29917653667647,26.14623848056365],[94.29917653667647,26.027883662202584]]]},"properties":{"ulpin":"13049000020956","parcel_id":"9a766b19-8d95-4e8c-a0d2-66da65149176","state":"Nagaland","state_code":"NL","state_type":"STATE","state_lgd_code":"13","district_lgd_code":"245","district_name":"Kohima","subdistrict_lgd_code":"2220","subdistrict_name":"Kohima Sadar","subdistrict_type":"Tehsil / Taluk","village_lgd_code":"273010","village_name":"Meriema","khasra_plot_no":"KHEL-MR-108/D4","recorded_area":"0.85","recorded_area_unit":"Hectare","normalized_area_sqm":"8500.0","gis_area_sqm":"8500.0","land_use_category":"MIXED_USE","land_use_raw":"Community Terrace Cultivation","status":"DISPUTED","data_freshness_status":"STALE","scenario_index":"10330","use_case_description":"Subdivision or amalgamation history review","mutation_workflow_status":"REJECTED","revenue_record_id":"ROR-NL-2025-1018-0004","revenue_record_type":"Village Council Land Holding Record","khata_khewat_no":"KHT-68","khatauni_no":"KHN-168","owner_name":"Keviselie Angami","owner_name_local":"Keviselie Angami","co_owners":"","tenure_type":"Waqf / Religious Trust","mutation_status":"DISPUTED","active_mutation_id":"MUT-NL-00000004","tax_demand_status":"PAID","annual_tax_inr":"185.5","deed_number":"DEED-NL-2024-418-0004","deed_type":"Sale Deed / Conveyance","sro_office":"Sub-Registrar Office, Kohima Sadar","execution_date":"2024-05-10","registered_owner":"Keviselie Angami","seller_name":"Previous Landholder","consideration_amount_inr":"3500000.0","stamp_duty_inr":"210000.0","survey_sketch_id":"FMB-NL-18-0004","cadastral_sheet_no":"SHT-NL-18","surveyed_area_sqm":"8500.0","survey_status":"DISPUTED","urban_authority":"Kohima Sadar Urban Development & Town Planning Authority","zone_name":"Agricultural / Green Buffer","permitted_land_use":"MIXED_USE","building_permission_status":"REJECTED","violations_reported":"False","is_encumbered":"True","encumbrance_certificate_number":"EC-NL-00000004-0004","encumbrance_type":"LEASE_CHARGE","financial_institution":"","mortgage_amount":"0.0","created_at":"2026-01-15T09:00:00Z","updated_at":"2026-09-24T11:30:00Z"}},{"type":"Feature","geometry":{"type":"Polygon","coordinates":[[[94.6900246850023,26.60381135033131],[94.80683611309657,26.60381135033131],[94.80683611309657,26.681366288380236],[94.70721505974203,26.67354591214015],[94.6900246850023,26.60381135033131]]]},"properties":{"ulpin":"13090049261585","parcel_id":"203315df-1ace-4bdf-95e2-a7e7a5b59184","state":"Nagaland","state_code":"NL","state_type":"STATE","state_lgd_code":"13","district_lgd_code":"245","district_name":"Kohima","subdistrict_lgd_code":"2220","subdistrict_name":"Kohima Sadar","subdistrict_type":"Tehsil / Taluk","village_lgd_code":"273010","village_name":"Meriema","khasra_plot_no":"KHEL-MR-108/D5","recorded_area":"0.85","recorded_area_unit":"Hectare","normalized_area_sqm":"8500.0","gis_area_sqm":"8500.0","land_use_category":"OTHER","land_use_raw":"Community Terrace Cultivation","status":"ARCHIVED","data_freshness_status":"UNKNOWN","scenario_index":"10331","use_case_description":"Tribal non-alienation protection review","mutation_workflow_status":"SLA_BREACHED","revenue_record_id":"ROR-NL-2025-1018-0005","revenue_record_type":"Village Council Land Holding Record","khata_khewat_no":"KHT-68","khatauni_no":"KHN-168","owner_name":"Keviselie Angami","owner_name_local":"Keviselie Angami","co_owners":"","tenure_type":"Tribal Community Tenure","mutation_status":"NONE","active_mutation_id":"MUT-NL-00000005","tax_demand_status":"PAID","annual_tax_inr":"185.5","deed_number":"DEED-NL-2024-418-0005","deed_type":"Sale Deed / Conveyance","sro_office":"Sub-Registrar Office, Kohima Sadar","execution_date":"2024-05-10","registered_owner":"Keviselie Angami","seller_name":"Previous Landholder","consideration_amount_inr":"3500000.0","stamp_duty_inr":"210000.0","survey_sketch_id":"FMB-NL-18-0005","cadastral_sheet_no":"SHT-NL-18","surveyed_area_sqm":"8500.0","survey_status":"RESURVEY_REQUIRED","urban_authority":"Kohima Sadar Urban Development & Town Planning Authority","zone_name":"Agricultural / Green Buffer","permitted_land_use":"OTHER","building_permission_status":"NOT_APPLICABLE","violations_reported":"False","is_encumbered":"False","encumbrance_certificate_number":"EC-NL-2024-118-0005","encumbrance_type":"NIL","financial_institution":"","mortgage_amount":"0.0","created_at":"2026-01-15T09:00:00Z","updated_at":"2026-09-24T11:30:00Z"}},{"type":"Feature","geometry":{"type":"Polygon","coordinates":[[[94.43803353790786,26.14839428281701],[94.55549626512838,26.150513954728414],[94.58748410391036,26.244397779808818],[94.42437559043664,26.228368966970653],[94.43803353790786,26.14839428281701]]]},"properties":{"ulpin":"13100981914177","parcel_id":"5eca5ace-a0b8-4d7f-b51b-5656c24f3ad3","state":"Nagaland","state_code":"NL","state_type":"STATE","state_lgd_code":"13","district_lgd_code":"245","district_name":"Kohima","subdistrict_lgd_code":"2220","subdistrict_name":"Kohima Sadar","subdistrict_type":"Tehsil / Taluk","village_lgd_code":"273010","village_name":"Meriema","khasra_plot_no":"KHEL-MR-108/D6","recorded_area":"0.85","recorded_area_unit":"Hectare","normalized_area_sqm":"8500.0","gis_area_sqm":"8500.0","land_use_category":"RESIDENTIAL","land_use_raw":"Community Terrace Cultivation","status":"ACTIVE","data_freshness_status":"CURRENT","scenario_index":"10332","use_case_description":"Bank mortgage and active encumbrance","mutation_workflow_status":"SUBMITTED","revenue_record_id":"ROR-NL-2025-1018-0006","revenue_record_type":"Village Council Land Holding Record","khata_khewat_no":"KHT-68","khatauni_no":"KHN-168","owner_name":"Keviselie Angami","owner_name_local":"Keviselie Angami","co_owners":"","tenure_type":"Bhumiswami / Raiyati with Transferable Rights","mutation_status":"MUTATED","active_mutation_id":"","tax_demand_status":"PAID","annual_tax_inr":"185.5","deed_number":"DEED-NL-2024-418-0006","deed_type":"Sale Deed / Conveyance","sro_office":"Sub-Registrar Office, Kohima Sadar","execution_date":"2024-05-10","registered_owner":"Keviselie Angami","seller_name":"Previous Landholder","consideration_amount_inr":"3500000.0","stamp_duty_inr":"210000.0","survey_sketch_id":"FMB-NL-18-0006","cadastral_sheet_no":"SHT-NL-18","surveyed_area_sqm":"8500.0","survey_status":"SURVEYED","urban_authority":"Kohima Sadar Urban Development & Town Planning Authority","zone_name":"Agricultural / Green Buffer","permitted_land_use":"RESIDENTIAL","building_permission_status":"SANCTIONED","violations_reported":"True","is_encumbered":"True","encumbrance_certificate_number":"EC-NL-00000006-0006","encumbrance_type":"BANK_MORTGAGE","financial_institution":"","mortgage_amount":"0.0","created_at":"2026-01-15T09:00:00Z","updated_at":"2026-09-24T11:30:00Z"}},{"type":"Feature","geometry":{"type":"Polygon","coordinates":[[[94.29917653667647,26.14623848056365],[94.43803353790786,26.14839428281701],[94.42437559043664,26.228368966970653],[94.29917653667647,26.24125932532838],[94.29917653667647,26.14623848056365]]]},"properties":{"ulpin":"13175992183503","parcel_id":"1db142fd-b833-4c42-9489-307b1683efef","state":"Nagaland","state_code":"NL","state_type":"STATE","state_lgd_code":"13","district_lgd_code":"245","district_name":"Kohima","subdistrict_lgd_code":"2220","subdistrict_name":"Kohima Sadar","subdistrict_type":"Tehsil / Taluk","village_lgd_code":"273010","village_name":"Meriema","khasra_plot_no":"KHEL-MR-108/D7","recorded_area":"0.85","recorded_area_unit":"Hectare","normalized_area_sqm":"8500.0","gis_area_sqm":"8500.0","land_use_category":"COMMERCIAL","land_use_raw":"Community Terrace Cultivation","status":"PENDING_MUTATION","data_freshness_status":"STALE","scenario_index":"10333","use_case_description":"Government revenue lien and tax demand","mutation_workflow_status":"UNDER_VERIFICATION","revenue_record_id":"ROR-NL-2025-1018-0007","revenue_record_type":"Village Council Land Holding Record","khata_khewat_no":"KHT-68","khatauni_no":"KHN-168","owner_name":"Keviselie Angami","owner_name_local":"Keviselie Angami","co_owners":"","tenure_type":"Bhumiswami / Freehold","mutation_status":"PENDING","active_mutation_id":"MUT-NL-00000007","tax_demand_status":"PAID","annual_tax_inr":"185.5","deed_number":"DEED-NL-2024-418-0007","deed_type":"Sale Deed / Conveyance","sro_office":"Sub-Registrar Office, Kohima Sadar","execution_date":"2024-05-10","registered_owner":"Keviselie Angami","seller_name":"Previous Landholder","consideration_amount_inr":"3500000.0","stamp_duty_inr":"210000.0","survey_sketch_id":"FMB-NL-18-0007","cadastral_sheet_no":"SHT-NL-18","surveyed_area_sqm":"8500.0","survey_status":"PENDING","urban_authority":"Kohima Sadar Urban Development & Town Planning Authority","zone_name":"Agricultural / Green Buffer","permitted_land_use":"COMMERCIAL","building_permission_status":"PENDING","violations_reported":"False","is_encumbered":"True","encumbrance_certificate_number":"EC-NL-00000007-0007","encumbrance_type":"GOVT_REVENUE_LIEN","financial_institution":"","mortgage_amount":"0.0","created_at":"2026-01-15T09:00:00Z","updated_at":"2026-09-24T11:30:00Z"}},{"type":"Feature","geometry":{"type":"Polygon","coordinates":[[[94.71301873376026,26.7630057099618],[94.80683611309657,26.764309122653422],[94.80683611309657,26.847396318763284],[94.70742566755821,26.842817148671458],[94.71301873376026,26.7630057099618]]]},"properties":{"ulpin":"13387913998701","parcel_id":"eb815f64-3bc0-4de9-908b-4e980aad3897","state":"Nagaland","state_code":"NL","state_type":"STATE","state_lgd_code":"13","district_lgd_code":"245","district_name":"Kohima","subdistrict_lgd_code":"2220","subdistrict_name":"Kohima Sadar","subdistrict_type":"Tehsil / Taluk","village_lgd_code":"273010","village_name":"Meriema","khasra_plot_no":"KHEL-MR-108/D8","recorded_area":"0.85","recorded_area_unit":"Hectare","normalized_area_sqm":"8500.0","gis_area_sqm":"8500.0","land_use_category":"INDUSTRIAL","land_use_raw":"Community Terrace Cultivation","status":"SUBDIVIDED","data_freshness_status":"UNKNOWN","scenario_index":"10334","use_case_description":"Court attachment and disputed possession","mutation_workflow_status":"NOTICE_PERIOD","revenue_record_id":"ROR-NL-2025-1018-0008","revenue_record_type":"Village Council Land Holding Record","khata_khewat_no":"KHT-68","khatauni_no":"KHN-168","owner_name":"Keviselie Angami","owner_name_local":"Keviselie Angami","co_owners":"","tenure_type":"Leasehold","mutation_status":"UNMUTATED_TRANSACTION","active_mutation_id":"MUT-NL-00000008","tax_demand_status":"PAID","annual_tax_inr":"185.5","deed_number":"DEED-NL-2024-418-0008","deed_type":"Sale Deed / Conveyance","sro_office":"Sub-Registrar Office, Kohima Sadar","execution_date":"2024-05-10","registered_owner":"Registry Variance Owner 8","seller_name":"Previous Landholder","consideration_amount_inr":"3500000.0","stamp_duty_inr":"210000.0","survey_sketch_id":"FMB-NL-18-0008","cadastral_sheet_no":"SHT-NL-18","surveyed_area_sqm":"8500.0","survey_status":"DISPUTED","urban_authority":"Kohima Sadar Urban Development & Town Planning Authority","zone_name":"Agricultural / Green Buffer","permitted_land_use":"INDUSTRIAL","building_permission_status":"REJECTED","violations_reported":"False","is_encumbered":"True","encumbrance_certificate_number":"EC-NL-00000008-0008","encumbrance_type":"COURT_ATTACHMENT","financial_institution":"","mortgage_amount":"0.0","created_at":"2026-01-15T09:00:00Z","updated_at":"2026-09-24T11:30:00Z"}},{"type":"Feature","geometry":{"type":"Polygon","coordinates":[[[95.13535936864531,26.797028716352585],[95.31367608744515,26.815125491424908],[95.31367608744515,26.925607651465732],[95.12444438345429,26.925607651465732],[95.13535936864531,26.797028716352585]]]},"properties":{"ulpin":"13850407421712","parcel_id":"b1e45ede-7a44-4dff-9552-8ff1fc2d26e8","state":"Nagaland","state_code":"NL","state_type":"STATE","state_lgd_code":"13","district_lgd_code":"245","district_name":"Kohima","subdistrict_lgd_code":"2220","subdistrict_name":"Kohima Sadar","subdistrict_type":"Tehsil / Taluk","village_lgd_code":"273010","village_name":"Meriema","khasra_plot_no":"KHEL-MR-108/D9","recorded_area":"0.85","recorded_area_unit":"Hectare","normalized_area_sqm":"8500.0","gis_area_sqm":"8500.0","land_use_category":"AGRICULTURAL","land_use_raw":"Community Terrace Cultivation","status":"AMALGAMATED","data_freshness_status":"CURRENT","scenario_index":"10335","use_case_description":"Tribal non-alienation protection review","mutation_workflow_status":"HEARING_SCHEDULED","revenue_record_id":"ROR-NL-2025-1018-0009","revenue_record_type":"Village Council Land Holding Record","khata_khewat_no":"KHT-68","khatauni_no":"KHN-168","owner_name":"Keviselie Angami","owner_name_local":"Keviselie Angami","co_owners":"","tenure_type":"Government Grant","mutation_status":"REJECTED","active_mutation_id":"MUT-NL-00000009","tax_demand_status":"PAID","annual_tax_inr":"185.5","deed_number":"DEED-NL-2024-418-0009","deed_type":"Sale Deed / Conveyance","sro_office":"Sub-Registrar Office, Kohima Sadar","execution_date":"2024-05-10","registered_owner":"Keviselie Angami","seller_name":"Previous Landholder","consideration_amount_inr":"3500000.0","stamp_duty_inr":"210000.0","survey_sketch_id":"FMB-NL-18-0009","cadastral_sheet_no":"SHT-NL-18","surveyed_area_sqm":"8500.0","survey_status":"RESURVEY_REQUIRED","urban_authority":"Kohima Sadar Urban Development & Town Planning Authority","zone_name":"Agricultural / Green Buffer","permitted_land_use":"AGRICULTURAL","building_permission_status":"NOT_APPLICABLE","violations_reported":"False","is_encumbered":"True","encumbrance_certificate_number":"EC-NL-00000009-0009","encumbrance_type":"TRIBAL_NON_ALIENATION","financial_institution":"","mortgage_amount":"0.0","created_at":"2026-01-15T09:00:00Z","updated_at":"2026-09-24T11:30:00Z"}},{"type":"Feature","geometry":{"type":"Polygon","coordinates":[[[95.15121856213786,26.686495434975352],[95.31367608744515,26.70376367636232],[95.31367608744515,26.815125491424908],[95.13535936864531,26.797028716352585],[95.15121856213786,26.686495434975352]]]},"properties":{"ulpin":"13939495503816","parcel_id":"ba56b6b7-3c18-4e9f-8d57-257be902ece7","state":"Nagaland","state_code":"NL","state_type":"STATE","state_lgd_code":"13","district_lgd_code":"245","district_name":"Kohima","subdistrict_lgd_code":"2220","subdistrict_name":"Kohima Sadar","subdistrict_type":"Tehsil / Taluk","village_lgd_code":"273010","village_name":"Meriema","khasra_plot_no":"KHEL-MR-108/D10","recorded_area":"0.85","recorded_area_unit":"Hectare","normalized_area_sqm":"8500.0","gis_area_sqm":"8500.0","land_use_category":"INSTITUTIONAL","land_use_raw":"Community Terrace Cultivation","status":"DISPUTED","data_freshness_status":"STALE","scenario_index":"10336","use_case_description":"Lease charge and institutional tenancy","mutation_workflow_status":"APPROVED","revenue_record_id":"ROR-NL-2025-1018-0010","revenue_record_type":"Village Council Land Holding Record","khata_khewat_no":"KHT-68","khatauni_no":"KHN-168","owner_name":"Keviselie Angami","owner_name_local":"Keviselie Angami","co_owners":"","tenure_type":"Waqf / Religious Trust","mutation_status":"DISPUTED","active_mutation_id":"MUT-NL-00000010","tax_demand_status":"PAID","annual_tax_inr":"185.5","deed_number":"DEED-NL-2024-418-0010","deed_type":"Sale Deed / Conveyance","sro_office":"Sub-Registrar Office, Kohima Sadar","execution_date":"2024-05-10","registered_owner":"Keviselie Angami","seller_name":"Previous Landholder","consideration_amount_inr":"3500000.0","stamp_duty_inr":"210000.0","survey_sketch_id":"FMB-NL-18-0010","cadastral_sheet_no":"SHT-NL-18","surveyed_area_sqm":"8500.0","survey_status":"SURVEYED","urban_authority":"Kohima Sadar Urban Development & Town Planning Authority","zone_name":"Agricultural / Green Buffer","permitted_land_use":"INSTITUTIONAL","building_permission_status":"SANCTIONED","violations_reported":"False","is_encumbered":"True","encumbrance_certificate_number":"EC-NL-00000010-0010","encumbrance_type":"LEASE_CHARGE","financial_institution":"","mortgage_amount":"0.0","created_at":"2026-01-15T09:00:00Z","updated_at":"2026-09-24T11:30:00Z"}},{"type":"Feature","geometry":{"type":"Polygon","coordinates":[[[95.29317585808316,26.012487490492067],[95.4107425261102,26.012487490492067],[95.4107425261102,26.123008856788815],[95.30721553825384,26.109552806595364],[95.29317585808316,26.012487490492067]]]},"properties":{"ulpin":"13127514593360","parcel_id":"a0db536c-d43f-4b45-b31c-851b81a172b2","state":"Nagaland","state_code":"NL","state_type":"STATE","state_lgd_code":"13","district_lgd_code":"245","district_name":"Kohima","subdistrict_lgd_code":"2220","subdistrict_name":"Kohima Sadar","subdistrict_type":"Tehsil / Taluk","village_lgd_code":"273010","village_name":"Meriema","khasra_plot_no":"KHEL-MR-108/D11","recorded_area":"0.85","recorded_area_unit":"Hectare","normalized_area_sqm":"8500.0","gis_area_sqm":"8500.0","land_use_category":"FOREST_GREEN_BELT","land_use_raw":"Community Terrace Cultivation","status":"ARCHIVED","data_freshness_status":"UNKNOWN","scenario_index":"10337","use_case_description":"Pending sale mutation within statutory SLA","mutation_workflow_status":"REJECTED","revenue_record_id":"ROR-NL-2025-1018-0011","revenue_record_type":"Village Council Land Holding Record","khata_khewat_no":"KHT-68","khatauni_no":"KHN-168","owner_name":"Keviselie Angami","owner_name_local":"Keviselie Angami","co_owners":"","tenure_type":"Tribal Community Tenure","mutation_status":"NONE","active_mutation_id":"MUT-NL-00000011","tax_demand_status":"PAID","annual_tax_inr":"185.5","deed_number":"DEED-NL-2024-418-0011","deed_type":"Sale Deed / Conveyance","sro_office":"Sub-Registrar Office, Kohima Sadar","execution_date":"2024-05-10","registered_owner":"Keviselie Angami","seller_name":"Previous Landholder","consideration_amount_inr":"3500000.0","stamp_duty_inr":"210000.0","survey_sketch_id":"FMB-NL-18-0011","cadastral_sheet_no":"SHT-NL-18","surveyed_area_sqm":"8500.0","survey_status":"PENDING","urban_authority":"Kohima Sadar Urban Development & Town Planning Authority","zone_name":"Agricultural / Green Buffer","permitted_land_use":"FOREST_GREEN_BELT","building_permission_status":"PENDING","violations_reported":"False","is_encumbered":"False","encumbrance_certificate_number":"EC-NL-2024-118-0011","encumbrance_type":"NIL","financial_institution":"","mortgage_amount":"0.0","created_at":"2026-01-15T09:00:00Z","updated_at":"2026-09-24T11:30:00Z"}},{"type":"Feature","geometry":{"type":"Polygon","coordinates":[[[95.28370177889417,26.195364846423363],[95.4107425261102,26.217914644577466],[95.4107425261102,26.306815024101223],[95.3113292881761,26.306815024101223],[95.28370177889417,26.195364846423363]]]},"properties":{"ulpin":"13000359241645","parcel_id":"2debd22e-711c-4e96-aac5-31b0cfecc1fb","state":"Nagaland","state_code":"NL","state_type":"STATE","state_lgd_code":"13","district_lgd_code":"245","district_name":"Kohima","subdistrict_lgd_code":"2220","subdistrict_name":"Kohima Sadar","subdistrict_type":"Tehsil / Taluk","village_lgd_code":"273010","village_name":"Meriema","khasra_plot_no":"KHEL-MR-108/D12","recorded_area":"0.85","recorded_area_unit":"Hectare","normalized_area_sqm":"8500.0","gis_area_sqm":"8500.0","land_use_category":"WATER_BODY","land_use_raw":"Community Terrace Cultivation","status":"ACTIVE","data_freshness_status":"CURRENT","scenario_index":"10338","use_case_description":"Archived historical record for audit retrieval","mutation_workflow_status":"SLA_BREACHED","revenue_record_id":"ROR-NL-2025-1018-0012","revenue_record_type":"Village Council Land Holding Record","khata_khewat_no":"KHT-68","khatauni_no":"KHN-168","owner_name":"Keviselie Angami","owner_name_local":"Keviselie Angami","co_owners":"","tenure_type":"Bhumiswami / Raiyati with Transferable Rights","mutation_status":"MUTATED","active_mutation_id":"","tax_demand_status":"PAID","annual_tax_inr":"185.5","deed_number":"DEED-NL-2024-418-0012","deed_type":"Sale Deed / Conveyance","sro_office":"Sub-Registrar Office, Kohima Sadar","execution_date":"2024-05-10","registered_owner":"Keviselie Angami","seller_name":"Previous Landholder","consideration_amount_inr":"3500000.0","stamp_duty_inr":"210000.0","survey_sketch_id":"FMB-NL-18-0012","cadastral_sheet_no":"SHT-NL-18","surveyed_area_sqm":"8500.0","survey_status":"DISPUTED","urban_authority":"Kohima Sadar Urban Development & Town Planning Authority","zone_name":"Agricultural / Green Buffer","permitted_land_use":"WATER_BODY","building_permission_status":"REJECTED","violations_reported":"False","is_encumbered":"True","encumbrance_certificate_number":"EC-NL-00000012-0012","encumbrance_type":"BANK_MORTGAGE","financial_institution":"","mortgage_amount":"0.0","created_at":"2026-01-15T09:00:00Z","updated_at":"2026-09-24T11:30:00Z"}},{"type":"Feature","geometry":{"type":"Polygon","coordinates":[[[94.58167579809746,26.60381135033131],[94.6900246850023,26.60381135033131],[94.70721505974203,26.67354591214015],[94.58210513064068,26.684211644920712],[94.58167579809746,26.60381135033131]]]},"properties":{"ulpin":"13411048086119","parcel_id":"aaafc045-3099-40df-9a3b-245d6401781b","state":"Nagaland","state_code":"NL","state_type":"STATE","state_lgd_code":"13","district_lgd_code":"245","district_name":"Kohima","subdistrict_lgd_code":"2220","subdistrict_name":"Kohima Sadar","subdistrict_type":"Tehsil / Taluk","village_lgd_code":"273010","village_name":"Meriema","khasra_plot_no":"KHEL-MR-108/D13","recorded_area":"0.85","recorded_area_unit":"Hectare","normalized_area_sqm":"8500.0","gis_area_sqm":"8500.0","land_use_category":"MIXED_USE","land_use_raw":"Community Terrace Cultivation","status":"PENDING_MUTATION","data_freshness_status":"STALE","scenario_index":"10339","use_case_description":"Bank mortgage and active encumbrance","mutation_workflow_status":"SUBMITTED","revenue_record_id":"ROR-NL-2025-1018-0013","revenue_record_type":"Village Council Land Holding Record","khata_khewat_no":"KHT-68","khatauni_no":"KHN-168","owner_name":"Keviselie Angami","owner_name_local":"Keviselie Angami","co_owners":"","tenure_type":"Bhumiswami / Freehold","mutation_status":"PENDING","active_mutation_id":"MUT-NL-00000013","tax_demand_status":"PAID","annual_tax_inr":"185.5","deed_number":"DEED-NL-2024-418-0013","deed_type":"Sale Deed / Conveyance","sro_office":"Sub-Registrar Office, Kohima Sadar","execution_date":"2024-05-10","registered_owner":"Registry Variance Owner 13","seller_name":"Previous Landholder","consideration_amount_inr":"3500000.0","stamp_duty_inr":"210000.0","survey_sketch_id":"FMB-NL-18-0013","cadastral_sheet_no":"SHT-NL-18","surveyed_area_sqm":"8500.0","survey_status":"RESURVEY_REQUIRED","urban_authority":"Kohima Sadar Urban Development & Town Planning Authority","zone_name":"Agricultural / Green Buffer","permitted_land_use":"MIXED_USE","building_permission_status":"NOT_APPLICABLE","violations_reported":"True","is_encumbered":"True","encumbrance_certificate_number":"EC-NL-00000013-0013","encumbrance_type":"GOVT_REVENUE_LIEN","financial_institution":"","mortgage_amount":"0.0","created_at":"2026-01-15T09:00:00Z","updated_at":"2026-09-24T11:30:00Z"}},{"type":"Feature","geometry":{"type":"Polygon","coordinates":[[[95.06267529479152,26.012487490492067],[95.16767100257447,26.012487490492067],[95.16985469517509,26.096692856853096],[95.06267529479152,26.1166156633208],[95.06267529479152,26.012487490492067]]]},"properties":{"ulpin":"13405572126644","parcel_id":"0c5e487f-da50-4bcc-8d78-5cd49595647f","state":"Nagaland","state_code":"NL","state_type":"STATE","state_lgd_code":"13","district_lgd_code":"245","district_name":"Kohima","subdistrict_lgd_code":"2220","subdistrict_name":"Kohima Sadar","subdistrict_type":"Tehsil / Taluk","village_lgd_code":"273010","village_name":"Meriema","khasra_plot_no":"KHEL-MR-108/D14","recorded_area":"0.85","recorded_area_unit":"Hectare","normalized_area_sqm":"8500.0","gis_area_sqm":"8500.0","land_use_category":"OTHER","land_use_raw":"Community Terrace Cultivation","status":"SUBDIVIDED","data_freshness_status":"UNKNOWN","scenario_index":"10340","use_case_description":"Government revenue lien and tax demand","mutation_workflow_status":"UNDER_VERIFICATION","revenue_record_id":"ROR-NL-2025-1018-0014","revenue_record_type":"Village Council Land Holding Record","khata_khewat_no":"KHT-68","khatauni_no":"KHN-168","owner_name":"Keviselie Angami","owner_name_local":"Keviselie Angami","co_owners":"","tenure_type":"Leasehold","mutation_status":"UNMUTATED_TRANSACTION","active_mutation_id":"MUT-NL-00000014","tax_demand_status":"PAID","annual_tax_inr":"185.5","deed_number":"DEED-NL-2024-418-0014","deed_type":"Sale Deed / Conveyance","sro_office":"Sub-Registrar Office, Kohima Sadar","execution_date":"2024-05-10","registered_owner":"Keviselie Angami","seller_name":"Previous Landholder","consideration_amount_inr":"3500000.0","stamp_duty_inr":"210000.0","survey_sketch_id":"FMB-NL-18-0014","cadastral_sheet_no":"SHT-NL-18","surveyed_area_sqm":"8500.0","survey_status":"SURVEYED","urban_authority":"Kohima Sadar Urban Development & Town Planning Authority","zone_name":"Agricultural / Green Buffer","permitted_land_use":"OTHER","building_permission_status":"SANCTIONED","violations_reported":"False","is_encumbered":"True","encumbrance_certificate_number":"EC-NL-00000014-0014","encumbrance_type":"COURT_ATTACHMENT","financial_institution":"","mortgage_amount":"0.0","created_at":"2026-01-15T09:00:00Z","updated_at":"2026-09-24T11:30:00Z"}},{"type":"Feature","geometry":{"type":"Polygon","coordinates":[[[94.47550190431865,26.68656134704891],[94.58210513064068,26.684211644920712],[94.58245026152757,26.753290218876042],[94.47550190431865,26.760904016699335],[94.47550190431865,26.68656134704891]]]},"properties":{"ulpin":"13660823239096","parcel_id":"c6f509c4-b692-42b5-84d6-f8199c3a2567","state":"Nagaland","state_code":"NL","state_type":"STATE","state_lgd_code":"13","district_lgd_code":"245","district_name":"Kohima","subdistrict_lgd_code":"2220","subdistrict_name":"Kohima Sadar","subdistrict_type":"Tehsil / Taluk","village_lgd_code":"273010","village_name":"Meriema","khasra_plot_no":"KHEL-MR-108/D15","recorded_area":"0.85","recorded_area_unit":"Hectare","normalized_area_sqm":"8500.0","gis_area_sqm":"8500.0","land_use_category":"RESIDENTIAL","land_use_raw":"Community Terrace Cultivation","status":"AMALGAMATED","data_freshness_status":"CURRENT","scenario_index":"10341","use_case_description":"Court attachment and disputed possession","mutation_workflow_status":"NOTICE_PERIOD","revenue_record_id":"ROR-NL-2025-1018-0015","revenue_record_type":"Village Council Land Holding Record","khata_khewat_no":"KHT-68","khatauni_no":"KHN-168","owner_name":"Keviselie Angami","owner_name_local":"Keviselie Angami","co_owners":"","tenure_type":"Government Grant","mutation_status":"REJECTED","active_mutation_id":"MUT-NL-00000015","tax_demand_status":"PAID","annual_tax_inr":"185.5","deed_number":"DEED-NL-2024-418-0015","deed_type":"Sale Deed / Conveyance","sro_office":"Sub-Registrar Office, Kohima Sadar","execution_date":"2024-05-10","registered_owner":"Keviselie Angami","seller_name":"Previous Landholder","consideration_amount_inr":"3500000.0","stamp_duty_inr":"210000.0","survey_sketch_id":"FMB-NL-18-0015","cadastral_sheet_no":"SHT-NL-18","surveyed_area_sqm":"8500.0","survey_status":"PENDING","urban_authority":"Kohima Sadar Urban Development & Town Planning Authority","zone_name":"Agricultural / Green Buffer","permitted_land_use":"RESIDENTIAL","building_permission_status":"PENDING","violations_reported":"False","is_encumbered":"True","encumbrance_certificate_number":"EC-NL-00000015-0015","encumbrance_type":"TRIBAL_NON_ALIENATION","financial_institution":"","mortgage_amount":"0.0","created_at":"2026-01-15T09:00:00Z","updated_at":"2026-09-24T11:30:00Z"}},{"type":"Feature","geometry":{"type":"Polygon","coordinates":[[[94.58245026152757,26.753290218876042],[94.71301873376026,26.7630057099618],[94.70742566755821,26.842817148671458],[94.56863074714566,26.842254587964625],[94.58245026152757,26.753290218876042]]]},"properties":{"ulpin":"13201265899624","parcel_id":"1486d9f7-d146-494c-b399-f091550bc604","state":"Nagaland","state_code":"NL","state_type":"STATE","state_lgd_code":"13","district_lgd_code":"245","district_name":"Kohima","subdistrict_lgd_code":"2220","subdistrict_name":"Kohima Sadar","subdistrict_type":"Tehsil / Taluk","village_lgd_code":"273010","village_name":"Meriema","khasra_plot_no":"KHEL-MR-108/D16","recorded_area":"0.85","recorded_area_unit":"Hectare","normalized_area_sqm":"8500.0","gis_area_sqm":"8500.0","land_use_category":"COMMERCIAL","land_use_raw":"Community Terrace Cultivation","status":"DISPUTED","data_freshness_status":"STALE","scenario_index":"10342","use_case_description":"Tribal non-alienation protection review","mutation_workflow_status":"HEARING_SCHEDULED","revenue_record_id":"ROR-NL-2025-1018-0016","revenue_record_type":"Village Council Land Holding Record","khata_khewat_no":"KHT-68","khatauni_no":"KHN-168","owner_name":"Keviselie Angami","owner_name_local":"Keviselie Angami","co_owners":"","tenure_type":"Waqf / Religious Trust","mutation_status":"DISPUTED","active_mutation_id":"MUT-NL-00000016","tax_demand_status":"PAID","annual_tax_inr":"185.5","deed_number":"DEED-NL-2024-418-0016","deed_type":"Sale Deed / Conveyance","sro_office":"Sub-Registrar Office, Kohima Sadar","execution_date":"2024-05-10","registered_owner":"Keviselie Angami","seller_name":"Previous Landholder","consideration_amount_inr":"3500000.0","stamp_duty_inr":"210000.0","survey_sketch_id":"FMB-NL-18-0016","cadastral_sheet_no":"SHT-NL-18","surveyed_area_sqm":"8500.0","survey_status":"DISPUTED","urban_authority":"Kohima Sadar Urban Development & Town Planning Authority","zone_name":"Agricultural / Green Buffer","permitted_land_use":"COMMERCIAL","building_permission_status":"REJECTED","violations_reported":"False","is_encumbered":"True","encumbrance_certificate_number":"EC-NL-00000016-0016","encumbrance_type":"LEASE_CHARGE","financial_institution":"","mortgage_amount":"0.0","created_at":"2026-01-15T09:00:00Z","updated_at":"2026-09-24T11:30:00Z"}},{"type":"Feature","geometry":{"type":"Polygon","coordinates":[[[94.70721505974203,26.67354591214015],[94.80683611309657,26.681366288380236],[94.80683611309657,26.764309122653422],[94.71301873376026,26.7630057099618],[94.70721505974203,26.67354591214015]]]},"properties":{"ulpin":"13466213632782","parcel_id":"21868c40-3945-42e9-8f73-63da592b1a32","state":"Nagaland","state_code":"NL","state_type":"STATE","state_lgd_code":"13","district_lgd_code":"245","district_name":"Kohima","subdistrict_lgd_code":"2220","subdistrict_name":"Kohima Sadar","subdistrict_type":"Tehsil / Taluk","village_lgd_code":"273010","village_name":"Meriema","khasra_plot_no":"KHEL-MR-108/D17","recorded_area":"0.85","recorded_area_unit":"Hectare","normalized_area_sqm":"8500.0","gis_area_sqm":"8500.0","land_use_category":"INDUSTRIAL","land_use_raw":"Community Terrace Cultivation","status":"ARCHIVED","data_freshness_status":"UNKNOWN","scenario_index":"10343","use_case_description":"Bank mortgage and active encumbrance","mutation_workflow_status":"APPROVED","revenue_record_id":"ROR-NL-2025-1018-0017","revenue_record_type":"Village Council Land Holding Record","khata_khewat_no":"KHT-68","khatauni_no":"KHN-168","owner_name":"Keviselie Angami","owner_name_local":"Keviselie Angami","co_owners":"","tenure_type":"Tribal Community Tenure","mutation_status":"NONE","active_mutation_id":"MUT-NL-00000017","tax_demand_status":"PAID","annual_tax_inr":"185.5","deed_number":"DEED-NL-2024-418-0017","deed_type":"Sale Deed / Conveyance","sro_office":"Sub-Registrar Office, Kohima Sadar","execution_date":"2024-05-10","registered_owner":"Keviselie Angami","seller_name":"Previous Landholder","consideration_amount_inr":"3500000.0","stamp_duty_inr":"210000.0","survey_sketch_id":"FMB-NL-18-0017","cadastral_sheet_no":"SHT-NL-18","surveyed_area_sqm":"8500.0","survey_status":"RESURVEY_REQUIRED","urban_authority":"Kohima Sadar Urban Development & Town Planning Authority","zone_name":"Agricultural / Green Buffer","permitted_land_use":"INDUSTRIAL","building_permission_status":"NOT_APPLICABLE","violations_reported":"False","is_encumbered":"False","encumbrance_certificate_number":"EC-NL-2024-118-0017","encumbrance_type":"NIL","financial_institution":"","mortgage_amount":"0.0","created_at":"2026-01-15T09:00:00Z","updated_at":"2026-09-24T11:30:00Z"}},{"type":"Feature","geometry":{"type":"Polygon","coordinates":[[[94.41619409583821,26.027883662202584],[94.5740446117569,26.027883662202584],[94.55549626512838,26.150513954728414],[94.43803353790786,26.14839428281701],[94.41619409583821,26.027883662202584]]]},"properties":{"ulpin":"13600327761148","parcel_id":"c1e38bfb-da1d-4f08-a646-97b642d47b5f","state":"Nagaland","state_code":"NL","state_type":"STATE","state_lgd_code":"13","district_lgd_code":"245","district_name":"Kohima","subdistrict_lgd_code":"2220","subdistrict_name":"Kohima Sadar","subdistrict_type":"Tehsil / Taluk","village_lgd_code":"273010","village_name":"Meriema","khasra_plot_no":"KHEL-MR-108/D18","recorded_area":"0.85","recorded_area_unit":"Hectare","normalized_area_sqm":"8500.0","gis_area_sqm":"8500.0","land_use_category":"AGRICULTURAL","land_use_raw":"Community Terrace Cultivation","status":"ACTIVE","data_freshness_status":"CURRENT","scenario_index":"10344","use_case_description":"Subdivision or amalgamation history review","mutation_workflow_status":"REJECTED","revenue_record_id":"ROR-NL-2025-1018-0018","revenue_record_type":"Village Council Land Holding Record","khata_khewat_no":"KHT-68","khatauni_no":"KHN-168","owner_name":"Keviselie Angami","owner_name_local":"Keviselie Angami","co_owners":"","tenure_type":"Bhumiswami / Raiyati with Transferable Rights","mutation_status":"MUTATED","active_mutation_id":"","tax_demand_status":"PAID","annual_tax_inr":"185.5","deed_number":"DEED-NL-2024-418-0018","deed_type":"Sale Deed / Conveyance","sro_office":"Sub-Registrar Office, Kohima Sadar","execution_date":"2024-05-10","registered_owner":"Registry Variance Owner 18","seller_name":"Previous Landholder","consideration_amount_inr":"3500000.0","stamp_duty_inr":"210000.0","survey_sketch_id":"FMB-NL-18-0018","cadastral_sheet_no":"SHT-NL-18","surveyed_area_sqm":"8500.0","survey_status":"SURVEYED","urban_authority":"Kohima Sadar Urban Development & Town Planning Authority","zone_name":"Agricultural / Green Buffer","permitted_land_use":"AGRICULTURAL","building_permission_status":"SANCTIONED","violations_reported":"False","is_encumbered":"True","encumbrance_certificate_number":"EC-NL-00000018-0018","encumbrance_type":"BANK_MORTGAGE","financial_institution":"","mortgage_amount":"0.0","created_at":"2026-01-15T09:00:00Z","updated_at":"2026-09-24T11:30:00Z"}},{"type":"Feature","geometry":{"type":"Polygon","coordinates":[[[94.97013218965438,26.58530501980811],[95.12088433533195,26.58530501980811],[95.15121856213786,26.686495434975352],[94.97013218965438,26.69032169598332],[94.97013218965438,26.58530501980811]]]},"properties":{"ulpin":"13953053844842","parcel_id":"203b6b8c-7233-4ecd-bfff-e2400b707ef8","state":"Nagaland","state_code":"NL","state_type":"STATE","state_lgd_code":"13","district_lgd_code":"245","district_name":"Kohima","subdistrict_lgd_code":"2220","subdistrict_name":"Kohima Sadar","subdistrict_type":"Tehsil / Taluk","village_lgd_code":"273010","village_name":"Meriema","khasra_plot_no":"KHEL-MR-108/D19","recorded_area":"0.85","recorded_area_unit":"Hectare","normalized_area_sqm":"8500.0","gis_area_sqm":"8500.0","land_use_category":"INSTITUTIONAL","land_use_raw":"Community Terrace Cultivation","status":"PENDING_MUTATION","data_freshness_status":"STALE","scenario_index":"10345","use_case_description":"Archived historical record for audit retrieval","mutation_workflow_status":"SLA_BREACHED","revenue_record_id":"ROR-NL-2025-1018-0019","revenue_record_type":"Village Council Land Holding Record","khata_khewat_no":"KHT-68","khatauni_no":"KHN-168","owner_name":"Keviselie Angami","owner_name_local":"Keviselie Angami","co_owners":"","tenure_type":"Bhumiswami / Freehold","mutation_status":"PENDING","active_mutation_id":"MUT-NL-00000019","tax_demand_status":"PAID","annual_tax_inr":"185.5","deed_number":"DEED-NL-2024-418-0019","deed_type":"Sale Deed / Conveyance","sro_office":"Sub-Registrar Office, Kohima Sadar","execution_date":"2024-05-10","registered_owner":"Keviselie Angami","seller_name":"Previous Landholder","consideration_amount_inr":"3500000.0","stamp_duty_inr":"210000.0","survey_sketch_id":"FMB-NL-18-0019","cadastral_sheet_no":"SHT-NL-18","surveyed_area_sqm":"8500.0","survey_status":"PENDING","urban_authority":"Kohima Sadar Urban Development & Town Planning Authority","zone_name":"Agricultural / Green Buffer","permitted_land_use":"INSTITUTIONAL","building_permission_status":"PENDING","violations_reported":"False","is_encumbered":"True","encumbrance_certificate_number":"EC-NL-00000019-0019","encumbrance_type":"GOVT_REVENUE_LIEN","financial_institution":"","mortgage_amount":"0.0","created_at":"2026-01-15T09:00:00Z","updated_at":"2026-09-24T11:30:00Z"}},{"type":"Feature","geometry":{"type":"Polygon","coordinates":[[[94.55549626512838,26.150513954728414],[94.69997955949687,26.121550593609978],[94.69997955949687,26.239390117443403],[94.58748410391036,26.244397779808818],[94.55549626512838,26.150513954728414]]]},"properties":{"ulpin":"13137713874161","parcel_id":"f59c506f-0cc3-4ae0-be54-f5203db7ac20","state":"Nagaland","state_code":"NL","state_type":"STATE","state_lgd_code":"13","district_lgd_code":"245","district_name":"Kohima","subdistrict_lgd_code":"2220","subdistrict_name":"Kohima Sadar","subdistrict_type":"Tehsil / Taluk","village_lgd_code":"273010","village_name":"Meriema","khasra_plot_no":"KHEL-MR-108/D20","recorded_area":"0.85","recorded_area_unit":"Hectare","normalized_area_sqm":"8500.0","gis_area_sqm":"8500.0","land_use_category":"FOREST_GREEN_BELT","land_use_raw":"Community Terrace Cultivation","status":"SUBDIVIDED","data_freshness_status":"UNKNOWN","scenario_index":"10346","use_case_description":"Bank mortgage and active encumbrance","mutation_workflow_status":"SUBMITTED","revenue_record_id":"ROR-NL-2025-1018-0020","revenue_record_type":"Village Council Land Holding Record","khata_khewat_no":"KHT-68","khatauni_no":"KHN-168","owner_name":"Keviselie Angami","owner_name_local":"Keviselie Angami","co_owners":"","tenure_type":"Leasehold","mutation_status":"UNMUTATED_TRANSACTION","active_mutation_id":"MUT-NL-00000020","tax_demand_status":"PAID","annual_tax_inr":"185.5","deed_number":"DEED-NL-2024-418-0020","deed_type":"Sale Deed / Conveyance","sro_office":"Sub-Registrar Office, Kohima Sadar","execution_date":"2024-05-10","registered_owner":"Keviselie Angami","seller_name":"Previous Landholder","consideration_amount_inr":"3500000.0","stamp_duty_inr":"210000.0","survey_sketch_id":"FMB-NL-18-0020","cadastral_sheet_no":"SHT-NL-18","surveyed_area_sqm":"8500.0","survey_status":"DISPUTED","urban_authority":"Kohima Sadar Urban Development & Town Planning Authority","zone_name":"Agricultural / Green Buffer","permitted_land_use":"FOREST_GREEN_BELT","building_permission_status":"REJECTED","violations_reported":"True","is_encumbered":"True","encumbrance_certificate_number":"EC-NL-00000020-0020","encumbrance_type":"COURT_ATTACHMENT","financial_institution":"","mortgage_amount":"0.0","created_at":"2026-01-15T09:00:00Z","updated_at":"2026-09-24T11:30:00Z"}},{"type":"Feature","geometry":{"type":"Polygon","coordinates":[[[94.58210513064068,26.684211644920712],[94.70721505974203,26.67354591214015],[94.71301873376026,26.7630057099618],[94.58245026152757,26.753290218876042],[94.58210513064068,26.684211644920712]]]},"properties":{"ulpin":"13618003092573","parcel_id":"0b19e239-c7aa-4058-81fb-e7a75825670a","state":"Nagaland","state_code":"NL","state_type":"STATE","state_lgd_code":"13","district_lgd_code":"245","district_name":"Kohima","subdistrict_lgd_code":"2220","subdistrict_name":"Kohima Sadar","subdistrict_type":"Tehsil / Taluk","village_lgd_code":"273010","village_name":"Meriema","khasra_plot_no":"KHEL-MR-108/D21","recorded_area":"0.85","recorded_area_unit":"Hectare","normalized_area_sqm":"8500.0","gis_area_sqm":"8500.0","land_use_category":"WATER_BODY","land_use_raw":"Community Terrace Cultivation","status":"AMALGAMATED","data_freshness_status":"CURRENT","scenario_index":"10347","use_case_description":"Government revenue lien and tax demand","mutation_workflow_status":"UNDER_VERIFICATION","revenue_record_id":"ROR-NL-2025-1018-0021","revenue_record_type":"Village Council Land Holding Record","khata_khewat_no":"KHT-68","khatauni_no":"KHN-168","owner_name":"Keviselie Angami","owner_name_local":"Keviselie Angami","co_owners":"","tenure_type":"Government Grant","mutation_status":"REJECTED","active_mutation_id":"MUT-NL-00000021","tax_demand_status":"PAID","annual_tax_inr":"185.5","deed_number":"DEED-NL-2024-418-0021","deed_type":"Sale Deed / Conveyance","sro_office":"Sub-Registrar Office, Kohima Sadar","execution_date":"2024-05-10","registered_owner":"Keviselie Angami","seller_name":"Previous Landholder","consideration_amount_inr":"3500000.0","stamp_duty_inr":"210000.0","survey_sketch_id":"FMB-NL-18-0021","cadastral_sheet_no":"SHT-NL-18","surveyed_area_sqm":"8500.0","survey_status":"RESURVEY_REQUIRED","urban_authority":"Kohima Sadar Urban Development & Town Planning Authority","zone_name":"Agricultural / Green Buffer","permitted_land_use":"WATER_BODY","building_permission_status":"NOT_APPLICABLE","violations_reported":"False","is_encumbered":"True","encumbrance_certificate_number":"EC-NL-00000021-0021","encumbrance_type":"TRIBAL_NON_ALIENATION","financial_institution":"","mortgage_amount":"0.0","created_at":"2026-01-15T09:00:00Z","updated_at":"2026-09-24T11:30:00Z"}},{"type":"Feature","geometry":{"type":"Polygon","coordinates":[[[94.97013218965438,26.69032169598332],[95.15121856213786,26.686495434975352],[95.13535936864531,26.797028716352585],[94.97013218965438,26.79438081945813],[94.97013218965438,26.69032169598332]]]},"properties":{"ulpin":"13787774952836","parcel_id":"f5bcb2cb-a69c-400c-831a-c74414cc2ff5","state":"Nagaland","state_code":"NL","state_type":"STATE","state_lgd_code":"13","district_lgd_code":"245","district_name":"Kohima","subdistrict_lgd_code":"2220","subdistrict_name":"Kohima Sadar","subdistrict_type":"Tehsil / Taluk","village_lgd_code":"273010","village_name":"Meriema","khasra_plot_no":"KHEL-MR-108/D22","recorded_area":"0.85","recorded_area_unit":"Hectare","normalized_area_sqm":"8500.0","gis_area_sqm":"8500.0","land_use_category":"MIXED_USE","land_use_raw":"Community Terrace Cultivation","status":"DISPUTED","data_freshness_status":"STALE","scenario_index":"10348","use_case_description":"Court attachment and disputed possession","mutation_workflow_status":"NOTICE_PERIOD","revenue_record_id":"ROR-NL-2025-1018-0022","revenue_record_type":"Village Council Land Holding Record","khata_khewat_no":"KHT-68","khatauni_no":"KHN-168","owner_name":"Keviselie Angami","owner_name_local":"Keviselie Angami","co_owners":"","tenure_type":"Waqf / Religious Trust","mutation_status":"DISPUTED","active_mutation_id":"MUT-NL-00000022","tax_demand_status":"PAID","annual_tax_inr":"185.5","deed_number":"DEED-NL-2024-418-0022","deed_type":"Sale Deed / Conveyance","sro_office":"Sub-Registrar Office, Kohima Sadar","execution_date":"2024-05-10","registered_owner":"Keviselie Angami","seller_name":"Previous Landholder","consideration_amount_inr":"3500000.0","stamp_duty_inr":"210000.0","survey_sketch_id":"FMB-NL-18-0022","cadastral_sheet_no":"SHT-NL-18","surveyed_area_sqm":"8500.0","survey_status":"SURVEYED","urban_authority":"Kohima Sadar Urban Development & Town Planning Authority","zone_name":"Agricultural / Green Buffer","permitted_land_use":"MIXED_USE","building_permission_status":"SANCTIONED","violations_reported":"False","is_encumbered":"True","encumbrance_certificate_number":"EC-NL-00000022-0022","encumbrance_type":"LEASE_CHARGE","financial_institution":"","mortgage_amount":"0.0","created_at":"2026-01-15T09:00:00Z","updated_at":"2026-09-24T11:30:00Z"}},{"type":"Feature","geometry":{"type":"Polygon","coordinates":[[[94.42437559043664,26.228368966970653],[94.58748410391036,26.244397779808818],[94.55756678823381,26.349456865104443],[94.41243854613349,26.349456865104443],[94.42437559043664,26.228368966970653]]]},"properties":{"ulpin":"13613367850830","parcel_id":"9d50660d-f0b6-4432-a453-20658eedf461","state":"Nagaland","state_code":"NL","state_type":"STATE","state_lgd_code":"13","district_lgd_code":"245","district_name":"Kohima","subdistrict_lgd_code":"2220","subdistrict_name":"Kohima Sadar","subdistrict_type":"Tehsil / Taluk","village_lgd_code":"273010","village_name":"Meriema","khasra_plot_no":"KHEL-MR-108/D23","recorded_area":"0.85","recorded_area_unit":"Hectare","normalized_area_sqm":"8500.0","gis_area_sqm":"8500.0","land_use_category":"OTHER","land_use_raw":"Community Terrace Cultivation","status":"ARCHIVED","data_freshness_status":"UNKNOWN","scenario_index":"10349","use_case_description":"Archived historical record for audit retrieval","mutation_workflow_status":"HEARING_SCHEDULED","revenue_record_id":"ROR-NL-2025-1018-0023","revenue_record_type":"Village Council Land Holding Record","khata_khewat_no":"KHT-68","khatauni_no":"KHN-168","owner_name":"Keviselie Angami","owner_name_local":"Keviselie Angami","co_owners":"","tenure_type":"Tribal Community Tenure","mutation_status":"NONE","active_mutation_id":"MUT-NL-00000023","tax_demand_status":"PAID","annual_tax_inr":"185.5","deed_number":"DEED-NL-2024-418-0023","deed_type":"Sale Deed / Conveyance","sro_office":"Sub-Registrar Office, Kohima Sadar","execution_date":"2024-05-10","registered_owner":"Registry Variance Owner 23","seller_name":"Previous Landholder","consideration_amount_inr":"3500000.0","stamp_duty_inr":"210000.0","survey_sketch_id":"FMB-NL-18-0023","cadastral_sheet_no":"SHT-NL-18","surveyed_area_sqm":"8500.0","survey_status":"PENDING","urban_authority":"Kohima Sadar Urban Development & Town Planning Authority","zone_name":"Agricultural / Green Buffer","permitted_land_use":"OTHER","building_permission_status":"PENDING","violations_reported":"False","is_encumbered":"False","encumbrance_certificate_number":"EC-NL-2024-118-0023","encumbrance_type":"NIL","financial_institution":"","mortgage_amount":"0.0","created_at":"2026-01-15T09:00:00Z","updated_at":"2026-09-24T11:30:00Z"}},{"type":"Feature","geometry":{"type":"Polygon","coordinates":[[[95.30721553825384,26.109552806595364],[95.4107425261102,26.123008856788815],[95.4107425261102,26.217914644577466],[95.28370177889417,26.195364846423363],[95.30721553825384,26.109552806595364]]]},"properties":{"ulpin":"13071233451631","parcel_id":"812df8ce-82d5-470d-86f7-244ca5965028","state":"Nagaland","state_code":"NL","state_type":"STATE","state_lgd_code":"13","district_lgd_code":"245","district_name":"Kohima","subdistrict_lgd_code":"2220","subdistrict_name":"Kohima Sadar","subdistrict_type":"Tehsil / Taluk","village_lgd_code":"273010","village_name":"Meriema","khasra_plot_no":"KHEL-MR-108/D24","recorded_area":"0.85","recorded_area_unit":"Hectare","normalized_area_sqm":"8500.0","gis_area_sqm":"8500.0","land_use_category":"RESIDENTIAL","land_use_raw":"Community Terrace Cultivation","status":"ACTIVE","data_freshness_status":"CURRENT","scenario_index":"10350","use_case_description":"Lease charge and institutional tenancy","mutation_workflow_status":"APPROVED","revenue_record_id":"ROR-NL-2025-1018-0024","revenue_record_type":"Village Council Land Holding Record","khata_khewat_no":"KHT-68","khatauni_no":"KHN-168","owner_name":"Keviselie Angami","owner_name_local":"Keviselie Angami","co_owners":"","tenure_type":"Bhumiswami / Raiyati with Transferable Rights","mutation_status":"MUTATED","active_mutation_id":"","tax_demand_status":"PAID","annual_tax_inr":"185.5","deed_number":"DEED-NL-2024-418-0024","deed_type":"Sale Deed / Conveyance","sro_office":"Sub-Registrar Office, Kohima Sadar","execution_date":"2024-05-10","registered_owner":"Keviselie Angami","seller_name":"Previous Landholder","consideration_amount_inr":"3500000.0","stamp_duty_inr":"210000.0","survey_sketch_id":"FMB-NL-18-0024","cadastral_sheet_no":"SHT-NL-18","surveyed_area_sqm":"8500.0","survey_status":"DISPUTED","urban_authority":"Kohima Sadar Urban Development & Town Planning Authority","zone_name":"Agricultural / Green Buffer","permitted_land_use":"RESIDENTIAL","building_permission_status":"REJECTED","violations_reported":"False","is_encumbered":"True","encumbrance_certificate_number":"EC-NL-00000024-0024","encumbrance_type":"BANK_MORTGAGE","financial_institution":"","mortgage_amount":"0.0","created_at":"2026-01-15T09:00:00Z","updated_at":"2026-09-24T11:30:00Z"}},{"type":"Feature","geometry":{"type":"Polygon","coordinates":[[[94.29917653667647,26.24125932532838],[94.42437559043664,26.228368966970653],[94.41243854613349,26.349456865104443],[94.29917653667647,26.349456865104443],[94.29917653667647,26.24125932532838]]]},"properties":{"ulpin":"13082511296913","parcel_id":"10f9b06b-66b0-4862-813e-6f9ee5135fab","state":"Nagaland","state_code":"NL","state_type":"STATE","state_lgd_code":"13","district_lgd_code":"245","district_name":"Kohima","subdistrict_lgd_code":"2220","subdistrict_name":"Kohima Sadar","subdistrict_type":"Tehsil / Taluk","village_lgd_code":"273010","village_name":"Meriema","khasra_plot_no":"KHEL-MR-108/D25","recorded_area":"0.85","recorded_area_unit":"Hectare","normalized_area_sqm":"8500.0","gis_area_sqm":"8500.0","land_use_category":"COMMERCIAL","land_use_raw":"Community Terrace Cultivation","status":"PENDING_MUTATION","data_freshness_status":"STALE","scenario_index":"10351","use_case_description":"Subdivision or amalgamation history review","mutation_workflow_status":"REJECTED","revenue_record_id":"ROR-NL-2025-1018-0025","revenue_record_type":"Village Council Land Holding Record","khata_khewat_no":"KHT-68","khatauni_no":"KHN-168","owner_name":"Keviselie Angami","owner_name_local":"Keviselie Angami","co_owners":"","tenure_type":"Bhumiswami / Freehold","mutation_status":"PENDING","active_mutation_id":"MUT-NL-00000025","tax_demand_status":"PAID","annual_tax_inr":"185.5","deed_number":"DEED-NL-2024-418-0025","deed_type":"Sale Deed / Conveyance","sro_office":"Sub-Registrar Office, Kohima Sadar","execution_date":"2024-05-10","registered_owner":"Keviselie Angami","seller_name":"Previous Landholder","consideration_amount_inr":"3500000.0","stamp_duty_inr":"210000.0","survey_sketch_id":"FMB-NL-18-0025","cadastral_sheet_no":"SHT-NL-18","surveyed_area_sqm":"8500.0","survey_status":"RESURVEY_REQUIRED","urban_authority":"Kohima Sadar Urban Development & Town Planning Authority","zone_name":"Agricultural / Green Buffer","permitted_land_use":"COMMERCIAL","building_permission_status":"NOT_APPLICABLE","violations_reported":"False","is_encumbered":"True","encumbrance_certificate_number":"EC-NL-00000025-0025","encumbrance_type":"GOVT_REVENUE_LIEN","financial_institution":"","mortgage_amount":"0.0","created_at":"2026-01-15T09:00:00Z","updated_at":"2026-09-24T11:30:00Z"}},{"type":"Feature","geometry":{"type":"Polygon","coordinates":[[[95.16767100257447,26.012487490492067],[95.29317585808316,26.012487490492067],[95.30721553825384,26.109552806595364],[95.16985469517509,26.096692856853096],[95.16767100257447,26.012487490492067]]]},"properties":{"ulpin":"13260747298284","parcel_id":"35e32c86-b2bb-45a4-a10b-86e6a14be6ca","state":"Nagaland","state_code":"NL","state_type":"STATE","state_lgd_code":"13","district_lgd_code":"245","district_name":"Kohima","subdistrict_lgd_code":"2220","subdistrict_name":"Kohima Sadar","subdistrict_type":"Tehsil / Taluk","village_lgd_code":"273010","village_name":"Meriema","khasra_plot_no":"KHEL-MR-108/D26","recorded_area":"0.85","recorded_area_unit":"Hectare","normalized_area_sqm":"8500.0","gis_area_sqm":"8500.0","land_use_category":"INDUSTRIAL","land_use_raw":"Community Terrace Cultivation","status":"SUBDIVIDED","data_freshness_status":"UNKNOWN","scenario_index":"10352","use_case_description":"Archived historical record for audit retrieval","mutation_workflow_status":"SLA_BREACHED","revenue_record_id":"ROR-NL-2025-1018-0026","revenue_record_type":"Village Council Land Holding Record","khata_khewat_no":"KHT-68","khatauni_no":"KHN-168","owner_name":"Keviselie Angami","owner_name_local":"Keviselie Angami","co_owners":"","tenure_type":"Leasehold","mutation_status":"UNMUTATED_TRANSACTION","active_mutation_id":"MUT-NL-00000026","tax_demand_status":"PAID","annual_tax_inr":"185.5","deed_number":"DEED-NL-2024-418-0026","deed_type":"Sale Deed / Conveyance","sro_office":"Sub-Registrar Office, Kohima Sadar","execution_date":"2024-05-10","registered_owner":"Keviselie Angami","seller_name":"Previous Landholder","consideration_amount_inr":"3500000.0","stamp_duty_inr":"210000.0","survey_sketch_id":"FMB-NL-18-0026","cadastral_sheet_no":"SHT-NL-18","surveyed_area_sqm":"8500.0","survey_status":"SURVEYED","urban_authority":"Kohima Sadar Urban Development & Town Planning Authority","zone_name":"Agricultural / Green Buffer","permitted_land_use":"INDUSTRIAL","building_permission_status":"SANCTIONED","violations_reported":"False","is_encumbered":"True","encumbrance_certificate_number":"EC-NL-00000026-0026","encumbrance_type":"COURT_ATTACHMENT","financial_institution":"","mortgage_amount":"0.0","created_at":"2026-01-15T09:00:00Z","updated_at":"2026-09-24T11:30:00Z"}},{"type":"Feature","geometry":{"type":"Polygon","coordinates":[[[95.12088433533195,26.58530501980811],[95.31367608744515,26.58530501980811],[95.31367608744515,26.70376367636232],[95.15121856213786,26.686495434975352],[95.12088433533195,26.58530501980811]]]},"properties":{"ulpin":"13217412658670","parcel_id":"f58b3e35-e395-4194-a943-c8fede290a87","state":"Nagaland","state_code":"NL","state_type":"STATE","state_lgd_code":"13","district_lgd_code":"245","district_name":"Kohima","subdistrict_lgd_code":"2220","subdistrict_name":"Kohima Sadar","subdistrict_type":"Tehsil / Taluk","village_lgd_code":"273010","village_name":"Meriema","khasra_plot_no":"KHEL-MR-108/D27","recorded_area":"0.85","recorded_area_unit":"Hectare","normalized_area_sqm":"8500.0","gis_area_sqm":"8500.0","land_use_category":"AGRICULTURAL","land_use_raw":"Community Terrace Cultivation","status":"AMALGAMATED","data_freshness_status":"CURRENT","scenario_index":"10353","use_case_description":"Bank mortgage and active encumbrance","mutation_workflow_status":"SUBMITTED","revenue_record_id":"ROR-NL-2025-1018-0027","revenue_record_type":"Village Council Land Holding Record","khata_khewat_no":"KHT-68","khatauni_no":"KHN-168","owner_name":"Keviselie Angami","owner_name_local":"Keviselie Angami","co_owners":"","tenure_type":"Government Grant","mutation_status":"REJECTED","active_mutation_id":"MUT-NL-00000027","tax_demand_status":"PAID","annual_tax_inr":"185.5","deed_number":"DEED-NL-2024-418-0027","deed_type":"Sale Deed / Conveyance","sro_office":"Sub-Registrar Office, Kohima Sadar","execution_date":"2024-05-10","registered_owner":"Keviselie Angami","seller_name":"Previous Landholder","consideration_amount_inr":"3500000.0","stamp_duty_inr":"210000.0","survey_sketch_id":"FMB-NL-18-0027","cadastral_sheet_no":"SHT-NL-18","surveyed_area_sqm":"8500.0","survey_status":"PENDING","urban_authority":"Kohima Sadar Urban Development & Town Planning Authority","zone_name":"Agricultural / Green Buffer","permitted_land_use":"AGRICULTURAL","building_permission_status":"PENDING","violations_reported":"True","is_encumbered":"True","encumbrance_certificate_number":"EC-NL-00000027-0027","encumbrance_type":"TRIBAL_NON_ALIENATION","financial_institution":"","mortgage_amount":"0.0","created_at":"2026-01-15T09:00:00Z","updated_at":"2026-09-24T11:30:00Z"}},{"type":"Feature","geometry":{"type":"Polygon","coordinates":[[[94.47550190431865,26.760904016699335],[94.58245026152757,26.753290218876042],[94.56863074714566,26.842254587964625],[94.47550190431865,26.842408932826718],[94.47550190431865,26.760904016699335]]]},"properties":{"ulpin":"13471005627770","parcel_id":"e0810df3-322f-47da-9b83-39d752f108f3","state":"Nagaland","state_code":"NL","state_type":"STATE","state_lgd_code":"13","district_lgd_code":"245","district_name":"Kohima","subdistrict_lgd_code":"2220","subdistrict_name":"Kohima Sadar","subdistrict_type":"Tehsil / Taluk","village_lgd_code":"273010","village_name":"Meriema","khasra_plot_no":"KHEL-MR-108/D28","recorded_area":"0.85","recorded_area_unit":"Hectare","normalized_area_sqm":"8500.0","gis_area_sqm":"8500.0","land_use_category":"INSTITUTIONAL","land_use_raw":"Community Terrace Cultivation","status":"DISPUTED","data_freshness_status":"STALE","scenario_index":"10354","use_case_description":"Government revenue lien and tax demand","mutation_workflow_status":"UNDER_VERIFICATION","revenue_record_id":"ROR-NL-2025-1018-0028","revenue_record_type":"Village Council Land Holding Record","khata_khewat_no":"KHT-68","khatauni_no":"KHN-168","owner_name":"Keviselie Angami","owner_name_local":"Keviselie Angami","co_owners":"","tenure_type":"Waqf / Religious Trust","mutation_status":"DISPUTED","active_mutation_id":"MUT-NL-00000028","tax_demand_status":"PAID","annual_tax_inr":"185.5","deed_number":"DEED-NL-2024-418-0028","deed_type":"Sale Deed / Conveyance","sro_office":"Sub-Registrar Office, Kohima Sadar","execution_date":"2024-05-10","registered_owner":"Registry Variance Owner 28","seller_name":"Previous Landholder","consideration_amount_inr":"3500000.0","stamp_duty_inr":"210000.0","survey_sketch_id":"FMB-NL-18-0028","cadastral_sheet_no":"SHT-NL-18","surveyed_area_sqm":"8500.0","survey_status":"DISPUTED","urban_authority":"Kohima Sadar Urban Development & Town Planning Authority","zone_name":"Agricultural / Green Buffer","permitted_land_use":"INSTITUTIONAL","building_permission_status":"REJECTED","violations_reported":"False","is_encumbered":"True","encumbrance_certificate_number":"EC-NL-00000028-0028","encumbrance_type":"LEASE_CHARGE","financial_institution":"","mortgage_amount":"0.0","created_at":"2026-01-15T09:00:00Z","updated_at":"2026-09-24T11:30:00Z"}},{"type":"Feature","geometry":{"type":"Polygon","coordinates":[[[94.5740446117569,26.027883662202584],[94.69997955949687,26.027883662202584],[94.69997955949687,26.121550593609978],[94.55549626512838,26.150513954728414],[94.5740446117569,26.027883662202584]]]},"properties":{"ulpin":"13726512734938","parcel_id":"4f396df2-32f9-439b-9570-58a96974e7e9","state":"Nagaland","state_code":"NL","state_type":"STATE","state_lgd_code":"13","district_lgd_code":"245","district_name":"Kohima","subdistrict_lgd_code":"2220","subdistrict_name":"Kohima Sadar","subdistrict_type":"Tehsil / Taluk","village_lgd_code":"273010","village_name":"Meriema","khasra_plot_no":"KHEL-MR-108/D29","recorded_area":"0.85","recorded_area_unit":"Hectare","normalized_area_sqm":"8500.0","gis_area_sqm":"8500.0","land_use_category":"FOREST_GREEN_BELT","land_use_raw":"Community Terrace Cultivation","status":"ARCHIVED","data_freshness_status":"UNKNOWN","scenario_index":"10355","use_case_description":"Cadastral area discrepancy requiring resurvey","mutation_workflow_status":"NOTICE_PERIOD","revenue_record_id":"ROR-NL-2025-1018-0029","revenue_record_type":"Village Council Land Holding Record","khata_khewat_no":"KHT-68","khatauni_no":"KHN-168","owner_name":"Keviselie Angami","owner_name_local":"Keviselie Angami","co_owners":"","tenure_type":"Tribal Community Tenure","mutation_status":"NONE","active_mutation_id":"MUT-NL-00000029","tax_demand_status":"PAID","annual_tax_inr":"185.5","deed_number":"DEED-NL-2024-418-0029","deed_type":"Sale Deed / Conveyance","sro_office":"Sub-Registrar Office, Kohima Sadar","execution_date":"2024-05-10","registered_owner":"Keviselie Angami","seller_name":"Previous Landholder","consideration_amount_inr":"3500000.0","stamp_duty_inr":"210000.0","survey_sketch_id":"FMB-NL-18-0029","cadastral_sheet_no":"SHT-NL-18","surveyed_area_sqm":"8500.0","survey_status":"RESURVEY_REQUIRED","urban_authority":"Kohima Sadar Urban Development & Town Planning Authority","zone_name":"Agricultural / Green Buffer","permitted_land_use":"FOREST_GREEN_BELT","building_permission_status":"NOT_APPLICABLE","violations_reported":"False","is_encumbered":"False","encumbrance_certificate_number":"EC-NL-2024-118-0029","encumbrance_type":"NIL","financial_institution":"","mortgage_amount":"0.0","created_at":"2026-01-15T09:00:00Z","updated_at":"2026-09-24T11:30:00Z"}},{"type":"Feature","geometry":{"type":"Polygon","coordinates":[[[95.06267529479152,26.1166156633208],[95.16985469517509,26.096692856853096],[95.17818892152113,26.19943924012542],[95.06267529479152,26.209103596752914],[95.06267529479152,26.1166156633208]]]},"properties":{"ulpin":"13494235755696","parcel_id":"58910d13-2cf8-467e-8c00-1a869d817435","state":"Nagaland","state_code":"NL","state_type":"STATE","state_lgd_code":"13","district_lgd_code":"245","district_name":"Kohima","subdistrict_lgd_code":"2220","subdistrict_name":"Kohima Sadar","subdistrict_type":"Tehsil / Taluk","village_lgd_code":"273010","village_name":"Meriema","khasra_plot_no":"KHEL-MR-108/D30","recorded_area":"0.85","recorded_area_unit":"Hectare","normalized_area_sqm":"8500.0","gis_area_sqm":"8500.0","land_use_category":"WATER_BODY","land_use_raw":"Community Terrace Cultivation","status":"ACTIVE","data_freshness_status":"CURRENT","scenario_index":"10356","use_case_description":"Tribal non-alienation protection review","mutation_workflow_status":"HEARING_SCHEDULED","revenue_record_id":"ROR-NL-2025-1018-0030","revenue_record_type":"Village Council Land Holding Record","khata_khewat_no":"KHT-68","khatauni_no":"KHN-168","owner_name":"Keviselie Angami","owner_name_local":"Keviselie Angami","co_owners":"","tenure_type":"Bhumiswami / Raiyati with Transferable Rights","mutation_status":"MUTATED","active_mutation_id":"","tax_demand_status":"PAID","annual_tax_inr":"185.5","deed_number":"DEED-NL-2024-418-0030","deed_type":"Sale Deed / Conveyance","sro_office":"Sub-Registrar Office, Kohima Sadar","execution_date":"2024-05-10","registered_owner":"Keviselie Angami","seller_name":"Previous Landholder","consideration_amount_inr":"3500000.0","stamp_duty_inr":"210000.0","survey_sketch_id":"FMB-NL-18-0030","cadastral_sheet_no":"SHT-NL-18","surveyed_area_sqm":"8500.0","survey_status":"SURVEYED","urban_authority":"Kohima Sadar Urban Development & Town Planning Authority","zone_name":"Agricultural / Green Buffer","permitted_land_use":"WATER_BODY","building_permission_status":"SANCTIONED","violations_reported":"False","is_encumbered":"True","encumbrance_certificate_number":"EC-NL-00000030-0030","encumbrance_type":"BANK_MORTGAGE","financial_institution":"","mortgage_amount":"0.0","created_at":"2026-01-15T09:00:00Z","updated_at":"2026-09-24T11:30:00Z"}},{"type":"Feature","geometry":{"type":"Polygon","coordinates":[[[95.06267529479152,26.209103596752914],[95.17818892152113,26.19943924012542],[95.17918132013416,26.306815024101223],[95.06267529479152,26.306815024101223],[95.06267529479152,26.209103596752914]]]},"properties":{"ulpin":"13030510327697","parcel_id":"02c80484-fa0d-43e6-a387-cc6f8f7dd4ad","state":"Nagaland","state_code":"NL","state_type":"STATE","state_lgd_code":"13","district_lgd_code":"245","district_name":"Kohima","subdistrict_lgd_code":"2220","subdistrict_name":"Kohima Sadar","subdistrict_type":"Tehsil / Taluk","village_lgd_code":"273010","village_name":"Meriema","khasra_plot_no":"KHEL-MR-108/D31","recorded_area":"0.85","recorded_area_unit":"Hectare","normalized_area_sqm":"8500.0","gis_area_sqm":"8500.0","land_use_category":"MIXED_USE","land_use_raw":"Community Terrace Cultivation","status":"PENDING_MUTATION","data_freshness_status":"STALE","scenario_index":"10357","use_case_description":"Lease charge and institutional tenancy","mutation_workflow_status":"APPROVED","revenue_record_id":"ROR-NL-2025-1018-0031","revenue_record_type":"Village Council Land Holding Record","khata_khewat_no":"KHT-68","khatauni_no":"KHN-168","owner_name":"Keviselie Angami","owner_name_local":"Keviselie Angami","co_owners":"","tenure_type":"Bhumiswami / Freehold","mutation_status":"PENDING","active_mutation_id":"MUT-NL-00000031","tax_demand_status":"PAID","annual_tax_inr":"185.5","deed_number":"DEED-NL-2024-418-0031","deed_type":"Sale Deed / Conveyance","sro_office":"Sub-Registrar Office, Kohima Sadar","execution_date":"2024-05-10","registered_owner":"Keviselie Angami","seller_name":"Previous Landholder","consideration_amount_inr":"3500000.0","stamp_duty_inr":"210000.0","survey_sketch_id":"FMB-NL-18-0031","cadastral_sheet_no":"SHT-NL-18","surveyed_area_sqm":"8500.0","survey_status":"PENDING","urban_authority":"Kohima Sadar Urban Development & Town Planning Authority","zone_name":"Agricultural / Green Buffer","permitted_land_use":"MIXED_USE","building_permission_status":"PENDING","violations_reported":"False","is_encumbered":"True","encumbrance_certificate_number":"EC-NL-00000031-0031","encumbrance_type":"GOVT_REVENUE_LIEN","financial_institution":"","mortgage_amount":"0.0","created_at":"2026-01-15T09:00:00Z","updated_at":"2026-09-24T11:30:00Z"}},{"type":"Feature","geometry":{"type":"Polygon","coordinates":[[[94.70742566755821,26.842817148671458],[94.80683611309657,26.847396318763284],[94.80683611309657,26.9157040376212],[94.70290146435086,26.9157040376212],[94.70742566755821,26.842817148671458]]]},"properties":{"ulpin":"13179343364287","parcel_id":"94a16356-7edc-4209-9aa4-5db0cf68f490","state":"Nagaland","state_code":"NL","state_type":"STATE","state_lgd_code":"13","district_lgd_code":"245","district_name":"Kohima","subdistrict_lgd_code":"2220","subdistrict_name":"Kohima Sadar","subdistrict_type":"Tehsil / Taluk","village_lgd_code":"273010","village_name":"Meriema","khasra_plot_no":"KHEL-MR-108/D32","recorded_area":"0.85","recorded_area_unit":"Hectare","normalized_area_sqm":"8500.0","gis_area_sqm":"8500.0","land_use_category":"OTHER","land_use_raw":"Community Terrace Cultivation","status":"SUBDIVIDED","data_freshness_status":"UNKNOWN","scenario_index":"10358","use_case_description":"Subdivision or amalgamation history review","mutation_workflow_status":"REJECTED","revenue_record_id":"ROR-NL-2025-1018-0032","revenue_record_type":"Village Council Land Holding Record","khata_khewat_no":"KHT-68","khatauni_no":"KHN-168","owner_name":"Keviselie Angami","owner_name_local":"Keviselie Angami","co_owners":"","tenure_type":"Leasehold","mutation_status":"UNMUTATED_TRANSACTION","active_mutation_id":"MUT-NL-00000032","tax_demand_status":"PAID","annual_tax_inr":"185.5","deed_number":"DEED-NL-2024-418-0032","deed_type":"Sale Deed / Conveyance","sro_office":"Sub-Registrar Office, Kohima Sadar","execution_date":"2024-05-10","registered_owner":"Keviselie Angami","seller_name":"Previous Landholder","consideration_amount_inr":"3500000.0","stamp_duty_inr":"210000.0","survey_sketch_id":"FMB-NL-18-0032","cadastral_sheet_no":"SHT-NL-18","surveyed_area_sqm":"8500.0","survey_status":"DISPUTED","urban_authority":"Kohima Sadar Urban Development & Town Planning Authority","zone_name":"Agricultural / Green Buffer","permitted_land_use":"OTHER","building_permission_status":"REJECTED","violations_reported":"False","is_encumbered":"True","encumbrance_certificate_number":"EC-NL-00000032-0032","encumbrance_type":"COURT_ATTACHMENT","financial_institution":"","mortgage_amount":"0.0","created_at":"2026-01-15T09:00:00Z","updated_at":"2026-09-24T11:30:00Z"}},{"type":"Feature","geometry":{"type":"Polygon","coordinates":[[[94.97013218965438,26.79438081945813],[95.13535936864531,26.797028716352585],[95.12444438345429,26.925607651465732],[94.97013218965438,26.925607651465732],[94.97013218965438,26.79438081945813]]]},"properties":{"ulpin":"13713712648557","parcel_id":"b8f84495-c824-49cf-9564-246efd017f03","state":"Nagaland","state_code":"NL","state_type":"STATE","state_lgd_code":"13","district_lgd_code":"245","district_name":"Kohima","subdistrict_lgd_code":"2220","subdistrict_name":"Kohima Sadar","subdistrict_type":"Tehsil / Taluk","village_lgd_code":"273010","village_name":"Meriema","khasra_plot_no":"KHEL-MR-108/D33","recorded_area":"0.85","recorded_area_unit":"Hectare","normalized_area_sqm":"8500.0","gis_area_sqm":"8500.0","land_use_category":"RESIDENTIAL","land_use_raw":"Community Terrace Cultivation","status":"AMALGAMATED","data_freshness_status":"CURRENT","scenario_index":"10359","use_case_description":"Archived historical record for audit retrieval","mutation_workflow_status":"SLA_BREACHED","revenue_record_id":"ROR-NL-2025-1018-0033","revenue_record_type":"Village Council Land Holding Record","khata_khewat_no":"KHT-68","khatauni_no":"KHN-168","owner_name":"Keviselie Angami","owner_name_local":"Keviselie Angami","co_owners":"","tenure_type":"Government Grant","mutation_status":"REJECTED","active_mutation_id":"MUT-NL-00000033","tax_demand_status":"PAID","annual_tax_inr":"185.5","deed_number":"DEED-NL-2024-418-0033","deed_type":"Sale Deed / Conveyance","sro_office":"Sub-Registrar Office, Kohima Sadar","execution_date":"2024-05-10","registered_owner":"Registry Variance Owner 33","seller_name":"Previous Landholder","consideration_amount_inr":"3500000.0","stamp_duty_inr":"210000.0","survey_sketch_id":"FMB-NL-18-0033","cadastral_sheet_no":"SHT-NL-18","surveyed_area_sqm":"8500.0","survey_status":"RESURVEY_REQUIRED","urban_authority":"Kohima Sadar Urban Development & Town Planning Authority","zone_name":"Agricultural / Green Buffer","permitted_land_use":"RESIDENTIAL","building_permission_status":"NOT_APPLICABLE","violations_reported":"False","is_encumbered":"True","encumbrance_certificate_number":"EC-NL-00000033-0033","encumbrance_type":"TRIBAL_NON_ALIENATION","financial_institution":"","mortgage_amount":"0.0","created_at":"2026-01-15T09:00:00Z","updated_at":"2026-09-24T11:30:00Z"}},{"type":"Feature","geometry":{"type":"Polygon","coordinates":[[[94.47550190431865,26.60381135033131],[94.58167579809746,26.60381135033131],[94.58210513064068,26.684211644920712],[94.47550190431865,26.68656134704891],[94.47550190431865,26.60381135033131]]]},"properties":{"ulpin":"13975028880017","parcel_id":"c0635d9d-7c1b-4138-b669-fdbf37506f43","state":"Nagaland","state_code":"NL","state_type":"STATE","state_lgd_code":"13","district_lgd_code":"245","district_name":"Kohima","subdistrict_lgd_code":"2220","subdistrict_name":"Kohima Sadar","subdistrict_type":"Tehsil / Taluk","village_lgd_code":"273010","village_name":"Meriema","khasra_plot_no":"KHEL-MR-108/D34","recorded_area":"0.85","recorded_area_unit":"Hectare","normalized_area_sqm":"8500.0","gis_area_sqm":"8500.0","land_use_category":"COMMERCIAL","land_use_raw":"Community Terrace Cultivation","status":"DISPUTED","data_freshness_status":"STALE","scenario_index":"10360","use_case_description":"Bank mortgage and active encumbrance","mutation_workflow_status":"SUBMITTED","revenue_record_id":"ROR-NL-2025-1018-0034","revenue_record_type":"Village Council Land Holding Record","khata_khewat_no":"KHT-68","khatauni_no":"KHN-168","owner_name":"Keviselie Angami","owner_name_local":"Keviselie Angami","co_owners":"","tenure_type":"Waqf / Religious Trust","mutation_status":"DISPUTED","active_mutation_id":"MUT-NL-00000034","tax_demand_status":"PAID","annual_tax_inr":"185.5","deed_number":"DEED-NL-2024-418-0034","deed_type":"Sale Deed / Conveyance","sro_office":"Sub-Registrar Office, Kohima Sadar","execution_date":"2024-05-10","registered_owner":"Keviselie Angami","seller_name":"Previous Landholder","consideration_amount_inr":"3500000.0","stamp_duty_inr":"210000.0","survey_sketch_id":"FMB-NL-18-0034","cadastral_sheet_no":"SHT-NL-18","surveyed_area_sqm":"8500.0","survey_status":"SURVEYED","urban_authority":"Kohima Sadar Urban Development & Town Planning Authority","zone_name":"Agricultural / Green Buffer","permitted_land_use":"COMMERCIAL","building_permission_status":"SANCTIONED","violations_reported":"True","is_encumbered":"True","encumbrance_certificate_number":"EC-NL-00000034-0034","encumbrance_type":"LEASE_CHARGE","financial_institution":"","mortgage_amount":"0.0","created_at":"2026-01-15T09:00:00Z","updated_at":"2026-09-24T11:30:00Z"}}]}