{"type":"FeatureCollection","features":[{"type":"Feature","geometry":{"type":"Polygon","coordinates":[[[79.87377375747614,11.997148269820084],[79.92326271616996,12.003516642118063],[79.92347417452078,12.054537456943178],[79.87377375747614,12.054537456943178],[79.87377375747614,11.997148269820084]]]},"properties":{"ulpin":"34983962740036","parcel_id":"794f1b7f-200c-48d0-86f1-f3d4b2c7587d","state":"Puducherry","state_code":"PY","state_type":"UT","state_lgd_code":"34","district_lgd_code":"580","district_name":"Puducherry","subdistrict_lgd_code":"5510","subdistrict_name":"Oulgaret Taluk","subdistrict_type":"Tehsil / Taluk","village_lgd_code":"635102","village_name":"Reddiarpalayam","khasra_plot_no":"Cad. No. 142/2/D1","recorded_area":"4.2","recorded_area_unit":"Are-Cent","normalized_area_sqm":"420.0","gis_area_sqm":"420.0","land_use_category":"MIXED_USE","land_use_raw":"Manai (Residential)","status":"DISPUTED","data_freshness_status":"STALE","scenario_index":"19978","use_case_description":"Bank mortgage and active encumbrance","mutation_workflow_status":"SUBMITTED","revenue_record_id":"ROR-PY-2025-1036-0001","revenue_record_type":"Patta Register (Nilamagal)","khata_khewat_no":"KHT-86","khatauni_no":"KHN-186","owner_name":"Jean-Pierre Arumugam","owner_name_local":"ஜீன்-பியர் ஆறுமுகம்","co_owners":"","tenure_type":"Waqf / Religious Trust","mutation_status":"DISPUTED","active_mutation_id":"MUT-PY-00000001","tax_demand_status":"PAID","annual_tax_inr":"185.5","deed_number":"DEED-PY-2024-436-0001","deed_type":"Sale Deed / Conveyance","sro_office":"Sub-Registrar Office, Oulgaret Taluk","execution_date":"2024-05-10","registered_owner":"Jean-Pierre Arumugam","seller_name":"Previous Landholder","consideration_amount_inr":"3500000.0","stamp_duty_inr":"210000.0","survey_sketch_id":"FMB-PY-36-0001","cadastral_sheet_no":"SHT-PY-36","surveyed_area_sqm":"420.0","survey_status":"DISPUTED","urban_authority":"Oulgaret Taluk Urban Development & Town Planning Authority","zone_name":"Residential Zone","permitted_land_use":"MIXED_USE","building_permission_status":"REJECTED","violations_reported":"True","is_encumbered":"True","encumbrance_certificate_number":"EC-PY-00000001-0001","encumbrance_type":"LEASE_CHARGE","financial_institution":"","mortgage_amount":"0.0","created_at":"2026-01-15T09:00:00Z","updated_at":"2026-09-24T11:30:00Z"}},{"type":"Feature","geometry":{"type":"Polygon","coordinates":[[[79.76006201372188,11.8842435006988],[79.79467115851322,11.885487712171155],[79.79467115851322,11.914017621370045],[79.75525707266993,11.914017621370045],[79.76006201372188,11.8842435006988]]]},"properties":{"ulpin":"34423320585834","parcel_id":"8a6b4963-bf09-4843-a972-89d3cff81c87","state":"Puducherry","state_code":"PY","state_type":"UT","state_lgd_code":"34","district_lgd_code":"580","district_name":"Puducherry","subdistrict_lgd_code":"5510","subdistrict_name":"Oulgaret Taluk","subdistrict_type":"Tehsil / Taluk","village_lgd_code":"635102","village_name":"Reddiarpalayam","khasra_plot_no":"Cad. No. 142/2/D2","recorded_area":"4.2","recorded_area_unit":"Are-Cent","normalized_area_sqm":"420.0","gis_area_sqm":"420.0","land_use_category":"OTHER","land_use_raw":"Manai (Residential)","status":"ARCHIVED","data_freshness_status":"UNKNOWN","scenario_index":"19979","use_case_description":"Archived historical record for audit retrieval","mutation_workflow_status":"UNDER_VERIFICATION","revenue_record_id":"ROR-PY-2025-1036-0002","revenue_record_type":"Patta Register (Nilamagal)","khata_khewat_no":"KHT-86","khatauni_no":"KHN-186","owner_name":"Jean-Pierre Arumugam","owner_name_local":"ஜீன்-பியர் ஆறுமுகம்","co_owners":"","tenure_type":"Tribal Community Tenure","mutation_status":"NONE","active_mutation_id":"MUT-PY-00000002","tax_demand_status":"PAID","annual_tax_inr":"185.5","deed_number":"DEED-PY-2024-436-0002","deed_type":"Sale Deed / Conveyance","sro_office":"Sub-Registrar Office, Oulgaret Taluk","execution_date":"2024-05-10","registered_owner":"Registry Variance Owner 2","seller_name":"Previous Landholder","consideration_amount_inr":"3500000.0","stamp_duty_inr":"210000.0","survey_sketch_id":"FMB-PY-36-0002","cadastral_sheet_no":"SHT-PY-36","surveyed_area_sqm":"420.0","survey_status":"RESURVEY_REQUIRED","urban_authority":"Oulgaret Taluk Urban Development & Town Planning Authority","zone_name":"Residential Zone","permitted_land_use":"OTHER","building_permission_status":"NOT_APPLICABLE","violations_reported":"False","is_encumbered":"False","encumbrance_certificate_number":"EC-PY-2024-136-0002","encumbrance_type":"NIL","financial_institution":"","mortgage_amount":"0.0","created_at":"2026-01-15T09:00:00Z","updated_at":"2026-09-24T11:30:00Z"}},{"type":"Feature","geometry":{"type":"Polygon","coordinates":[[[79.75815751515725,11.861056884426983],[79.79467115851322,11.860196944286],[79.79467115851322,11.885487712171155],[79.76006201372188,11.8842435006988],[79.75815751515725,11.861056884426983]]]},"properties":{"ulpin":"34273422607775","parcel_id":"3f511ac5-1992-448c-bcd3-dc99fa4bbe07","state":"Puducherry","state_code":"PY","state_type":"UT","state_lgd_code":"34","district_lgd_code":"580","district_name":"Puducherry","subdistrict_lgd_code":"5510","subdistrict_name":"Oulgaret Taluk","subdistrict_type":"Tehsil / Taluk","village_lgd_code":"635102","village_name":"Reddiarpalayam","khasra_plot_no":"Cad. No. 142/2/D3","recorded_area":"4.2","recorded_area_unit":"Are-Cent","normalized_area_sqm":"420.0","gis_area_sqm":"420.0","land_use_category":"RESIDENTIAL","land_use_raw":"Manai (Residential)","status":"ACTIVE","data_freshness_status":"CURRENT","scenario_index":"19980","use_case_description":"Court attachment and disputed possession","mutation_workflow_status":"NOTICE_PERIOD","revenue_record_id":"ROR-PY-2025-1036-0003","revenue_record_type":"Patta Register (Nilamagal)","khata_khewat_no":"KHT-86","khatauni_no":"KHN-186","owner_name":"Jean-Pierre Arumugam","owner_name_local":"ஜீன்-பியர் ஆறுமுகம்","co_owners":"","tenure_type":"Bhumiswami / Raiyati with Transferable Rights","mutation_status":"MUTATED","active_mutation_id":"","tax_demand_status":"PAID","annual_tax_inr":"185.5","deed_number":"DEED-PY-2024-436-0003","deed_type":"Sale Deed / Conveyance","sro_office":"Sub-Registrar Office, Oulgaret Taluk","execution_date":"2024-05-10","registered_owner":"Jean-Pierre Arumugam","seller_name":"Previous Landholder","consideration_amount_inr":"3500000.0","stamp_duty_inr":"210000.0","survey_sketch_id":"FMB-PY-36-0003","cadastral_sheet_no":"SHT-PY-36","surveyed_area_sqm":"420.0","survey_status":"SURVEYED","urban_authority":"Oulgaret Taluk Urban Development & Town Planning Authority","zone_name":"Residential Zone","permitted_land_use":"RESIDENTIAL","building_permission_status":"SANCTIONED","violations_reported":"False","is_encumbered":"True","encumbrance_certificate_number":"EC-PY-00000003-0003","encumbrance_type":"BANK_MORTGAGE","financial_institution":"","mortgage_amount":"0.0","created_at":"2026-01-15T09:00:00Z","updated_at":"2026-09-24T11:30:00Z"}},{"type":"Feature","geometry":{"type":"Polygon","coordinates":[[[79.74171598286237,11.962647939634799],[79.78386584013222,11.969752298566235],[79.78672135104645,12.009494001883327],[79.74171598286237,12.008294807014074],[79.74171598286237,11.962647939634799]]]},"properties":{"ulpin":"34040501032022","parcel_id":"a69f2821-3649-4a0a-9d9d-1a9948564d21","state":"Puducherry","state_code":"PY","state_type":"UT","state_lgd_code":"34","district_lgd_code":"580","district_name":"Puducherry","subdistrict_lgd_code":"5510","subdistrict_name":"Oulgaret Taluk","subdistrict_type":"Tehsil / Taluk","village_lgd_code":"635102","village_name":"Reddiarpalayam","khasra_plot_no":"Cad. No. 142/2/D4","recorded_area":"4.2","recorded_area_unit":"Are-Cent","normalized_area_sqm":"420.0","gis_area_sqm":"420.0","land_use_category":"COMMERCIAL","land_use_raw":"Manai (Residential)","status":"PENDING_MUTATION","data_freshness_status":"STALE","scenario_index":"19981","use_case_description":"Tribal non-alienation protection review","mutation_workflow_status":"HEARING_SCHEDULED","revenue_record_id":"ROR-PY-2025-1036-0004","revenue_record_type":"Patta Register (Nilamagal)","khata_khewat_no":"KHT-86","khatauni_no":"KHN-186","owner_name":"Jean-Pierre Arumugam","owner_name_local":"ஜீன்-பியர் ஆறுமுகம்","co_owners":"","tenure_type":"Bhumiswami / Freehold","mutation_status":"PENDING","active_mutation_id":"MUT-PY-00000004","tax_demand_status":"PAID","annual_tax_inr":"185.5","deed_number":"DEED-PY-2024-436-0004","deed_type":"Sale Deed / Conveyance","sro_office":"Sub-Registrar Office, Oulgaret Taluk","execution_date":"2024-05-10","registered_owner":"Jean-Pierre Arumugam","seller_name":"Previous Landholder","consideration_amount_inr":"3500000.0","stamp_duty_inr":"210000.0","survey_sketch_id":"FMB-PY-36-0004","cadastral_sheet_no":"SHT-PY-36","surveyed_area_sqm":"420.0","survey_status":"PENDING","urban_authority":"Oulgaret Taluk Urban Development & Town Planning Authority","zone_name":"Residential Zone","permitted_land_use":"COMMERCIAL","building_permission_status":"PENDING","violations_reported":"False","is_encumbered":"True","encumbrance_certificate_number":"EC-PY-00000004-0004","encumbrance_type":"GOVT_REVENUE_LIEN","financial_institution":"","mortgage_amount":"0.0","created_at":"2026-01-15T09:00:00Z","updated_at":"2026-09-24T11:30:00Z"}},{"type":"Feature","geometry":{"type":"Polygon","coordinates":[[[79.74171598286237,11.929717537403986],[79.7781431072764,11.929717537403986],[79.78386584013222,11.969752298566235],[79.74171598286237,11.962647939634799],[79.74171598286237,11.929717537403986]]]},"properties":{"ulpin":"34297102759094","parcel_id":"7f1be8e0-a671-4ce9-842e-23c6a4969179","state":"Puducherry","state_code":"PY","state_type":"UT","state_lgd_code":"34","district_lgd_code":"580","district_name":"Puducherry","subdistrict_lgd_code":"5510","subdistrict_name":"Oulgaret Taluk","subdistrict_type":"Tehsil / Taluk","village_lgd_code":"635102","village_name":"Reddiarpalayam","khasra_plot_no":"Cad. No. 142/2/D5","recorded_area":"4.2","recorded_area_unit":"Are-Cent","normalized_area_sqm":"420.0","gis_area_sqm":"420.0","land_use_category":"INDUSTRIAL","land_use_raw":"Manai (Residential)","status":"SUBDIVIDED","data_freshness_status":"UNKNOWN","scenario_index":"19982","use_case_description":"Lease charge and institutional tenancy","mutation_workflow_status":"APPROVED","revenue_record_id":"ROR-PY-2025-1036-0005","revenue_record_type":"Patta Register (Nilamagal)","khata_khewat_no":"KHT-86","khatauni_no":"KHN-186","owner_name":"Jean-Pierre Arumugam","owner_name_local":"ஜீன்-பியர் ஆறுமுகம்","co_owners":"","tenure_type":"Leasehold","mutation_status":"UNMUTATED_TRANSACTION","active_mutation_id":"MUT-PY-00000005","tax_demand_status":"PAID","annual_tax_inr":"185.5","deed_number":"DEED-PY-2024-436-0005","deed_type":"Sale Deed / Conveyance","sro_office":"Sub-Registrar Office, Oulgaret Taluk","execution_date":"2024-05-10","registered_owner":"Jean-Pierre Arumugam","seller_name":"Previous Landholder","consideration_amount_inr":"3500000.0","stamp_duty_inr":"210000.0","survey_sketch_id":"FMB-PY-36-0005","cadastral_sheet_no":"SHT-PY-36","surveyed_area_sqm":"420.0","survey_status":"DISPUTED","urban_authority":"Oulgaret Taluk Urban Development & Town Planning Authority","zone_name":"Residential Zone","permitted_land_use":"INDUSTRIAL","building_permission_status":"REJECTED","violations_reported":"False","is_encumbered":"True","encumbrance_certificate_number":"EC-PY-00000005-0005","encumbrance_type":"COURT_ATTACHMENT","financial_institution":"","mortgage_amount":"0.0","created_at":"2026-01-15T09:00:00Z","updated_at":"2026-09-24T11:30:00Z"}},{"type":"Feature","geometry":{"type":"Polygon","coordinates":[[[79.75138642047995,11.827760094274906],[79.79467115851322,11.827760094274906],[79.79467115851322,11.860196944286],[79.75815751515725,11.861056884426983],[79.75138642047995,11.827760094274906]]]},"properties":{"ulpin":"34963027361181","parcel_id":"1ca602fb-f30e-42e8-a7a8-c8c7b1128a2d","state":"Puducherry","state_code":"PY","state_type":"UT","state_lgd_code":"34","district_lgd_code":"580","district_name":"Puducherry","subdistrict_lgd_code":"5510","subdistrict_name":"Oulgaret Taluk","subdistrict_type":"Tehsil / Taluk","village_lgd_code":"635102","village_name":"Reddiarpalayam","khasra_plot_no":"Cad. No. 142/2/D6","recorded_area":"4.2","recorded_area_unit":"Are-Cent","normalized_area_sqm":"420.0","gis_area_sqm":"420.0","land_use_category":"AGRICULTURAL","land_use_raw":"Manai (Residential)","status":"AMALGAMATED","data_freshness_status":"CURRENT","scenario_index":"19983","use_case_description":"Subdivision or amalgamation history review","mutation_workflow_status":"REJECTED","revenue_record_id":"ROR-PY-2025-1036-0006","revenue_record_type":"Patta Register (Nilamagal)","khata_khewat_no":"KHT-86","khatauni_no":"KHN-186","owner_name":"Jean-Pierre Arumugam","owner_name_local":"ஜீன்-பியர் ஆறுமுகம்","co_owners":"","tenure_type":"Government Grant","mutation_status":"REJECTED","active_mutation_id":"MUT-PY-00000006","tax_demand_status":"PAID","annual_tax_inr":"185.5","deed_number":"DEED-PY-2024-436-0006","deed_type":"Sale Deed / Conveyance","sro_office":"Sub-Registrar Office, Oulgaret Taluk","execution_date":"2024-05-10","registered_owner":"Jean-Pierre Arumugam","seller_name":"Previous Landholder","consideration_amount_inr":"3500000.0","stamp_duty_inr":"210000.0","survey_sketch_id":"FMB-PY-36-0006","cadastral_sheet_no":"SHT-PY-36","surveyed_area_sqm":"420.0","survey_status":"RESURVEY_REQUIRED","urban_authority":"Oulgaret Taluk Urban Development & Town Planning Authority","zone_name":"Residential Zone","permitted_land_use":"AGRICULTURAL","building_permission_status":"NOT_APPLICABLE","violations_reported":"False","is_encumbered":"True","encumbrance_certificate_number":"EC-PY-00000006-0006","encumbrance_type":"TRIBAL_NON_ALIENATION","financial_institution":"","mortgage_amount":"0.0","created_at":"2026-01-15T09:00:00Z","updated_at":"2026-09-24T11:30:00Z"}},{"type":"Feature","geometry":{"type":"Polygon","coordinates":[[[79.78672135104645,12.009494001883327],[79.82535174338112,12.00185088423932],[79.82535174338112,12.041687242523656],[79.77999457932843,12.041687242523656],[79.78672135104645,12.009494001883327]]]},"properties":{"ulpin":"34263729885620","parcel_id":"1a35afa1-5e73-4250-9b03-6ffa6d4a1f70","state":"Puducherry","state_code":"PY","state_type":"UT","state_lgd_code":"34","district_lgd_code":"580","district_name":"Puducherry","subdistrict_lgd_code":"5510","subdistrict_name":"Oulgaret Taluk","subdistrict_type":"Tehsil / Taluk","village_lgd_code":"635102","village_name":"Reddiarpalayam","khasra_plot_no":"Cad. No. 142/2/D7","recorded_area":"4.2","recorded_area_unit":"Are-Cent","normalized_area_sqm":"420.0","gis_area_sqm":"420.0","land_use_category":"INSTITUTIONAL","land_use_raw":"Manai (Residential)","status":"DISPUTED","data_freshness_status":"STALE","scenario_index":"19984","use_case_description":"Archived historical record for audit retrieval","mutation_workflow_status":"SLA_BREACHED","revenue_record_id":"ROR-PY-2025-1036-0007","revenue_record_type":"Patta Register (Nilamagal)","khata_khewat_no":"KHT-86","khatauni_no":"KHN-186","owner_name":"Jean-Pierre Arumugam","owner_name_local":"ஜீன்-பியர் ஆறுமுகம்","co_owners":"","tenure_type":"Waqf / Religious Trust","mutation_status":"DISPUTED","active_mutation_id":"MUT-PY-00000007","tax_demand_status":"PAID","annual_tax_inr":"185.5","deed_number":"DEED-PY-2024-436-0007","deed_type":"Sale Deed / Conveyance","sro_office":"Sub-Registrar Office, Oulgaret Taluk","execution_date":"2024-05-10","registered_owner":"Registry Variance Owner 7","seller_name":"Previous Landholder","consideration_amount_inr":"3500000.0","stamp_duty_inr":"210000.0","survey_sketch_id":"FMB-PY-36-0007","cadastral_sheet_no":"SHT-PY-36","surveyed_area_sqm":"420.0","survey_status":"SURVEYED","urban_authority":"Oulgaret Taluk Urban Development & Town Planning Authority","zone_name":"Residential Zone","permitted_land_use":"INSTITUTIONAL","building_permission_status":"SANCTIONED","violations_reported":"False","is_encumbered":"True","encumbrance_certificate_number":"EC-PY-00000007-0007","encumbrance_type":"LEASE_CHARGE","financial_institution":"","mortgage_amount":"0.0","created_at":"2026-01-15T09:00:00Z","updated_at":"2026-09-24T11:30:00Z"}},{"type":"Feature","geometry":{"type":"Polygon","coordinates":[[[79.87377375747614,11.946105290889873],[79.91604470022861,11.946105290889873],[79.92326271616996,12.003516642118063],[79.87377375747614,11.997148269820084],[79.87377375747614,11.946105290889873]]]},"properties":{"ulpin":"34644496836103","parcel_id":"012c6eb1-86c1-4238-90ca-be537fc12f70","state":"Puducherry","state_code":"PY","state_type":"UT","state_lgd_code":"34","district_lgd_code":"580","district_name":"Puducherry","subdistrict_lgd_code":"5510","subdistrict_name":"Oulgaret Taluk","subdistrict_type":"Tehsil / Taluk","village_lgd_code":"635102","village_name":"Reddiarpalayam","khasra_plot_no":"Cad. No. 142/2/D8","recorded_area":"4.2","recorded_area_unit":"Are-Cent","normalized_area_sqm":"420.0","gis_area_sqm":"420.0","land_use_category":"FOREST_GREEN_BELT","land_use_raw":"Manai (Residential)","status":"ARCHIVED","data_freshness_status":"UNKNOWN","scenario_index":"19985","use_case_description":"Cadastral area discrepancy requiring resurvey","mutation_workflow_status":"SUBMITTED","revenue_record_id":"ROR-PY-2025-1036-0008","revenue_record_type":"Patta Register (Nilamagal)","khata_khewat_no":"KHT-86","khatauni_no":"KHN-186","owner_name":"Jean-Pierre Arumugam","owner_name_local":"ஜீன்-பியர் ஆறுமுகம்","co_owners":"","tenure_type":"Tribal Community Tenure","mutation_status":"NONE","active_mutation_id":"MUT-PY-00000008","tax_demand_status":"PAID","annual_tax_inr":"185.5","deed_number":"DEED-PY-2024-436-0008","deed_type":"Sale Deed / Conveyance","sro_office":"Sub-Registrar Office, Oulgaret Taluk","execution_date":"2024-05-10","registered_owner":"Jean-Pierre Arumugam","seller_name":"Previous Landholder","consideration_amount_inr":"3500000.0","stamp_duty_inr":"210000.0","survey_sketch_id":"FMB-PY-36-0008","cadastral_sheet_no":"SHT-PY-36","surveyed_area_sqm":"420.0","survey_status":"PENDING","urban_authority":"Oulgaret Taluk Urban Development & Town Planning Authority","zone_name":"Residential Zone","permitted_land_use":"FOREST_GREEN_BELT","building_permission_status":"PENDING","violations_reported":"True","is_encumbered":"False","encumbrance_certificate_number":"EC-PY-2024-136-0008","encumbrance_type":"NIL","financial_institution":"","mortgage_amount":"0.0","created_at":"2026-01-15T09:00:00Z","updated_at":"2026-09-24T11:30:00Z"}},{"type":"Feature","geometry":{"type":"Polygon","coordinates":[[[79.94038642143484,11.775841134749047],[79.96792571522644,11.775841134749047],[79.96792571522644,11.808190863557487],[79.9387498323463,11.813881934880396],[79.94038642143484,11.775841134749047]]]},"properties":{"ulpin":"34871052257748","parcel_id":"c48f7961-35b9-4307-878d-d8a924616fd9","state":"Puducherry","state_code":"PY","state_type":"UT","state_lgd_code":"34","district_lgd_code":"580","district_name":"Puducherry","subdistrict_lgd_code":"5510","subdistrict_name":"Oulgaret Taluk","subdistrict_type":"Tehsil / Taluk","village_lgd_code":"635102","village_name":"Reddiarpalayam","khasra_plot_no":"Cad. No. 142/2/D9","recorded_area":"4.2","recorded_area_unit":"Are-Cent","normalized_area_sqm":"420.0","gis_area_sqm":"420.0","land_use_category":"WATER_BODY","land_use_raw":"Manai (Residential)","status":"ACTIVE","data_freshness_status":"CURRENT","scenario_index":"19986","use_case_description":"Government revenue lien and tax demand","mutation_workflow_status":"UNDER_VERIFICATION","revenue_record_id":"ROR-PY-2025-1036-0009","revenue_record_type":"Patta Register (Nilamagal)","khata_khewat_no":"KHT-86","khatauni_no":"KHN-186","owner_name":"Jean-Pierre Arumugam","owner_name_local":"ஜீன்-பியர் ஆறுமுகம்","co_owners":"","tenure_type":"Bhumiswami / Raiyati with Transferable Rights","mutation_status":"MUTATED","active_mutation_id":"","tax_demand_status":"PAID","annual_tax_inr":"185.5","deed_number":"DEED-PY-2024-436-0009","deed_type":"Sale Deed / Conveyance","sro_office":"Sub-Registrar Office, Oulgaret Taluk","execution_date":"2024-05-10","registered_owner":"Jean-Pierre Arumugam","seller_name":"Previous Landholder","consideration_amount_inr":"3500000.0","stamp_duty_inr":"210000.0","survey_sketch_id":"FMB-PY-36-0009","cadastral_sheet_no":"SHT-PY-36","surveyed_area_sqm":"420.0","survey_status":"DISPUTED","urban_authority":"Oulgaret Taluk Urban Development & Town Planning Authority","zone_name":"Residential Zone","permitted_land_use":"WATER_BODY","building_permission_status":"REJECTED","violations_reported":"False","is_encumbered":"True","encumbrance_certificate_number":"EC-PY-00000009-0009","encumbrance_type":"BANK_MORTGAGE","financial_institution":"","mortgage_amount":"0.0","created_at":"2026-01-15T09:00:00Z","updated_at":"2026-09-24T11:30:00Z"}},{"type":"Feature","geometry":{"type":"Polygon","coordinates":[[[79.87770899983553,11.775841134749047],[79.90920543349084,11.775841134749047],[79.90858286801848,11.808519218068792],[79.87770899983553,11.812060007764439],[79.87770899983553,11.775841134749047]]]},"properties":{"ulpin":"34265277548421","parcel_id":"903525f3-139b-4f9b-83dd-f73ac1ec7e15","state":"Puducherry","state_code":"PY","state_type":"UT","state_lgd_code":"34","district_lgd_code":"580","district_name":"Puducherry","subdistrict_lgd_code":"5510","subdistrict_name":"Oulgaret Taluk","subdistrict_type":"Tehsil / Taluk","village_lgd_code":"635102","village_name":"Reddiarpalayam","khasra_plot_no":"Cad. No. 142/2/D10","recorded_area":"4.2","recorded_area_unit":"Are-Cent","normalized_area_sqm":"420.0","gis_area_sqm":"420.0","land_use_category":"MIXED_USE","land_use_raw":"Manai (Residential)","status":"PENDING_MUTATION","data_freshness_status":"STALE","scenario_index":"19987","use_case_description":"Court attachment and disputed possession","mutation_workflow_status":"NOTICE_PERIOD","revenue_record_id":"ROR-PY-2025-1036-0010","revenue_record_type":"Patta Register (Nilamagal)","khata_khewat_no":"KHT-86","khatauni_no":"KHN-186","owner_name":"Jean-Pierre Arumugam","owner_name_local":"ஜீன்-பியர் ஆறுமுகம்","co_owners":"","tenure_type":"Bhumiswami / Freehold","mutation_status":"PENDING","active_mutation_id":"MUT-PY-00000010","tax_demand_status":"PAID","annual_tax_inr":"185.5","deed_number":"DEED-PY-2024-436-0010","deed_type":"Sale Deed / Conveyance","sro_office":"Sub-Registrar Office, Oulgaret Taluk","execution_date":"2024-05-10","registered_owner":"Jean-Pierre Arumugam","seller_name":"Previous Landholder","consideration_amount_inr":"3500000.0","stamp_duty_inr":"210000.0","survey_sketch_id":"FMB-PY-36-0010","cadastral_sheet_no":"SHT-PY-36","surveyed_area_sqm":"420.0","survey_status":"RESURVEY_REQUIRED","urban_authority":"Oulgaret Taluk Urban Development & Town Planning Authority","zone_name":"Residential Zone","permitted_land_use":"MIXED_USE","building_permission_status":"NOT_APPLICABLE","violations_reported":"False","is_encumbered":"True","encumbrance_certificate_number":"EC-PY-00000010-0010","encumbrance_type":"GOVT_REVENUE_LIEN","financial_institution":"","mortgage_amount":"0.0","created_at":"2026-01-15T09:00:00Z","updated_at":"2026-09-24T11:30:00Z"}},{"type":"Feature","geometry":{"type":"Polygon","coordinates":[[[79.91604470022861,11.946105290889873],[79.9716005732811,11.946105290889873],[79.9716005732811,12.006654928762254],[79.92326271616996,12.003516642118063],[79.91604470022861,11.946105290889873]]]},"properties":{"ulpin":"34245369425459","parcel_id":"f2e8784d-6dfa-4f4f-8e27-d19f25778268","state":"Puducherry","state_code":"PY","state_type":"UT","state_lgd_code":"34","district_lgd_code":"580","district_name":"Puducherry","subdistrict_lgd_code":"5510","subdistrict_name":"Oulgaret Taluk","subdistrict_type":"Tehsil / Taluk","village_lgd_code":"635102","village_name":"Reddiarpalayam","khasra_plot_no":"Cad. No. 142/2/D11","recorded_area":"4.2","recorded_area_unit":"Are-Cent","normalized_area_sqm":"420.0","gis_area_sqm":"420.0","land_use_category":"OTHER","land_use_raw":"Manai (Residential)","status":"SUBDIVIDED","data_freshness_status":"UNKNOWN","scenario_index":"19988","use_case_description":"Tribal non-alienation protection review","mutation_workflow_status":"HEARING_SCHEDULED","revenue_record_id":"ROR-PY-2025-1036-0011","revenue_record_type":"Patta Register (Nilamagal)","khata_khewat_no":"KHT-86","khatauni_no":"KHN-186","owner_name":"Jean-Pierre Arumugam","owner_name_local":"ஜீன்-பியர் ஆறுமுகம்","co_owners":"","tenure_type":"Leasehold","mutation_status":"UNMUTATED_TRANSACTION","active_mutation_id":"MUT-PY-00000011","tax_demand_status":"PAID","annual_tax_inr":"185.5","deed_number":"DEED-PY-2024-436-0011","deed_type":"Sale Deed / Conveyance","sro_office":"Sub-Registrar Office, Oulgaret Taluk","execution_date":"2024-05-10","registered_owner":"Jean-Pierre Arumugam","seller_name":"Previous Landholder","consideration_amount_inr":"3500000.0","stamp_duty_inr":"210000.0","survey_sketch_id":"FMB-PY-36-0011","cadastral_sheet_no":"SHT-PY-36","surveyed_area_sqm":"420.0","survey_status":"SURVEYED","urban_authority":"Oulgaret Taluk Urban Development & Town Planning Authority","zone_name":"Residential Zone","permitted_land_use":"OTHER","building_permission_status":"SANCTIONED","violations_reported":"False","is_encumbered":"True","encumbrance_certificate_number":"EC-PY-00000011-0011","encumbrance_type":"COURT_ATTACHMENT","financial_institution":"","mortgage_amount":"0.0","created_at":"2026-01-15T09:00:00Z","updated_at":"2026-09-24T11:30:00Z"}},{"type":"Feature","geometry":{"type":"Polygon","coordinates":[[[79.7781431072764,11.929717537403986],[79.82535174338112,11.929717537403986],[79.82535174338112,11.968543274722082],[79.78386584013222,11.969752298566235],[79.7781431072764,11.929717537403986]]]},"properties":{"ulpin":"34279860710025","parcel_id":"1d14174d-ac1f-4319-b2fe-79e67e4705de","state":"Puducherry","state_code":"PY","state_type":"UT","state_lgd_code":"34","district_lgd_code":"580","district_name":"Puducherry","subdistrict_lgd_code":"5510","subdistrict_name":"Oulgaret Taluk","subdistrict_type":"Tehsil / Taluk","village_lgd_code":"635102","village_name":"Reddiarpalayam","khasra_plot_no":"Cad. No. 142/2/D12","recorded_area":"4.2","recorded_area_unit":"Are-Cent","normalized_area_sqm":"420.0","gis_area_sqm":"420.0","land_use_category":"RESIDENTIAL","land_use_raw":"Manai (Residential)","status":"AMALGAMATED","data_freshness_status":"CURRENT","scenario_index":"19989","use_case_description":"Lease charge and institutional tenancy","mutation_workflow_status":"APPROVED","revenue_record_id":"ROR-PY-2025-1036-0012","revenue_record_type":"Patta Register (Nilamagal)","khata_khewat_no":"KHT-86","khatauni_no":"KHN-186","owner_name":"Jean-Pierre Arumugam","owner_name_local":"ஜீன்-பியர் ஆறுமுகம்","co_owners":"","tenure_type":"Government Grant","mutation_status":"REJECTED","active_mutation_id":"MUT-PY-00000012","tax_demand_status":"PAID","annual_tax_inr":"185.5","deed_number":"DEED-PY-2024-436-0012","deed_type":"Sale Deed / Conveyance","sro_office":"Sub-Registrar Office, Oulgaret Taluk","execution_date":"2024-05-10","registered_owner":"Registry Variance Owner 12","seller_name":"Previous Landholder","consideration_amount_inr":"3500000.0","stamp_duty_inr":"210000.0","survey_sketch_id":"FMB-PY-36-0012","cadastral_sheet_no":"SHT-PY-36","surveyed_area_sqm":"420.0","survey_status":"PENDING","urban_authority":"Oulgaret Taluk Urban Development & Town Planning Authority","zone_name":"Residential Zone","permitted_land_use":"RESIDENTIAL","building_permission_status":"PENDING","violations_reported":"False","is_encumbered":"True","encumbrance_certificate_number":"EC-PY-00000012-0012","encumbrance_type":"TRIBAL_NON_ALIENATION","financial_institution":"","mortgage_amount":"0.0","created_at":"2026-01-15T09:00:00Z","updated_at":"2026-09-24T11:30:00Z"}},{"type":"Feature","geometry":{"type":"Polygon","coordinates":[[[79.87770899983553,11.812060007764439],[79.90858286801848,11.808519218068792],[79.90640203812991,11.85627496197188],[79.87770899983553,11.851891471237325],[79.87770899983553,11.812060007764439]]]},"properties":{"ulpin":"34474596523214","parcel_id":"0d2050ab-788b-45b6-8806-f62e7066ea4f","state":"Puducherry","state_code":"PY","state_type":"UT","state_lgd_code":"34","district_lgd_code":"580","district_name":"Puducherry","subdistrict_lgd_code":"5510","subdistrict_name":"Oulgaret Taluk","subdistrict_type":"Tehsil / Taluk","village_lgd_code":"635102","village_name":"Reddiarpalayam","khasra_plot_no":"Cad. No. 142/2/D13","recorded_area":"4.2","recorded_area_unit":"Are-Cent","normalized_area_sqm":"420.0","gis_area_sqm":"420.0","land_use_category":"COMMERCIAL","land_use_raw":"Manai (Residential)","status":"DISPUTED","data_freshness_status":"STALE","scenario_index":"19990","use_case_description":"Subdivision or amalgamation history review","mutation_workflow_status":"REJECTED","revenue_record_id":"ROR-PY-2025-1036-0013","revenue_record_type":"Patta Register (Nilamagal)","khata_khewat_no":"KHT-86","khatauni_no":"KHN-186","owner_name":"Jean-Pierre Arumugam","owner_name_local":"ஜீன்-பியர் ஆறுமுகம்","co_owners":"","tenure_type":"Waqf / Religious Trust","mutation_status":"DISPUTED","active_mutation_id":"MUT-PY-00000013","tax_demand_status":"PAID","annual_tax_inr":"185.5","deed_number":"DEED-PY-2024-436-0013","deed_type":"Sale Deed / Conveyance","sro_office":"Sub-Registrar Office, Oulgaret Taluk","execution_date":"2024-05-10","registered_owner":"Jean-Pierre Arumugam","seller_name":"Previous Landholder","consideration_amount_inr":"3500000.0","stamp_duty_inr":"210000.0","survey_sketch_id":"FMB-PY-36-0013","cadastral_sheet_no":"SHT-PY-36","surveyed_area_sqm":"420.0","survey_status":"DISPUTED","urban_authority":"Oulgaret Taluk Urban Development & Town Planning Authority","zone_name":"Residential Zone","permitted_land_use":"COMMERCIAL","building_permission_status":"REJECTED","violations_reported":"False","is_encumbered":"True","encumbrance_certificate_number":"EC-PY-00000013-0013","encumbrance_type":"LEASE_CHARGE","financial_institution":"","mortgage_amount":"0.0","created_at":"2026-01-15T09:00:00Z","updated_at":"2026-09-24T11:30:00Z"}},{"type":"Feature","geometry":{"type":"Polygon","coordinates":[[[79.90920543349084,11.775841134749047],[79.94038642143484,11.775841134749047],[79.9387498323463,11.813881934880396],[79.90858286801848,11.808519218068792],[79.90920543349084,11.775841134749047]]]},"properties":{"ulpin":"34739516812817","parcel_id":"7025767a-faf4-4f05-9761-ff1975d9b495","state":"Puducherry","state_code":"PY","state_type":"UT","state_lgd_code":"34","district_lgd_code":"580","district_name":"Puducherry","subdistrict_lgd_code":"5510","subdistrict_name":"Oulgaret Taluk","subdistrict_type":"Tehsil / Taluk","village_lgd_code":"635102","village_name":"Reddiarpalayam","khasra_plot_no":"Cad. No. 142/2/D14","recorded_area":"4.2","recorded_area_unit":"Are-Cent","normalized_area_sqm":"420.0","gis_area_sqm":"420.0","land_use_category":"INDUSTRIAL","land_use_raw":"Manai (Residential)","status":"ARCHIVED","data_freshness_status":"UNKNOWN","scenario_index":"19991","use_case_description":"Tribal non-alienation protection review","mutation_workflow_status":"SLA_BREACHED","revenue_record_id":"ROR-PY-2025-1036-0014","revenue_record_type":"Patta Register (Nilamagal)","khata_khewat_no":"KHT-86","khatauni_no":"KHN-186","owner_name":"Jean-Pierre Arumugam","owner_name_local":"ஜீன்-பியர் ஆறுமுகம்","co_owners":"","tenure_type":"Tribal Community Tenure","mutation_status":"NONE","active_mutation_id":"MUT-PY-00000014","tax_demand_status":"PAID","annual_tax_inr":"185.5","deed_number":"DEED-PY-2024-436-0014","deed_type":"Sale Deed / Conveyance","sro_office":"Sub-Registrar Office, Oulgaret Taluk","execution_date":"2024-05-10","registered_owner":"Jean-Pierre Arumugam","seller_name":"Previous Landholder","consideration_amount_inr":"3500000.0","stamp_duty_inr":"210000.0","survey_sketch_id":"FMB-PY-36-0014","cadastral_sheet_no":"SHT-PY-36","surveyed_area_sqm":"420.0","survey_status":"RESURVEY_REQUIRED","urban_authority":"Oulgaret Taluk Urban Development & Town Planning Authority","zone_name":"Residential Zone","permitted_land_use":"INDUSTRIAL","building_permission_status":"NOT_APPLICABLE","violations_reported":"False","is_encumbered":"False","encumbrance_certificate_number":"EC-PY-2024-136-0014","encumbrance_type":"NIL","financial_institution":"","mortgage_amount":"0.0","created_at":"2026-01-15T09:00:00Z","updated_at":"2026-09-24T11:30:00Z"}},{"type":"Feature","geometry":{"type":"Polygon","coordinates":[[[79.71368312830369,11.827760094274906],[79.75138642047995,11.827760094274906],[79.75815751515725,11.861056884426983],[79.71368312830369,11.85664146217215],[79.71368312830369,11.827760094274906]]]},"properties":{"ulpin":"34940890053493","parcel_id":"6d40e5f0-e530-4813-b3ef-a3ae8959f05f","state":"Puducherry","state_code":"PY","state_type":"UT","state_lgd_code":"34","district_lgd_code":"580","district_name":"Puducherry","subdistrict_lgd_code":"5510","subdistrict_name":"Oulgaret Taluk","subdistrict_type":"Tehsil / Taluk","village_lgd_code":"635102","village_name":"Reddiarpalayam","khasra_plot_no":"Cad. No. 142/2/D15","recorded_area":"4.2","recorded_area_unit":"Are-Cent","normalized_area_sqm":"420.0","gis_area_sqm":"420.0","land_use_category":"AGRICULTURAL","land_use_raw":"Manai (Residential)","status":"ACTIVE","data_freshness_status":"CURRENT","scenario_index":"19992","use_case_description":"Bank mortgage and active encumbrance","mutation_workflow_status":"SUBMITTED","revenue_record_id":"ROR-PY-2025-1036-0015","revenue_record_type":"Patta Register (Nilamagal)","khata_khewat_no":"KHT-86","khatauni_no":"KHN-186","owner_name":"Jean-Pierre Arumugam","owner_name_local":"ஜீன்-பியர் ஆறுமுகம்","co_owners":"","tenure_type":"Bhumiswami / Raiyati with Transferable Rights","mutation_status":"MUTATED","active_mutation_id":"","tax_demand_status":"PAID","annual_tax_inr":"185.5","deed_number":"DEED-PY-2024-436-0015","deed_type":"Sale Deed / Conveyance","sro_office":"Sub-Registrar Office, Oulgaret Taluk","execution_date":"2024-05-10","registered_owner":"Jean-Pierre Arumugam","seller_name":"Previous Landholder","consideration_amount_inr":"3500000.0","stamp_duty_inr":"210000.0","survey_sketch_id":"FMB-PY-36-0015","cadastral_sheet_no":"SHT-PY-36","surveyed_area_sqm":"420.0","survey_status":"SURVEYED","urban_authority":"Oulgaret Taluk Urban Development & Town Planning Authority","zone_name":"Residential Zone","permitted_land_use":"AGRICULTURAL","building_permission_status":"SANCTIONED","violations_reported":"True","is_encumbered":"True","encumbrance_certificate_number":"EC-PY-00000015-0015","encumbrance_type":"BANK_MORTGAGE","financial_institution":"","mortgage_amount":"0.0","created_at":"2026-01-15T09:00:00Z","updated_at":"2026-09-24T11:30:00Z"}},{"type":"Feature","geometry":{"type":"Polygon","coordinates":[[[79.71368312830369,11.882743373456124],[79.76006201372188,11.8842435006988],[79.75525707266993,11.914017621370045],[79.71368312830369,11.914017621370045],[79.71368312830369,11.882743373456124]]]},"properties":{"ulpin":"34372960221956","parcel_id":"c978e4d8-2e7f-4c43-963c-f480cf510a1c","state":"Puducherry","state_code":"PY","state_type":"UT","state_lgd_code":"34","district_lgd_code":"580","district_name":"Puducherry","subdistrict_lgd_code":"5510","subdistrict_name":"Oulgaret Taluk","subdistrict_type":"Tehsil / Taluk","village_lgd_code":"635102","village_name":"Reddiarpalayam","khasra_plot_no":"Cad. No. 142/2/D16","recorded_area":"4.2","recorded_area_unit":"Are-Cent","normalized_area_sqm":"420.0","gis_area_sqm":"420.0","land_use_category":"INSTITUTIONAL","land_use_raw":"Manai (Residential)","status":"PENDING_MUTATION","data_freshness_status":"STALE","scenario_index":"19993","use_case_description":"Government revenue lien and tax demand","mutation_workflow_status":"UNDER_VERIFICATION","revenue_record_id":"ROR-PY-2025-1036-0016","revenue_record_type":"Patta Register (Nilamagal)","khata_khewat_no":"KHT-86","khatauni_no":"KHN-186","owner_name":"Jean-Pierre Arumugam","owner_name_local":"ஜீன்-பியர் ஆறுமுகம்","co_owners":"","tenure_type":"Bhumiswami / Freehold","mutation_status":"PENDING","active_mutation_id":"MUT-PY-00000016","tax_demand_status":"PAID","annual_tax_inr":"185.5","deed_number":"DEED-PY-2024-436-0016","deed_type":"Sale Deed / Conveyance","sro_office":"Sub-Registrar Office, Oulgaret Taluk","execution_date":"2024-05-10","registered_owner":"Jean-Pierre Arumugam","seller_name":"Previous Landholder","consideration_amount_inr":"3500000.0","stamp_duty_inr":"210000.0","survey_sketch_id":"FMB-PY-36-0016","cadastral_sheet_no":"SHT-PY-36","surveyed_area_sqm":"420.0","survey_status":"PENDING","urban_authority":"Oulgaret Taluk Urban Development & Town Planning Authority","zone_name":"Residential Zone","permitted_land_use":"INSTITUTIONAL","building_permission_status":"PENDING","violations_reported":"False","is_encumbered":"True","encumbrance_certificate_number":"EC-PY-00000016-0016","encumbrance_type":"GOVT_REVENUE_LIEN","financial_institution":"","mortgage_amount":"0.0","created_at":"2026-01-15T09:00:00Z","updated_at":"2026-09-24T11:30:00Z"}},{"type":"Feature","geometry":{"type":"Polygon","coordinates":[[[79.93529257864513,11.85370966828313],[79.96792571522644,11.856916304510998],[79.96792571522644,11.889366106902841],[79.93911905253701,11.889366106902841],[79.93529257864513,11.85370966828313]]]},"properties":{"ulpin":"34732107724101","parcel_id":"ef501c15-9279-4923-8754-4c0a1f1b944a","state":"Puducherry","state_code":"PY","state_type":"UT","state_lgd_code":"34","district_lgd_code":"580","district_name":"Puducherry","subdistrict_lgd_code":"5510","subdistrict_name":"Oulgaret Taluk","subdistrict_type":"Tehsil / Taluk","village_lgd_code":"635102","village_name":"Reddiarpalayam","khasra_plot_no":"Cad. No. 142/2/D17","recorded_area":"4.2","recorded_area_unit":"Are-Cent","normalized_area_sqm":"420.0","gis_area_sqm":"420.0","land_use_category":"FOREST_GREEN_BELT","land_use_raw":"Manai (Residential)","status":"SUBDIVIDED","data_freshness_status":"UNKNOWN","scenario_index":"19994","use_case_description":"Court attachment and disputed possession","mutation_workflow_status":"NOTICE_PERIOD","revenue_record_id":"ROR-PY-2025-1036-0017","revenue_record_type":"Patta Register (Nilamagal)","khata_khewat_no":"KHT-86","khatauni_no":"KHN-186","owner_name":"Jean-Pierre Arumugam","owner_name_local":"ஜீன்-பியர் ஆறுமுகம்","co_owners":"","tenure_type":"Leasehold","mutation_status":"UNMUTATED_TRANSACTION","active_mutation_id":"MUT-PY-00000017","tax_demand_status":"PAID","annual_tax_inr":"185.5","deed_number":"DEED-PY-2024-436-0017","deed_type":"Sale Deed / Conveyance","sro_office":"Sub-Registrar Office, Oulgaret Taluk","execution_date":"2024-05-10","registered_owner":"Registry Variance Owner 17","seller_name":"Previous Landholder","consideration_amount_inr":"3500000.0","stamp_duty_inr":"210000.0","survey_sketch_id":"FMB-PY-36-0017","cadastral_sheet_no":"SHT-PY-36","surveyed_area_sqm":"420.0","survey_status":"DISPUTED","urban_authority":"Oulgaret Taluk Urban Development & Town Planning Authority","zone_name":"Residential Zone","permitted_land_use":"FOREST_GREEN_BELT","building_permission_status":"REJECTED","violations_reported":"False","is_encumbered":"True","encumbrance_certificate_number":"EC-PY-00000017-0017","encumbrance_type":"COURT_ATTACHMENT","financial_institution":"","mortgage_amount":"0.0","created_at":"2026-01-15T09:00:00Z","updated_at":"2026-09-24T11:30:00Z"}},{"type":"Feature","geometry":{"type":"Polygon","coordinates":[[[79.90858286801848,11.808519218068792],[79.9387498323463,11.813881934880396],[79.93529257864513,11.85370966828313],[79.90640203812991,11.85627496197188],[79.90858286801848,11.808519218068792]]]},"properties":{"ulpin":"34226636315148","parcel_id":"c1c85c1a-724e-4afa-9989-e99e192a7820","state":"Puducherry","state_code":"PY","state_type":"UT","state_lgd_code":"34","district_lgd_code":"580","district_name":"Puducherry","subdistrict_lgd_code":"5510","subdistrict_name":"Oulgaret Taluk","subdistrict_type":"Tehsil / Taluk","village_lgd_code":"635102","village_name":"Reddiarpalayam","khasra_plot_no":"Cad. No. 142/2/D18","recorded_area":"4.2","recorded_area_unit":"Are-Cent","normalized_area_sqm":"420.0","gis_area_sqm":"420.0","land_use_category":"WATER_BODY","land_use_raw":"Manai (Residential)","status":"AMALGAMATED","data_freshness_status":"CURRENT","scenario_index":"19995","use_case_description":"Tribal non-alienation protection review","mutation_workflow_status":"HEARING_SCHEDULED","revenue_record_id":"ROR-PY-2025-1036-0018","revenue_record_type":"Patta Register (Nilamagal)","khata_khewat_no":"KHT-86","khatauni_no":"KHN-186","owner_name":"Jean-Pierre Arumugam","owner_name_local":"ஜீன்-பியர் ஆறுமுகம்","co_owners":"","tenure_type":"Government Grant","mutation_status":"REJECTED","active_mutation_id":"MUT-PY-00000018","tax_demand_status":"PAID","annual_tax_inr":"185.5","deed_number":"DEED-PY-2024-436-0018","deed_type":"Sale Deed / Conveyance","sro_office":"Sub-Registrar Office, Oulgaret Taluk","execution_date":"2024-05-10","registered_owner":"Jean-Pierre Arumugam","seller_name":"Previous Landholder","consideration_amount_inr":"3500000.0","stamp_duty_inr":"210000.0","survey_sketch_id":"FMB-PY-36-0018","cadastral_sheet_no":"SHT-PY-36","surveyed_area_sqm":"420.0","survey_status":"RESURVEY_REQUIRED","urban_authority":"Oulgaret Taluk Urban Development & Town Planning Authority","zone_name":"Residential Zone","permitted_land_use":"WATER_BODY","building_permission_status":"NOT_APPLICABLE","violations_reported":"False","is_encumbered":"True","encumbrance_certificate_number":"EC-PY-00000018-0018","encumbrance_type":"TRIBAL_NON_ALIENATION","financial_institution":"","mortgage_amount":"0.0","created_at":"2026-01-15T09:00:00Z","updated_at":"2026-09-24T11:30:00Z"}},{"type":"Feature","geometry":{"type":"Polygon","coordinates":[[[79.90640203812991,11.85627496197188],[79.93529257864513,11.85370966828313],[79.93911905253701,11.889366106902841],[79.90581675136437,11.889366106902841],[79.90640203812991,11.85627496197188]]]},"properties":{"ulpin":"34721058286081","parcel_id":"52063629-95a6-4b2d-9863-e088f728dec0","state":"Puducherry","state_code":"PY","state_type":"UT","state_lgd_code":"34","district_lgd_code":"580","district_name":"Puducherry","subdistrict_lgd_code":"5510","subdistrict_name":"Oulgaret Taluk","subdistrict_type":"Tehsil / Taluk","village_lgd_code":"635102","village_name":"Reddiarpalayam","khasra_plot_no":"Cad. No. 142/2/D19","recorded_area":"4.2","recorded_area_unit":"Are-Cent","normalized_area_sqm":"420.0","gis_area_sqm":"420.0","land_use_category":"MIXED_USE","land_use_raw":"Manai (Residential)","status":"DISPUTED","data_freshness_status":"STALE","scenario_index":"19996","use_case_description":"Lease charge and institutional tenancy","mutation_workflow_status":"APPROVED","revenue_record_id":"ROR-PY-2025-1036-0019","revenue_record_type":"Patta Register (Nilamagal)","khata_khewat_no":"KHT-86","khatauni_no":"KHN-186","owner_name":"Jean-Pierre Arumugam","owner_name_local":"ஜீன்-பியர் ஆறுமுகம்","co_owners":"","tenure_type":"Waqf / Religious Trust","mutation_status":"DISPUTED","active_mutation_id":"MUT-PY-00000019","tax_demand_status":"PAID","annual_tax_inr":"185.5","deed_number":"DEED-PY-2024-436-0019","deed_type":"Sale Deed / Conveyance","sro_office":"Sub-Registrar Office, Oulgaret Taluk","execution_date":"2024-05-10","registered_owner":"Jean-Pierre Arumugam","seller_name":"Previous Landholder","consideration_amount_inr":"3500000.0","stamp_duty_inr":"210000.0","survey_sketch_id":"FMB-PY-36-0019","cadastral_sheet_no":"SHT-PY-36","surveyed_area_sqm":"420.0","survey_status":"SURVEYED","urban_authority":"Oulgaret Taluk Urban Development & Town Planning Authority","zone_name":"Residential Zone","permitted_land_use":"MIXED_USE","building_permission_status":"SANCTIONED","violations_reported":"False","is_encumbered":"True","encumbrance_certificate_number":"EC-PY-00000019-0019","encumbrance_type":"LEASE_CHARGE","financial_institution":"","mortgage_amount":"0.0","created_at":"2026-01-15T09:00:00Z","updated_at":"2026-09-24T11:30:00Z"}},{"type":"Feature","geometry":{"type":"Polygon","coordinates":[[[79.71368312830369,11.85664146217215],[79.75815751515725,11.861056884426983],[79.76006201372188,11.8842435006988],[79.71368312830369,11.882743373456124],[79.71368312830369,11.85664146217215]]]},"properties":{"ulpin":"34537164817624","parcel_id":"c2d3d961-bbf1-426a-aa5f-15ac6e286a2e","state":"Puducherry","state_code":"PY","state_type":"UT","state_lgd_code":"34","district_lgd_code":"580","district_name":"Puducherry","subdistrict_lgd_code":"5510","subdistrict_name":"Oulgaret Taluk","subdistrict_type":"Tehsil / Taluk","village_lgd_code":"635102","village_name":"Reddiarpalayam","khasra_plot_no":"Cad. No. 142/2/D20","recorded_area":"4.2","recorded_area_unit":"Are-Cent","normalized_area_sqm":"420.0","gis_area_sqm":"420.0","land_use_category":"OTHER","land_use_raw":"Manai (Residential)","status":"ARCHIVED","data_freshness_status":"UNKNOWN","scenario_index":"19997","use_case_description":"Pending sale mutation within statutory SLA","mutation_workflow_status":"REJECTED","revenue_record_id":"ROR-PY-2025-1036-0020","revenue_record_type":"Patta Register (Nilamagal)","khata_khewat_no":"KHT-86","khatauni_no":"KHN-186","owner_name":"Jean-Pierre Arumugam","owner_name_local":"ஜீன்-பியர் ஆறுமுகம்","co_owners":"","tenure_type":"Tribal Community Tenure","mutation_status":"NONE","active_mutation_id":"MUT-PY-00000020","tax_demand_status":"PAID","annual_tax_inr":"185.5","deed_number":"DEED-PY-2024-436-0020","deed_type":"Sale Deed / Conveyance","sro_office":"Sub-Registrar Office, Oulgaret Taluk","execution_date":"2024-05-10","registered_owner":"Jean-Pierre Arumugam","seller_name":"Previous Landholder","consideration_amount_inr":"3500000.0","stamp_duty_inr":"210000.0","survey_sketch_id":"FMB-PY-36-0020","cadastral_sheet_no":"SHT-PY-36","surveyed_area_sqm":"420.0","survey_status":"PENDING","urban_authority":"Oulgaret Taluk Urban Development & Town Planning Authority","zone_name":"Residential Zone","permitted_land_use":"OTHER","building_permission_status":"PENDING","violations_reported":"False","is_encumbered":"False","encumbrance_certificate_number":"EC-PY-2024-136-0020","encumbrance_type":"NIL","financial_institution":"","mortgage_amount":"0.0","created_at":"2026-01-15T09:00:00Z","updated_at":"2026-09-24T11:30:00Z"}},{"type":"Feature","geometry":{"type":"Polygon","coordinates":[[[79.78386584013222,11.969752298566235],[79.82535174338112,11.968543274722082],[79.82535174338112,12.00185088423932],[79.78672135104645,12.009494001883327],[79.78386584013222,11.969752298566235]]]},"properties":{"ulpin":"34899731275129","parcel_id":"34254ba5-9040-441e-99f6-6783490d2c8f","state":"Puducherry","state_code":"PY","state_type":"UT","state_lgd_code":"34","district_lgd_code":"580","district_name":"Puducherry","subdistrict_lgd_code":"5510","subdistrict_name":"Oulgaret Taluk","subdistrict_type":"Tehsil / Taluk","village_lgd_code":"635102","village_name":"Reddiarpalayam","khasra_plot_no":"Cad. No. 142/2/D21","recorded_area":"4.2","recorded_area_unit":"Are-Cent","normalized_area_sqm":"420.0","gis_area_sqm":"420.0","land_use_category":"RESIDENTIAL","land_use_raw":"Manai (Residential)","status":"ACTIVE","data_freshness_status":"CURRENT","scenario_index":"19998","use_case_description":"Archived historical record for audit retrieval","mutation_workflow_status":"SLA_BREACHED","revenue_record_id":"ROR-PY-2025-1036-0021","revenue_record_type":"Patta Register (Nilamagal)","khata_khewat_no":"KHT-86","khatauni_no":"KHN-186","owner_name":"Jean-Pierre Arumugam","owner_name_local":"ஜீன்-பியர் ஆறுமுகம்","co_owners":"","tenure_type":"Bhumiswami / Raiyati with Transferable Rights","mutation_status":"MUTATED","active_mutation_id":"","tax_demand_status":"PAID","annual_tax_inr":"185.5","deed_number":"DEED-PY-2024-436-0021","deed_type":"Sale Deed / Conveyance","sro_office":"Sub-Registrar Office, Oulgaret Taluk","execution_date":"2024-05-10","registered_owner":"Jean-Pierre Arumugam","seller_name":"Previous Landholder","consideration_amount_inr":"3500000.0","stamp_duty_inr":"210000.0","survey_sketch_id":"FMB-PY-36-0021","cadastral_sheet_no":"SHT-PY-36","surveyed_area_sqm":"420.0","survey_status":"DISPUTED","urban_authority":"Oulgaret Taluk Urban Development & Town Planning Authority","zone_name":"Residential Zone","permitted_land_use":"RESIDENTIAL","building_permission_status":"REJECTED","violations_reported":"False","is_encumbered":"True","encumbrance_certificate_number":"EC-PY-00000021-0021","encumbrance_type":"BANK_MORTGAGE","financial_institution":"","mortgage_amount":"0.0","created_at":"2026-01-15T09:00:00Z","updated_at":"2026-09-24T11:30:00Z"}},{"type":"Feature","geometry":{"type":"Polygon","coordinates":[[[79.9387498323463,11.813881934880396],[79.96792571522644,11.808190863557487],[79.96792571522644,11.856916304510998],[79.93529257864513,11.85370966828313],[79.9387498323463,11.813881934880396]]]},"properties":{"ulpin":"34589074735841","parcel_id":"d0c90093-ce77-4fb6-a034-7b9a9a25de2b","state":"Puducherry","state_code":"PY","state_type":"UT","state_lgd_code":"34","district_lgd_code":"580","district_name":"Puducherry","subdistrict_lgd_code":"5510","subdistrict_name":"Oulgaret Taluk","subdistrict_type":"Tehsil / Taluk","village_lgd_code":"635102","village_name":"Reddiarpalayam","khasra_plot_no":"Cad. No. 142/2/D22","recorded_area":"4.2","recorded_area_unit":"Are-Cent","normalized_area_sqm":"420.0","gis_area_sqm":"420.0","land_use_category":"COMMERCIAL","land_use_raw":"Manai (Residential)","status":"PENDING_MUTATION","data_freshness_status":"STALE","scenario_index":"19999","use_case_description":"Bank mortgage and active encumbrance","mutation_workflow_status":"SUBMITTED","revenue_record_id":"ROR-PY-2025-1036-0022","revenue_record_type":"Patta Register (Nilamagal)","khata_khewat_no":"KHT-86","khatauni_no":"KHN-186","owner_name":"Jean-Pierre Arumugam","owner_name_local":"ஜீன்-பியர் ஆறுமுகம்","co_owners":"","tenure_type":"Bhumiswami / Freehold","mutation_status":"PENDING","active_mutation_id":"MUT-PY-00000022","tax_demand_status":"PAID","annual_tax_inr":"185.5","deed_number":"DEED-PY-2024-436-0022","deed_type":"Sale Deed / Conveyance","sro_office":"Sub-Registrar Office, Oulgaret Taluk","execution_date":"2024-05-10","registered_owner":"Registry Variance Owner 22","seller_name":"Previous Landholder","consideration_amount_inr":"3500000.0","stamp_duty_inr":"210000.0","survey_sketch_id":"FMB-PY-36-0022","cadastral_sheet_no":"SHT-PY-36","surveyed_area_sqm":"420.0","survey_status":"RESURVEY_REQUIRED","urban_authority":"Oulgaret Taluk Urban Development & Town Planning Authority","zone_name":"Residential Zone","permitted_land_use":"COMMERCIAL","building_permission_status":"NOT_APPLICABLE","violations_reported":"True","is_encumbered":"True","encumbrance_certificate_number":"EC-PY-00000022-0022","encumbrance_type":"GOVT_REVENUE_LIEN","financial_institution":"","mortgage_amount":"0.0","created_at":"2026-01-15T09:00:00Z","updated_at":"2026-09-24T11:30:00Z"}}]}