{"type":"FeatureCollection","features":[{"type":"Feature","geometry":{"type":"Polygon","coordinates":[[[87.9563674393292,27.311701374228807],[88.17832306462462,27.311701374228807],[88.17832306462462,27.627492108919835],[87.96479333051295,27.627492108919835],[87.9563674393292,27.311701374228807]]]},"properties":{"ulpin":"11323673754106","parcel_id":"b22ae812-d12f-45d6-93cd-9f79f410820d","state":"Sikkim","state_code":"SK","state_type":"STATE","state_lgd_code":"11","district_lgd_code":"220","district_name":"East Sikkim (Gangtok)","subdistrict_lgd_code":"2010","subdistrict_name":"Gangtok Sub-Division","subdistrict_type":"Tehsil / Taluk","village_lgd_code":"251090","village_name":"Tadong Block","khasra_plot_no":"Plot 64/Khatiyan 12/D1","recorded_area":"680.0","recorded_area_unit":"Square Meter","normalized_area_sqm":"680.0","gis_area_sqm":"680.0","land_use_category":"MIXED_USE","land_use_raw":"Residential Terraced","status":"PENDING_MUTATION","data_freshness_status":"STALE","scenario_index":"12643","use_case_description":"Government revenue lien and tax demand","mutation_workflow_status":"UNDER_VERIFICATION","revenue_record_id":"ROR-SK-2025-1022-0001","revenue_record_type":"Parcha Khatiyan (LR&DMD Sikkim)","khata_khewat_no":"KHT-72","khatauni_no":"KHN-172","owner_name":"Karma Tenzing Bhutia","owner_name_local":"Karma Tenzing Bhutia","co_owners":"","tenure_type":"Bhumiswami / Freehold","mutation_status":"PENDING","active_mutation_id":"MUT-SK-00000001","tax_demand_status":"PAID","annual_tax_inr":"185.5","deed_number":"DEED-SK-2024-422-0001","deed_type":"Sale Deed / Conveyance","sro_office":"Sub-Registrar Office, Gangtok Sub-Division","execution_date":"2024-05-10","registered_owner":"Karma Tenzing Bhutia","seller_name":"Previous Landholder","consideration_amount_inr":"3500000.0","stamp_duty_inr":"210000.0","survey_sketch_id":"FMB-SK-22-0001","cadastral_sheet_no":"SHT-SK-22","surveyed_area_sqm":"680.0","survey_status":"RESURVEY_REQUIRED","urban_authority":"Gangtok Sub-Division Urban Development & Town Planning Authority","zone_name":"Residential Zone","permitted_land_use":"MIXED_USE","building_permission_status":"NOT_APPLICABLE","violations_reported":"False","is_encumbered":"True","encumbrance_certificate_number":"EC-SK-00000001-0001","encumbrance_type":"GOVT_REVENUE_LIEN","financial_institution":"","mortgage_amount":"0.0","created_at":"2026-01-15T09:00:00Z","updated_at":"2026-09-24T11:30:00Z"}},{"type":"Feature","geometry":{"type":"Polygon","coordinates":[[[87.82782888707644,26.93176563062655],[87.98542401575752,26.93176563062655],[88.02339981926487,27.04855690695912],[87.82782888707644,27.042893543977062],[87.82782888707644,26.93176563062655]]]},"properties":{"ulpin":"11998369940047","parcel_id":"7f3a84eb-f15a-4c9c-9e5b-4b54fd9b870b","state":"Sikkim","state_code":"SK","state_type":"STATE","state_lgd_code":"11","district_lgd_code":"220","district_name":"East Sikkim (Gangtok)","subdistrict_lgd_code":"2010","subdistrict_name":"Gangtok Sub-Division","subdistrict_type":"Tehsil / Taluk","village_lgd_code":"251090","village_name":"Tadong Block","khasra_plot_no":"Plot 64/Khatiyan 12/D2","recorded_area":"680.0","recorded_area_unit":"Square Meter","normalized_area_sqm":"680.0","gis_area_sqm":"680.0","land_use_category":"OTHER","land_use_raw":"Residential Terraced","status":"SUBDIVIDED","data_freshness_status":"UNKNOWN","scenario_index":"12644","use_case_description":"Court attachment and disputed possession","mutation_workflow_status":"NOTICE_PERIOD","revenue_record_id":"ROR-SK-2025-1022-0002","revenue_record_type":"Parcha Khatiyan (LR&DMD Sikkim)","khata_khewat_no":"KHT-72","khatauni_no":"KHN-172","owner_name":"Karma Tenzing Bhutia","owner_name_local":"Karma Tenzing Bhutia","co_owners":"","tenure_type":"Leasehold","mutation_status":"UNMUTATED_TRANSACTION","active_mutation_id":"MUT-SK-00000002","tax_demand_status":"PAID","annual_tax_inr":"185.5","deed_number":"DEED-SK-2024-422-0002","deed_type":"Sale Deed / Conveyance","sro_office":"Sub-Registrar Office, Gangtok Sub-Division","execution_date":"2024-05-10","registered_owner":"Registry Variance Owner 2","seller_name":"Previous Landholder","consideration_amount_inr":"3500000.0","stamp_duty_inr":"210000.0","survey_sketch_id":"FMB-SK-22-0002","cadastral_sheet_no":"SHT-SK-22","surveyed_area_sqm":"680.0","survey_status":"SURVEYED","urban_authority":"Gangtok Sub-Division Urban Development & Town Planning Authority","zone_name":"Residential Zone","permitted_land_use":"OTHER","building_permission_status":"SANCTIONED","violations_reported":"False","is_encumbered":"True","encumbrance_certificate_number":"EC-SK-00000002-0002","encumbrance_type":"COURT_ATTACHMENT","financial_institution":"","mortgage_amount":"0.0","created_at":"2026-01-15T09:00:00Z","updated_at":"2026-09-24T11:30:00Z"}},{"type":"Feature","geometry":{"type":"Polygon","coordinates":[[[87.98542401575752,26.93176563062655],[88.18020399996777,26.93176563062655],[88.18020399996777,27.064879662622737],[88.02339981926487,27.04855690695912],[87.98542401575752,26.93176563062655]]]},"properties":{"ulpin":"11174396442080","parcel_id":"59c1ce49-5d34-4b60-bee2-d9091bdea58e","state":"Sikkim","state_code":"SK","state_type":"STATE","state_lgd_code":"11","district_lgd_code":"220","district_name":"East Sikkim (Gangtok)","subdistrict_lgd_code":"2010","subdistrict_name":"Gangtok Sub-Division","subdistrict_type":"Tehsil / Taluk","village_lgd_code":"251090","village_name":"Tadong Block","khasra_plot_no":"Plot 64/Khatiyan 12/D3","recorded_area":"680.0","recorded_area_unit":"Square Meter","normalized_area_sqm":"680.0","gis_area_sqm":"680.0","land_use_category":"RESIDENTIAL","land_use_raw":"Residential Terraced","status":"AMALGAMATED","data_freshness_status":"CURRENT","scenario_index":"12645","use_case_description":"Tribal non-alienation protection review","mutation_workflow_status":"HEARING_SCHEDULED","revenue_record_id":"ROR-SK-2025-1022-0003","revenue_record_type":"Parcha Khatiyan (LR&DMD Sikkim)","khata_khewat_no":"KHT-72","khatauni_no":"KHN-172","owner_name":"Karma Tenzing Bhutia","owner_name_local":"Karma Tenzing Bhutia","co_owners":"","tenure_type":"Government Grant","mutation_status":"REJECTED","active_mutation_id":"MUT-SK-00000003","tax_demand_status":"PAID","annual_tax_inr":"185.5","deed_number":"DEED-SK-2024-422-0003","deed_type":"Sale Deed / Conveyance","sro_office":"Sub-Registrar Office, Gangtok Sub-Division","execution_date":"2024-05-10","registered_owner":"Karma Tenzing Bhutia","seller_name":"Previous Landholder","consideration_amount_inr":"3500000.0","stamp_duty_inr":"210000.0","survey_sketch_id":"FMB-SK-22-0003","cadastral_sheet_no":"SHT-SK-22","surveyed_area_sqm":"680.0","survey_status":"PENDING","urban_authority":"Gangtok Sub-Division Urban Development & Town Planning Authority","zone_name":"Residential Zone","permitted_land_use":"RESIDENTIAL","building_permission_status":"PENDING","violations_reported":"False","is_encumbered":"True","encumbrance_certificate_number":"EC-SK-00000003-0003","encumbrance_type":"TRIBAL_NON_ALIENATION","financial_institution":"","mortgage_amount":"0.0","created_at":"2026-01-15T09:00:00Z","updated_at":"2026-09-24T11:30:00Z"}},{"type":"Feature","geometry":{"type":"Polygon","coordinates":[[[88.32240823013157,26.877078314446425],[88.55296094689737,26.877078314446425],[88.53195403088401,27.065681403467117],[88.32240823013157,27.020497951674688],[88.32240823013157,26.877078314446425]]]},"properties":{"ulpin":"11547691229010","parcel_id":"3f95bf29-0644-404c-8bc7-451347e7de63","state":"Sikkim","state_code":"SK","state_type":"STATE","state_lgd_code":"11","district_lgd_code":"220","district_name":"East Sikkim (Gangtok)","subdistrict_lgd_code":"2010","subdistrict_name":"Gangtok Sub-Division","subdistrict_type":"Tehsil / Taluk","village_lgd_code":"251090","village_name":"Tadong Block","khasra_plot_no":"Plot 64/Khatiyan 12/D4","recorded_area":"680.0","recorded_area_unit":"Square Meter","normalized_area_sqm":"680.0","gis_area_sqm":"680.0","land_use_category":"COMMERCIAL","land_use_raw":"Residential Terraced","status":"DISPUTED","data_freshness_status":"STALE","scenario_index":"12646","use_case_description":"Lease charge and institutional tenancy","mutation_workflow_status":"APPROVED","revenue_record_id":"ROR-SK-2025-1022-0004","revenue_record_type":"Parcha Khatiyan (LR&DMD Sikkim)","khata_khewat_no":"KHT-72","khatauni_no":"KHN-172","owner_name":"Karma Tenzing Bhutia","owner_name_local":"Karma Tenzing Bhutia","co_owners":"","tenure_type":"Waqf / Religious Trust","mutation_status":"DISPUTED","active_mutation_id":"MUT-SK-00000004","tax_demand_status":"PAID","annual_tax_inr":"185.5","deed_number":"DEED-SK-2024-422-0004","deed_type":"Sale Deed / Conveyance","sro_office":"Sub-Registrar Office, Gangtok Sub-Division","execution_date":"2024-05-10","registered_owner":"Karma Tenzing Bhutia","seller_name":"Previous Landholder","consideration_amount_inr":"3500000.0","stamp_duty_inr":"210000.0","survey_sketch_id":"FMB-SK-22-0004","cadastral_sheet_no":"SHT-SK-22","surveyed_area_sqm":"680.0","survey_status":"DISPUTED","urban_authority":"Gangtok Sub-Division Urban Development & Town Planning Authority","zone_name":"Residential Zone","permitted_land_use":"COMMERCIAL","building_permission_status":"REJECTED","violations_reported":"False","is_encumbered":"True","encumbrance_certificate_number":"EC-SK-00000004-0004","encumbrance_type":"LEASE_CHARGE","financial_institution":"","mortgage_amount":"0.0","created_at":"2026-01-15T09:00:00Z","updated_at":"2026-09-24T11:30:00Z"}},{"type":"Feature","geometry":{"type":"Polygon","coordinates":[[[88.02339981926487,27.04855690695912],[88.18020399996777,27.064879662622737],[88.18020399996777,27.184940319854444],[88.03095400262195,27.169199921934744],[88.02339981926487,27.04855690695912]]]},"properties":{"ulpin":"11738596910054","parcel_id":"70dc2839-71de-4abd-b27d-cd39644828a6","state":"Sikkim","state_code":"SK","state_type":"STATE","state_lgd_code":"11","district_lgd_code":"220","district_name":"East Sikkim (Gangtok)","subdistrict_lgd_code":"2010","subdistrict_name":"Gangtok Sub-Division","subdistrict_type":"Tehsil / Taluk","village_lgd_code":"251090","village_name":"Tadong Block","khasra_plot_no":"Plot 64/Khatiyan 12/D5","recorded_area":"680.0","recorded_area_unit":"Square Meter","normalized_area_sqm":"680.0","gis_area_sqm":"680.0","land_use_category":"INDUSTRIAL","land_use_raw":"Residential Terraced","status":"ARCHIVED","data_freshness_status":"UNKNOWN","scenario_index":"12647","use_case_description":"Pending sale mutation within statutory SLA","mutation_workflow_status":"REJECTED","revenue_record_id":"ROR-SK-2025-1022-0005","revenue_record_type":"Parcha Khatiyan (LR&DMD Sikkim)","khata_khewat_no":"KHT-72","khatauni_no":"KHN-172","owner_name":"Karma Tenzing Bhutia","owner_name_local":"Karma Tenzing Bhutia","co_owners":"","tenure_type":"Tribal Community Tenure","mutation_status":"NONE","active_mutation_id":"MUT-SK-00000005","tax_demand_status":"PAID","annual_tax_inr":"185.5","deed_number":"DEED-SK-2024-422-0005","deed_type":"Sale Deed / Conveyance","sro_office":"Sub-Registrar Office, Gangtok Sub-Division","execution_date":"2024-05-10","registered_owner":"Karma Tenzing Bhutia","seller_name":"Previous Landholder","consideration_amount_inr":"3500000.0","stamp_duty_inr":"210000.0","survey_sketch_id":"FMB-SK-22-0005","cadastral_sheet_no":"SHT-SK-22","surveyed_area_sqm":"680.0","survey_status":"RESURVEY_REQUIRED","urban_authority":"Gangtok Sub-Division Urban Development & Town Planning Authority","zone_name":"Residential Zone","permitted_land_use":"INDUSTRIAL","building_permission_status":"NOT_APPLICABLE","violations_reported":"False","is_encumbered":"False","encumbrance_certificate_number":"EC-SK-2024-122-0005","encumbrance_type":"NIL","financial_institution":"","mortgage_amount":"0.0","created_at":"2026-01-15T09:00:00Z","updated_at":"2026-09-24T11:30:00Z"}},{"type":"Feature","geometry":{"type":"Polygon","coordinates":[[[87.82782888707644,27.173925143596914],[88.03095400262195,27.169199921934744],[87.99636297845527,27.292810528154327],[87.82782888707644,27.292810528154327],[87.82782888707644,27.173925143596914]]]},"properties":{"ulpin":"11185979633370","parcel_id":"1cf42d87-e076-4725-a825-e8c16c414d05","state":"Sikkim","state_code":"SK","state_type":"STATE","state_lgd_code":"11","district_lgd_code":"220","district_name":"East Sikkim (Gangtok)","subdistrict_lgd_code":"2010","subdistrict_name":"Gangtok Sub-Division","subdistrict_type":"Tehsil / Taluk","village_lgd_code":"251090","village_name":"Tadong Block","khasra_plot_no":"Plot 64/Khatiyan 12/D6","recorded_area":"680.0","recorded_area_unit":"Square Meter","normalized_area_sqm":"680.0","gis_area_sqm":"680.0","land_use_category":"AGRICULTURAL","land_use_raw":"Residential Terraced","status":"ACTIVE","data_freshness_status":"CURRENT","scenario_index":"12648","use_case_description":"Archived historical record for audit retrieval","mutation_workflow_status":"SLA_BREACHED","revenue_record_id":"ROR-SK-2025-1022-0006","revenue_record_type":"Parcha Khatiyan (LR&DMD Sikkim)","khata_khewat_no":"KHT-72","khatauni_no":"KHN-172","owner_name":"Karma Tenzing Bhutia","owner_name_local":"Karma Tenzing Bhutia","co_owners":"","tenure_type":"Bhumiswami / Raiyati with Transferable Rights","mutation_status":"MUTATED","active_mutation_id":"","tax_demand_status":"PAID","annual_tax_inr":"185.5","deed_number":"DEED-SK-2024-422-0006","deed_type":"Sale Deed / Conveyance","sro_office":"Sub-Registrar Office, Gangtok Sub-Division","execution_date":"2024-05-10","registered_owner":"Karma Tenzing Bhutia","seller_name":"Previous Landholder","consideration_amount_inr":"3500000.0","stamp_duty_inr":"210000.0","survey_sketch_id":"FMB-SK-22-0006","cadastral_sheet_no":"SHT-SK-22","surveyed_area_sqm":"680.0","survey_status":"SURVEYED","urban_authority":"Gangtok Sub-Division Urban Development & Town Planning Authority","zone_name":"Residential Zone","permitted_land_use":"AGRICULTURAL","building_permission_status":"SANCTIONED","violations_reported":"False","is_encumbered":"True","encumbrance_certificate_number":"EC-SK-00000006-0006","encumbrance_type":"BANK_MORTGAGE","financial_institution":"","mortgage_amount":"0.0","created_at":"2026-01-15T09:00:00Z","updated_at":"2026-09-24T11:30:00Z"}},{"type":"Feature","geometry":{"type":"Polygon","coordinates":[[[88.32240823013157,27.020497951674688],[88.53195403088401,27.065681403467117],[88.54003785630361,27.202975584695917],[88.32240823013157,27.202975584695917],[88.32240823013157,27.020497951674688]]]},"properties":{"ulpin":"11619052986537","parcel_id":"dcea7c73-6d44-4732-b234-6d4c4eed588c","state":"Sikkim","state_code":"SK","state_type":"STATE","state_lgd_code":"11","district_lgd_code":"220","district_name":"East Sikkim (Gangtok)","subdistrict_lgd_code":"2010","subdistrict_name":"Gangtok Sub-Division","subdistrict_type":"Tehsil / Taluk","village_lgd_code":"251090","village_name":"Tadong Block","khasra_plot_no":"Plot 64/Khatiyan 12/D7","recorded_area":"680.0","recorded_area_unit":"Square Meter","normalized_area_sqm":"680.0","gis_area_sqm":"680.0","land_use_category":"INSTITUTIONAL","land_use_raw":"Residential Terraced","status":"PENDING_MUTATION","data_freshness_status":"STALE","scenario_index":"12649","use_case_description":"Bank mortgage and active encumbrance","mutation_workflow_status":"SUBMITTED","revenue_record_id":"ROR-SK-2025-1022-0007","revenue_record_type":"Parcha Khatiyan (LR&DMD Sikkim)","khata_khewat_no":"KHT-72","khatauni_no":"KHN-172","owner_name":"Karma Tenzing Bhutia","owner_name_local":"Karma Tenzing Bhutia","co_owners":"","tenure_type":"Bhumiswami / Freehold","mutation_status":"PENDING","active_mutation_id":"MUT-SK-00000007","tax_demand_status":"PAID","annual_tax_inr":"185.5","deed_number":"DEED-SK-2024-422-0007","deed_type":"Sale Deed / Conveyance","sro_office":"Sub-Registrar Office, Gangtok Sub-Division","execution_date":"2024-05-10","registered_owner":"Registry Variance Owner 7","seller_name":"Previous Landholder","consideration_amount_inr":"3500000.0","stamp_duty_inr":"210000.0","survey_sketch_id":"FMB-SK-22-0007","cadastral_sheet_no":"SHT-SK-22","surveyed_area_sqm":"680.0","survey_status":"PENDING","urban_authority":"Gangtok Sub-Division Urban Development & Town Planning Authority","zone_name":"Residential Zone","permitted_land_use":"INSTITUTIONAL","building_permission_status":"PENDING","violations_reported":"True","is_encumbered":"True","encumbrance_certificate_number":"EC-SK-00000007-0007","encumbrance_type":"GOVT_REVENUE_LIEN","financial_institution":"","mortgage_amount":"0.0","created_at":"2026-01-15T09:00:00Z","updated_at":"2026-09-24T11:30:00Z"}},{"type":"Feature","geometry":{"type":"Polygon","coordinates":[[[88.55296094689737,26.877078314446425],[88.75062609583401,26.877078314446425],[88.75062609583401,27.05106207327117],[88.53195403088401,27.065681403467117],[88.55296094689737,26.877078314446425]]]},"properties":{"ulpin":"11040136796649","parcel_id":"95bcea4e-5a25-43a9-97f1-3d17bb4f7f27","state":"Sikkim","state_code":"SK","state_type":"STATE","state_lgd_code":"11","district_lgd_code":"220","district_name":"East Sikkim (Gangtok)","subdistrict_lgd_code":"2010","subdistrict_name":"Gangtok Sub-Division","subdistrict_type":"Tehsil / Taluk","village_lgd_code":"251090","village_name":"Tadong Block","khasra_plot_no":"Plot 64/Khatiyan 12/D8","recorded_area":"680.0","recorded_area_unit":"Square Meter","normalized_area_sqm":"680.0","gis_area_sqm":"680.0","land_use_category":"FOREST_GREEN_BELT","land_use_raw":"Residential Terraced","status":"SUBDIVIDED","data_freshness_status":"UNKNOWN","scenario_index":"12650","use_case_description":"Government revenue lien and tax demand","mutation_workflow_status":"UNDER_VERIFICATION","revenue_record_id":"ROR-SK-2025-1022-0008","revenue_record_type":"Parcha Khatiyan (LR&DMD Sikkim)","khata_khewat_no":"KHT-72","khatauni_no":"KHN-172","owner_name":"Karma Tenzing Bhutia","owner_name_local":"Karma Tenzing Bhutia","co_owners":"","tenure_type":"Leasehold","mutation_status":"UNMUTATED_TRANSACTION","active_mutation_id":"MUT-SK-00000008","tax_demand_status":"PAID","annual_tax_inr":"185.5","deed_number":"DEED-SK-2024-422-0008","deed_type":"Sale Deed / Conveyance","sro_office":"Sub-Registrar Office, Gangtok Sub-Division","execution_date":"2024-05-10","registered_owner":"Karma Tenzing Bhutia","seller_name":"Previous Landholder","consideration_amount_inr":"3500000.0","stamp_duty_inr":"210000.0","survey_sketch_id":"FMB-SK-22-0008","cadastral_sheet_no":"SHT-SK-22","surveyed_area_sqm":"680.0","survey_status":"DISPUTED","urban_authority":"Gangtok Sub-Division Urban Development & Town Planning Authority","zone_name":"Residential Zone","permitted_land_use":"FOREST_GREEN_BELT","building_permission_status":"REJECTED","violations_reported":"False","is_encumbered":"True","encumbrance_certificate_number":"EC-SK-00000008-0008","encumbrance_type":"COURT_ATTACHMENT","financial_institution":"","mortgage_amount":"0.0","created_at":"2026-01-15T09:00:00Z","updated_at":"2026-09-24T11:30:00Z"}},{"type":"Feature","geometry":{"type":"Polygon","coordinates":[[[87.79212782450539,27.311701374228807],[87.9563674393292,27.311701374228807],[87.96479333051295,27.627492108919835],[87.79212782450539,27.627492108919835],[87.79212782450539,27.311701374228807]]]},"properties":{"ulpin":"11516992289127","parcel_id":"f3596766-6ca8-43ba-9cc4-42f457e7187e","state":"Sikkim","state_code":"SK","state_type":"STATE","state_lgd_code":"11","district_lgd_code":"220","district_name":"East Sikkim (Gangtok)","subdistrict_lgd_code":"2010","subdistrict_name":"Gangtok Sub-Division","subdistrict_type":"Tehsil / Taluk","village_lgd_code":"251090","village_name":"Tadong Block","khasra_plot_no":"Plot 64/Khatiyan 12/D9","recorded_area":"680.0","recorded_area_unit":"Square Meter","normalized_area_sqm":"680.0","gis_area_sqm":"680.0","land_use_category":"WATER_BODY","land_use_raw":"Residential Terraced","status":"AMALGAMATED","data_freshness_status":"CURRENT","scenario_index":"12651","use_case_description":"Court attachment and disputed possession","mutation_workflow_status":"NOTICE_PERIOD","revenue_record_id":"ROR-SK-2025-1022-0009","revenue_record_type":"Parcha Khatiyan (LR&DMD Sikkim)","khata_khewat_no":"KHT-72","khatauni_no":"KHN-172","owner_name":"Karma Tenzing Bhutia","owner_name_local":"Karma Tenzing Bhutia","co_owners":"","tenure_type":"Government Grant","mutation_status":"REJECTED","active_mutation_id":"MUT-SK-00000009","tax_demand_status":"PAID","annual_tax_inr":"185.5","deed_number":"DEED-SK-2024-422-0009","deed_type":"Sale Deed / Conveyance","sro_office":"Sub-Registrar Office, Gangtok Sub-Division","execution_date":"2024-05-10","registered_owner":"Karma Tenzing Bhutia","seller_name":"Previous Landholder","consideration_amount_inr":"3500000.0","stamp_duty_inr":"210000.0","survey_sketch_id":"FMB-SK-22-0009","cadastral_sheet_no":"SHT-SK-22","surveyed_area_sqm":"680.0","survey_status":"RESURVEY_REQUIRED","urban_authority":"Gangtok Sub-Division Urban Development & Town Planning Authority","zone_name":"Residential Zone","permitted_land_use":"WATER_BODY","building_permission_status":"NOT_APPLICABLE","violations_reported":"False","is_encumbered":"True","encumbrance_certificate_number":"EC-SK-00000009-0009","encumbrance_type":"TRIBAL_NON_ALIENATION","financial_institution":"","mortgage_amount":"0.0","created_at":"2026-01-15T09:00:00Z","updated_at":"2026-09-24T11:30:00Z"}},{"type":"Feature","geometry":{"type":"Polygon","coordinates":[[[88.03095400262195,27.169199921934744],[88.18020399996777,27.184940319854444],[88.18020399996777,27.292810528154327],[87.99636297845527,27.292810528154327],[88.03095400262195,27.169199921934744]]]},"properties":{"ulpin":"11485544275242","parcel_id":"dfc17c59-449c-4a07-a42b-d52ed99b153a","state":"Sikkim","state_code":"SK","state_type":"STATE","state_lgd_code":"11","district_lgd_code":"220","district_name":"East Sikkim (Gangtok)","subdistrict_lgd_code":"2010","subdistrict_name":"Gangtok Sub-Division","subdistrict_type":"Tehsil / Taluk","village_lgd_code":"251090","village_name":"Tadong Block","khasra_plot_no":"Plot 64/Khatiyan 12/D10","recorded_area":"680.0","recorded_area_unit":"Square Meter","normalized_area_sqm":"680.0","gis_area_sqm":"680.0","land_use_category":"MIXED_USE","land_use_raw":"Residential Terraced","status":"DISPUTED","data_freshness_status":"STALE","scenario_index":"12652","use_case_description":"Tribal non-alienation protection review","mutation_workflow_status":"HEARING_SCHEDULED","revenue_record_id":"ROR-SK-2025-1022-0010","revenue_record_type":"Parcha Khatiyan (LR&DMD Sikkim)","khata_khewat_no":"KHT-72","khatauni_no":"KHN-172","owner_name":"Karma Tenzing Bhutia","owner_name_local":"Karma Tenzing Bhutia","co_owners":"","tenure_type":"Waqf / Religious Trust","mutation_status":"DISPUTED","active_mutation_id":"MUT-SK-00000010","tax_demand_status":"PAID","annual_tax_inr":"185.5","deed_number":"DEED-SK-2024-422-0010","deed_type":"Sale Deed / Conveyance","sro_office":"Sub-Registrar Office, Gangtok Sub-Division","execution_date":"2024-05-10","registered_owner":"Karma Tenzing Bhutia","seller_name":"Previous Landholder","consideration_amount_inr":"3500000.0","stamp_duty_inr":"210000.0","survey_sketch_id":"FMB-SK-22-0010","cadastral_sheet_no":"SHT-SK-22","surveyed_area_sqm":"680.0","survey_status":"SURVEYED","urban_authority":"Gangtok Sub-Division Urban Development & Town Planning Authority","zone_name":"Residential Zone","permitted_land_use":"MIXED_USE","building_permission_status":"SANCTIONED","violations_reported":"False","is_encumbered":"True","encumbrance_certificate_number":"EC-SK-00000010-0010","encumbrance_type":"LEASE_CHARGE","financial_institution":"","mortgage_amount":"0.0","created_at":"2026-01-15T09:00:00Z","updated_at":"2026-09-24T11:30:00Z"}},{"type":"Feature","geometry":{"type":"Polygon","coordinates":[[[87.82782888707644,27.042893543977062],[88.02339981926487,27.04855690695912],[88.03095400262195,27.169199921934744],[87.82782888707644,27.173925143596914],[87.82782888707644,27.042893543977062]]]},"properties":{"ulpin":"11760293561886","parcel_id":"02560a33-c1bd-4cf7-9557-0e94c8932352","state":"Sikkim","state_code":"SK","state_type":"STATE","state_lgd_code":"11","district_lgd_code":"220","district_name":"East Sikkim (Gangtok)","subdistrict_lgd_code":"2010","subdistrict_name":"Gangtok Sub-Division","subdistrict_type":"Tehsil / Taluk","village_lgd_code":"251090","village_name":"Tadong Block","khasra_plot_no":"Plot 64/Khatiyan 12/D11","recorded_area":"680.0","recorded_area_unit":"Square Meter","normalized_area_sqm":"680.0","gis_area_sqm":"680.0","land_use_category":"OTHER","land_use_raw":"Residential Terraced","status":"ARCHIVED","data_freshness_status":"UNKNOWN","scenario_index":"12653","use_case_description":"Bank mortgage and active encumbrance","mutation_workflow_status":"APPROVED","revenue_record_id":"ROR-SK-2025-1022-0011","revenue_record_type":"Parcha Khatiyan (LR&DMD Sikkim)","khata_khewat_no":"KHT-72","khatauni_no":"KHN-172","owner_name":"Karma Tenzing Bhutia","owner_name_local":"Karma Tenzing Bhutia","co_owners":"","tenure_type":"Tribal Community Tenure","mutation_status":"NONE","active_mutation_id":"MUT-SK-00000011","tax_demand_status":"PAID","annual_tax_inr":"185.5","deed_number":"DEED-SK-2024-422-0011","deed_type":"Sale Deed / Conveyance","sro_office":"Sub-Registrar Office, Gangtok Sub-Division","execution_date":"2024-05-10","registered_owner":"Karma Tenzing Bhutia","seller_name":"Previous Landholder","consideration_amount_inr":"3500000.0","stamp_duty_inr":"210000.0","survey_sketch_id":"FMB-SK-22-0011","cadastral_sheet_no":"SHT-SK-22","surveyed_area_sqm":"680.0","survey_status":"PENDING","urban_authority":"Gangtok Sub-Division Urban Development & Town Planning Authority","zone_name":"Residential Zone","permitted_land_use":"OTHER","building_permission_status":"PENDING","violations_reported":"False","is_encumbered":"False","encumbrance_certificate_number":"EC-SK-2024-122-0011","encumbrance_type":"NIL","financial_institution":"","mortgage_amount":"0.0","created_at":"2026-01-15T09:00:00Z","updated_at":"2026-09-24T11:30:00Z"}}]}